; Diane Fort — Cup Spirograph Topper G-code
; Food Printing assignment
;
; CUP STRUCTURE:
;   Outline: solid base (layer 1) + circular wall (layers 2+)
;   Fill   : concentric rings inside cup (second material)
;
; Wall layers: 8
; Layer height: 1.0 mm
; Base Z: 5.50 mm
; Wall top Z: 13.50 mm
; Radius: 26.0 mm  (diameter 52.0 mm)
; Center: (100, 100)
; Print speed: 800 mm/min
; Extrusion mult: 0.025
; Continuation after fort fill: first topper layer starts at Z=16.50 mm (fill ended at Z=15.50 mm)

; === INITIALIZATION ===
G21              ; Set units to millimeters
G90              ; Absolute positioning
M82              ; Absolute extrusion mode
; Continuation file: keep printer coordinates from the completed fort print


; === TOPPER LAYER 1/3 — SPIROGRAPH  (Z=16.50 mm) ===
G1 Z25.50 F600   ; Initial safe Z-hop over wall
G1 X116.000 Y100.000 F1200   ; Safe travel → spirograph topper
G1 Z16.50 F300   ; Lower to Z
G1 X116.034 Y99.757 E0.0061 F800
G1 X116.136 Y99.523 E0.0125 F800
G1 X116.303 Y99.307 E0.0193 F800
G1 X116.534 Y99.118 E0.0268 F800
G1 X116.824 Y98.962 E0.0350 F800
G1 X117.169 Y98.849 E0.0441 F800
G1 X117.563 Y98.786 E0.0541 F800
G1 X118.000 Y98.777 E0.0650 F800
G1 X118.472 Y98.830 E0.0769 F800
G1 X118.971 Y98.948 E0.0897 F800
G1 X119.489 Y99.135 E0.1035 F800
G1 X120.018 Y99.394 E0.1182 F800
G1 X120.549 Y99.725 E0.1338 F800
G1 X121.072 Y100.129 E0.1504 F800
G1 X121.579 Y100.606 E0.1677 F800
G1 X122.060 Y101.152 E0.1860 F800
G1 X122.506 Y101.767 E0.2049 F800
G1 X122.911 Y102.444 E0.2247 F800
G1 X123.266 Y103.180 E0.2451 F800
G1 X123.564 Y103.968 E0.2662 F800
G1 X123.799 Y104.803 E0.2878 F800
G1 X123.965 Y105.675 E0.3100 F800
G1 X124.058 Y106.578 E0.3327 F800
G1 X124.075 Y107.502 E0.3558 F800
G1 X124.013 Y108.439 E0.3793 F800
G1 X123.872 Y109.380 E0.4031 F800
G1 X123.650 Y110.316 E0.4271 F800
G1 X123.348 Y111.237 E0.4514 F800
G1 X122.970 Y112.135 E0.4757 F800
G1 X122.517 Y113.000 E0.5001 F800
G1 X121.994 Y113.825 E0.5246 F800
G1 X121.406 Y114.602 E0.5489 F800
G1 X120.759 Y115.323 E0.5732 F800
G1 X120.059 Y115.983 E0.5972 F800
G1 X119.315 Y116.577 E0.6210 F800
G1 X118.534 Y117.099 E0.6445 F800
G1 X117.725 Y117.546 E0.6676 F800
G1 X116.897 Y117.917 E0.6903 F800
G1 X116.058 Y118.209 E0.7125 F800
G1 X115.219 Y118.423 E0.7341 F800
G1 X114.387 Y118.559 E0.7552 F800
G1 X113.572 Y118.619 E0.7756 F800
G1 X112.783 Y118.608 E0.7954 F800
G1 X112.028 Y118.528 E0.8143 F800
G1 X111.314 Y118.385 E0.8326 F800
G1 X110.648 Y118.184 E0.8499 F800
G1 X110.036 Y117.934 E0.8665 F800
G1 X109.484 Y117.640 E0.8821 F800
G1 X108.996 Y117.311 E0.8968 F800
G1 X108.575 Y116.955 E0.9106 F800
G1 X108.223 Y116.582 E0.9234 F800
G1 X107.941 Y116.199 E0.9353 F800
G1 X107.730 Y115.817 E0.9462 F800
G1 X107.588 Y115.444 E0.9562 F800
G1 X107.514 Y115.089 E0.9653 F800
G1 X107.503 Y114.760 E0.9735 F800
G1 X107.552 Y114.465 E0.9810 F800
G1 X107.655 Y114.212 E0.9878 F800
G1 X107.807 Y114.007 E0.9942 F800
G1 X108.000 Y113.856 E1.0003 F800
G1 X108.227 Y113.764 E1.0064 F800
G1 X108.481 Y113.736 E1.0128 F800
G1 X108.752 Y113.773 E1.0196 F800
G1 X109.031 Y113.878 E1.0271 F800
G1 X109.311 Y114.051 E1.0353 F800
G1 X109.581 Y114.294 E1.0444 F800
G1 X109.833 Y114.603 E1.0544 F800
G1 X110.059 Y114.977 E1.0653 F800
G1 X110.249 Y115.412 E1.0772 F800
G1 X110.396 Y115.903 E1.0900 F800
G1 X110.494 Y116.446 E1.1038 F800
G1 X110.534 Y117.033 E1.1185 F800
G1 X110.513 Y117.658 E1.1341 F800
G1 X110.424 Y118.313 E1.1507 F800
G1 X110.265 Y118.990 E1.1680 F800
G1 X110.032 Y119.680 E1.1863 F800
G1 X109.723 Y120.375 E1.2052 F800
G1 X109.339 Y121.064 E1.2250 F800
G1 X108.879 Y121.739 E1.2454 F800
G1 X108.345 Y122.391 E1.2665 F800
G1 X107.740 Y123.011 E1.2881 F800
G1 X107.068 Y123.592 E1.3103 F800
G1 X106.333 Y124.124 E1.3330 F800
G1 X105.541 Y124.601 E1.3561 F800
G1 X104.698 Y125.016 E1.3796 F800
G1 X103.812 Y125.364 E1.4034 F800
G1 X102.891 Y125.639 E1.4274 F800
G1 X101.942 Y125.839 E1.4517 F800
G1 X100.976 Y125.960 E1.4760 F800
G1 X100.000 Y126.000 E1.5004 F800
G1 X99.024 Y125.960 E1.5249 F800
G1 X98.058 Y125.839 E1.5492 F800
G1 X97.109 Y125.639 E1.5734 F800
G1 X96.188 Y125.364 E1.5975 F800
G1 X95.302 Y125.016 E1.6213 F800
G1 X94.459 Y124.601 E1.6448 F800
G1 X93.667 Y124.124 E1.6679 F800
G1 X92.932 Y123.592 E1.6906 F800
G1 X92.260 Y123.011 E1.7128 F800
G1 X91.655 Y122.391 E1.7344 F800
G1 X91.121 Y121.739 E1.7555 F800
G1 X90.661 Y121.064 E1.7759 F800
G1 X90.277 Y120.375 E1.7957 F800
G1 X89.968 Y119.680 E1.8146 F800
G1 X89.735 Y118.990 E1.8329 F800
G1 X89.576 Y118.313 E1.8502 F800
G1 X89.487 Y117.658 E1.8668 F800
G1 X89.466 Y117.033 E1.8824 F800
G1 X89.506 Y116.446 E1.8971 F800
G1 X89.604 Y115.903 E1.9109 F800
G1 X89.751 Y115.412 E1.9237 F800
G1 X89.941 Y114.977 E1.9356 F800
G1 X90.167 Y114.603 E1.9465 F800
G1 X90.419 Y114.294 E1.9565 F800
G1 X90.689 Y114.051 E1.9656 F800
G1 X90.969 Y113.878 E1.9738 F800
G1 X91.248 Y113.773 E1.9813 F800
G1 X91.519 Y113.736 E1.9881 F800
G1 X91.773 Y113.764 E1.9945 F800
G1 X92.000 Y113.856 E2.0006 F800
G1 X92.193 Y114.007 E2.0067 F800
G1 X92.345 Y114.212 E2.0131 F800
G1 X92.448 Y114.465 E2.0199 F800
G1 X92.497 Y114.760 E2.0274 F800
G1 X92.486 Y115.089 E2.0356 F800
G1 X92.412 Y115.444 E2.0447 F800
G1 X92.270 Y115.817 E2.0547 F800
G1 X92.059 Y116.199 E2.0656 F800
G1 X91.777 Y116.582 E2.0775 F800
G1 X91.425 Y116.955 E2.0903 F800
G1 X91.004 Y117.311 E2.1041 F800
G1 X90.516 Y117.640 E2.1188 F800
G1 X89.964 Y117.934 E2.1344 F800
G1 X89.352 Y118.184 E2.1510 F800
G1 X88.686 Y118.385 E2.1683 F800
G1 X87.972 Y118.528 E2.1866 F800
G1 X87.217 Y118.608 E2.2055 F800
G1 X86.428 Y118.619 E2.2253 F800
G1 X85.613 Y118.559 E2.2457 F800
G1 X84.781 Y118.423 E2.2668 F800
G1 X83.942 Y118.209 E2.2884 F800
G1 X83.103 Y117.917 E2.3106 F800
G1 X82.275 Y117.546 E2.3333 F800
G1 X81.466 Y117.099 E2.3564 F800
G1 X80.685 Y116.577 E2.3799 F800
G1 X79.941 Y115.983 E2.4037 F800
G1 X79.241 Y115.323 E2.4277 F800
G1 X78.594 Y114.602 E2.4520 F800
G1 X78.006 Y113.825 E2.4763 F800
G1 X77.483 Y113.000 E2.5007 F800
G1 X77.030 Y112.135 E2.5252 F800
G1 X76.652 Y111.237 E2.5495 F800
G1 X76.350 Y110.316 E2.5737 F800
G1 X76.128 Y109.380 E2.5978 F800
G1 X75.987 Y108.439 E2.6216 F800
G1 X75.925 Y107.502 E2.6451 F800
G1 X75.942 Y106.578 E2.6682 F800
G1 X76.035 Y105.675 E2.6909 F800
G1 X76.201 Y104.803 E2.7131 F800
G1 X76.436 Y103.968 E2.7347 F800
G1 X76.734 Y103.180 E2.7558 F800
G1 X77.089 Y102.444 E2.7762 F800
G1 X77.494 Y101.767 E2.7960 F800
G1 X77.940 Y101.152 E2.8149 F800
G1 X78.421 Y100.606 E2.8332 F800
G1 X78.928 Y100.129 E2.8505 F800
G1 X79.451 Y99.725 E2.8671 F800
G1 X79.982 Y99.394 E2.8827 F800
G1 X80.511 Y99.135 E2.8974 F800
G1 X81.029 Y98.948 E2.9112 F800
G1 X81.528 Y98.830 E2.9240 F800
G1 X82.000 Y98.777 E2.9359 F800
G1 X82.437 Y98.786 E2.9468 F800
G1 X82.831 Y98.849 E2.9568 F800
G1 X83.176 Y98.962 E2.9659 F800
G1 X83.466 Y99.118 E2.9741 F800
G1 X83.697 Y99.307 E2.9816 F800
G1 X83.864 Y99.523 E2.9884 F800
G1 X83.966 Y99.757 E2.9948 F800
G1 X84.000 Y100.000 E3.0009 F800
G1 X83.966 Y100.243 E3.0070 F800
G1 X83.864 Y100.477 E3.0134 F800
G1 X83.697 Y100.693 E3.0202 F800
G1 X83.466 Y100.882 E3.0277 F800
G1 X83.176 Y101.038 E3.0359 F800
G1 X82.831 Y101.151 E3.0450 F800
G1 X82.437 Y101.214 E3.0550 F800
G1 X82.000 Y101.223 E3.0659 F800
G1 X81.528 Y101.170 E3.0778 F800
G1 X81.029 Y101.052 E3.0906 F800
G1 X80.511 Y100.865 E3.1044 F800
G1 X79.982 Y100.606 E3.1191 F800
G1 X79.451 Y100.275 E3.1347 F800
G1 X78.928 Y99.871 E3.1513 F800
G1 X78.421 Y99.394 E3.1686 F800
G1 X77.940 Y98.848 E3.1869 F800
G1 X77.494 Y98.233 E3.2058 F800
G1 X77.089 Y97.556 E3.2256 F800
G1 X76.734 Y96.820 E3.2460 F800
G1 X76.436 Y96.032 E3.2671 F800
G1 X76.201 Y95.197 E3.2887 F800
G1 X76.035 Y94.325 E3.3109 F800
G1 X75.942 Y93.422 E3.3336 F800
G1 X75.925 Y92.498 E3.3567 F800
G1 X75.987 Y91.561 E3.3802 F800
G1 X76.128 Y90.620 E3.4040 F800
G1 X76.350 Y89.684 E3.4280 F800
G1 X76.652 Y88.763 E3.4523 F800
G1 X77.030 Y87.865 E3.4766 F800
G1 X77.483 Y87.000 E3.5010 F800
G1 X78.006 Y86.175 E3.5255 F800
G1 X78.594 Y85.398 E3.5498 F800
G1 X79.241 Y84.677 E3.5740 F800
G1 X79.941 Y84.017 E3.5981 F800
G1 X80.685 Y83.423 E3.6219 F800
G1 X81.466 Y82.901 E3.6454 F800
G1 X82.275 Y82.454 E3.6685 F800
G1 X83.103 Y82.083 E3.6912 F800
G1 X83.942 Y81.791 E3.7134 F800
G1 X84.781 Y81.577 E3.7350 F800
G1 X85.613 Y81.441 E3.7561 F800
G1 X86.428 Y81.381 E3.7765 F800
G1 X87.217 Y81.392 E3.7963 F800
G1 X87.972 Y81.472 E3.8152 F800
G1 X88.686 Y81.615 E3.8334 F800
G1 X89.352 Y81.816 E3.8508 F800
G1 X89.964 Y82.066 E3.8674 F800
G1 X90.516 Y82.360 E3.8830 F800
G1 X91.004 Y82.689 E3.8977 F800
G1 X91.425 Y83.045 E3.9115 F800
G1 X91.777 Y83.418 E3.9243 F800
G1 X92.059 Y83.801 E3.9362 F800
G1 X92.270 Y84.183 E3.9471 F800
G1 X92.412 Y84.556 E3.9571 F800
G1 X92.486 Y84.911 E3.9662 F800
G1 X92.497 Y85.240 E3.9744 F800
G1 X92.448 Y85.535 E3.9819 F800
G1 X92.345 Y85.788 E3.9887 F800
G1 X92.193 Y85.993 E3.9951 F800
G1 X92.000 Y86.144 E4.0012 F800
G1 X91.773 Y86.236 E4.0073 F800
G1 X91.519 Y86.264 E4.0137 F800
G1 X91.248 Y86.227 E4.0205 F800
G1 X90.969 Y86.122 E4.0280 F800
G1 X90.689 Y85.949 E4.0362 F800
G1 X90.419 Y85.706 E4.0453 F800
G1 X90.167 Y85.397 E4.0553 F800
G1 X89.941 Y85.023 E4.0662 F800
G1 X89.751 Y84.588 E4.0781 F800
G1 X89.604 Y84.097 E4.0909 F800
G1 X89.506 Y83.554 E4.1047 F800
G1 X89.466 Y82.967 E4.1194 F800
G1 X89.487 Y82.342 E4.1350 F800
G1 X89.576 Y81.687 E4.1516 F800
G1 X89.735 Y81.010 E4.1689 F800
G1 X89.968 Y80.320 E4.1872 F800
G1 X90.277 Y79.625 E4.2061 F800
G1 X90.661 Y78.936 E4.2259 F800
G1 X91.121 Y78.261 E4.2463 F800
G1 X91.655 Y77.609 E4.2674 F800
G1 X92.260 Y76.989 E4.2890 F800
G1 X92.932 Y76.408 E4.3112 F800
G1 X93.667 Y75.876 E4.3339 F800
G1 X94.459 Y75.399 E4.3570 F800
G1 X95.302 Y74.984 E4.3805 F800
G1 X96.188 Y74.636 E4.4043 F800
G1 X97.109 Y74.361 E4.4283 F800
G1 X98.058 Y74.161 E4.4526 F800
G1 X99.024 Y74.040 E4.4769 F800
G1 X100.000 Y74.000 E4.5013 F800
G1 X100.976 Y74.040 E4.5258 F800
G1 X101.942 Y74.161 E4.5501 F800
G1 X102.891 Y74.361 E4.5743 F800
G1 X103.812 Y74.636 E4.5984 F800
G1 X104.698 Y74.984 E4.6222 F800
G1 X105.541 Y75.399 E4.6457 F800
G1 X106.333 Y75.876 E4.6688 F800
G1 X107.068 Y76.408 E4.6915 F800
G1 X107.740 Y76.989 E4.7137 F800
G1 X108.345 Y77.609 E4.7353 F800
G1 X108.879 Y78.261 E4.7564 F800
G1 X109.339 Y78.936 E4.7768 F800
G1 X109.723 Y79.625 E4.7966 F800
G1 X110.032 Y80.320 E4.8155 F800
G1 X110.265 Y81.010 E4.8337 F800
G1 X110.424 Y81.687 E4.8511 F800
G1 X110.513 Y82.342 E4.8677 F800
G1 X110.534 Y82.967 E4.8833 F800
G1 X110.494 Y83.554 E4.8980 F800
G1 X110.396 Y84.097 E4.9118 F800
G1 X110.249 Y84.588 E4.9246 F800
G1 X110.059 Y85.023 E4.9365 F800
G1 X109.833 Y85.397 E4.9474 F800
G1 X109.581 Y85.706 E4.9574 F800
G1 X109.311 Y85.949 E4.9665 F800
G1 X109.031 Y86.122 E4.9747 F800
G1 X108.752 Y86.227 E4.9822 F800
G1 X108.481 Y86.264 E4.9890 F800
G1 X108.227 Y86.236 E4.9954 F800
G1 X108.000 Y86.144 E5.0015 F800
G1 X107.807 Y85.993 E5.0076 F800
G1 X107.655 Y85.788 E5.0140 F800
G1 X107.552 Y85.535 E5.0208 F800
G1 X107.503 Y85.240 E5.0283 F800
G1 X107.514 Y84.911 E5.0365 F800
G1 X107.588 Y84.556 E5.0456 F800
G1 X107.730 Y84.183 E5.0556 F800
G1 X107.941 Y83.801 E5.0665 F800
G1 X108.223 Y83.418 E5.0784 F800
G1 X108.575 Y83.045 E5.0912 F800
G1 X108.996 Y82.689 E5.1050 F800
G1 X109.484 Y82.360 E5.1197 F800
G1 X110.036 Y82.066 E5.1353 F800
G1 X110.648 Y81.816 E5.1519 F800
G1 X111.314 Y81.615 E5.1692 F800
G1 X112.028 Y81.472 E5.1875 F800
G1 X112.783 Y81.392 E5.2064 F800
G1 X113.572 Y81.381 E5.2262 F800
G1 X114.387 Y81.441 E5.2466 F800
G1 X115.219 Y81.577 E5.2677 F800
G1 X116.058 Y81.791 E5.2893 F800
G1 X116.897 Y82.083 E5.3115 F800
G1 X117.725 Y82.454 E5.3342 F800
G1 X118.534 Y82.901 E5.3573 F800
G1 X119.315 Y83.423 E5.3808 F800
G1 X120.059 Y84.017 E5.4046 F800
G1 X120.759 Y84.677 E5.4286 F800
G1 X121.406 Y85.398 E5.4529 F800
G1 X121.994 Y86.175 E5.4772 F800
G1 X122.517 Y87.000 E5.5016 F800
G1 X122.970 Y87.865 E5.5261 F800
G1 X123.348 Y88.763 E5.5504 F800
G1 X123.650 Y89.684 E5.5746 F800
G1 X123.872 Y90.620 E5.5987 F800
G1 X124.013 Y91.561 E5.6225 F800
G1 X124.075 Y92.498 E5.6460 F800
G1 X124.058 Y93.422 E5.6691 F800
G1 X123.965 Y94.325 E5.6918 F800
G1 X123.799 Y95.197 E5.7140 F800
G1 X123.564 Y96.032 E5.7356 F800
G1 X123.266 Y96.820 E5.7567 F800
G1 X122.911 Y97.556 E5.7771 F800
G1 X122.506 Y98.233 E5.7968 F800
G1 X122.060 Y98.848 E5.8158 F800
G1 X121.579 Y99.394 E5.8340 F800
G1 X121.072 Y99.871 E5.8514 F800
G1 X120.549 Y100.275 E5.8680 F800
G1 X120.018 Y100.606 E5.8836 F800
G1 X119.489 Y100.865 E5.8983 F800
G1 X118.971 Y101.052 E5.9121 F800
G1 X118.472 Y101.170 E5.9249 F800
G1 X118.000 Y101.223 E5.9368 F800
G1 X117.563 Y101.214 E5.9477 F800
G1 X117.169 Y101.151 E5.9577 F800
G1 X116.824 Y101.038 E5.9668 F800
G1 X116.534 Y100.882 E5.9750 F800
G1 X116.303 Y100.693 E5.9825 F800
G1 X116.136 Y100.477 E5.9893 F800
G1 X116.034 Y100.243 E5.9957 F800
G1 X116.000 Y100.000 E6.0018 F800
G1 E4.5018 F1200   ; Retract

; === TOPPER LAYER 2/3 — SPIROGRAPH  (Z=17.50 mm) ===
G1 Z18.50 F600   ; Z-hop
G1 X116.000 Y100.000 F1200   ; Travel → spirograph topper
G1 Z17.50 F300   ; Lower to Z
G1 E6.0018 F1200   ; Prime
G1 X116.034 Y99.757 E6.0079 F800
G1 X116.136 Y99.523 E6.0143 F800
G1 X116.303 Y99.307 E6.0211 F800
G1 X116.534 Y99.118 E6.0286 F800
G1 X116.824 Y98.962 E6.0368 F800
G1 X117.169 Y98.849 E6.0459 F800
G1 X117.563 Y98.786 E6.0559 F800
G1 X118.000 Y98.777 E6.0668 F800
G1 X118.472 Y98.830 E6.0787 F800
G1 X118.971 Y98.948 E6.0915 F800
G1 X119.489 Y99.135 E6.1053 F800
G1 X120.018 Y99.394 E6.1200 F800
G1 X120.549 Y99.725 E6.1356 F800
G1 X121.072 Y100.129 E6.1522 F800
G1 X121.579 Y100.606 E6.1695 F800
G1 X122.060 Y101.152 E6.1878 F800
G1 X122.506 Y101.767 E6.2067 F800
G1 X122.911 Y102.444 E6.2265 F800
G1 X123.266 Y103.180 E6.2469 F800
G1 X123.564 Y103.968 E6.2680 F800
G1 X123.799 Y104.803 E6.2896 F800
G1 X123.965 Y105.675 E6.3118 F800
G1 X124.058 Y106.578 E6.3345 F800
G1 X124.075 Y107.502 E6.3576 F800
G1 X124.013 Y108.439 E6.3811 F800
G1 X123.872 Y109.380 E6.4049 F800
G1 X123.650 Y110.316 E6.4289 F800
G1 X123.348 Y111.237 E6.4532 F800
G1 X122.970 Y112.135 E6.4775 F800
G1 X122.517 Y113.000 E6.5019 F800
G1 X121.994 Y113.825 E6.5264 F800
G1 X121.406 Y114.602 E6.5507 F800
G1 X120.759 Y115.323 E6.5749 F800
G1 X120.059 Y115.983 E6.5990 F800
G1 X119.315 Y116.577 E6.6228 F800
G1 X118.534 Y117.099 E6.6463 F800
G1 X117.725 Y117.546 E6.6694 F800
G1 X116.897 Y117.917 E6.6921 F800
G1 X116.058 Y118.209 E6.7143 F800
G1 X115.219 Y118.423 E6.7359 F800
G1 X114.387 Y118.559 E6.7570 F800
G1 X113.572 Y118.619 E6.7774 F800
G1 X112.783 Y118.608 E6.7971 F800
G1 X112.028 Y118.528 E6.8161 F800
G1 X111.314 Y118.385 E6.8343 F800
G1 X110.648 Y118.184 E6.8517 F800
G1 X110.036 Y117.934 E6.8683 F800
G1 X109.484 Y117.640 E6.8839 F800
G1 X108.996 Y117.311 E6.8986 F800
G1 X108.575 Y116.955 E6.9124 F800
G1 X108.223 Y116.582 E6.9252 F800
G1 X107.941 Y116.199 E6.9371 F800
G1 X107.730 Y115.817 E6.9480 F800
G1 X107.588 Y115.444 E6.9580 F800
G1 X107.514 Y115.089 E6.9671 F800
G1 X107.503 Y114.760 E6.9753 F800
G1 X107.552 Y114.465 E6.9828 F800
G1 X107.655 Y114.212 E6.9896 F800
G1 X107.807 Y114.007 E6.9960 F800
G1 X108.000 Y113.856 E7.0021 F800
G1 X108.227 Y113.764 E7.0082 F800
G1 X108.481 Y113.736 E7.0146 F800
G1 X108.752 Y113.773 E7.0214 F800
G1 X109.031 Y113.878 E7.0289 F800
G1 X109.311 Y114.051 E7.0371 F800
G1 X109.581 Y114.294 E7.0462 F800
G1 X109.833 Y114.603 E7.0562 F800
G1 X110.059 Y114.977 E7.0671 F800
G1 X110.249 Y115.412 E7.0790 F800
G1 X110.396 Y115.903 E7.0918 F800
G1 X110.494 Y116.446 E7.1056 F800
G1 X110.534 Y117.033 E7.1203 F800
G1 X110.513 Y117.658 E7.1359 F800
G1 X110.424 Y118.313 E7.1525 F800
G1 X110.265 Y118.990 E7.1698 F800
G1 X110.032 Y119.680 E7.1881 F800
G1 X109.723 Y120.375 E7.2070 F800
G1 X109.339 Y121.064 E7.2268 F800
G1 X108.879 Y121.739 E7.2472 F800
G1 X108.345 Y122.391 E7.2683 F800
G1 X107.740 Y123.011 E7.2899 F800
G1 X107.068 Y123.592 E7.3121 F800
G1 X106.333 Y124.124 E7.3348 F800
G1 X105.541 Y124.601 E7.3579 F800
G1 X104.698 Y125.016 E7.3814 F800
G1 X103.812 Y125.364 E7.4052 F800
G1 X102.891 Y125.639 E7.4292 F800
G1 X101.942 Y125.839 E7.4535 F800
G1 X100.976 Y125.960 E7.4778 F800
G1 X100.000 Y126.000 E7.5022 F800
G1 X99.024 Y125.960 E7.5267 F800
G1 X98.058 Y125.839 E7.5510 F800
G1 X97.109 Y125.639 E7.5752 F800
G1 X96.188 Y125.364 E7.5993 F800
G1 X95.302 Y125.016 E7.6231 F800
G1 X94.459 Y124.601 E7.6466 F800
G1 X93.667 Y124.124 E7.6697 F800
G1 X92.932 Y123.592 E7.6924 F800
G1 X92.260 Y123.011 E7.7146 F800
G1 X91.655 Y122.391 E7.7362 F800
G1 X91.121 Y121.739 E7.7573 F800
G1 X90.661 Y121.064 E7.7777 F800
G1 X90.277 Y120.375 E7.7974 F800
G1 X89.968 Y119.680 E7.8164 F800
G1 X89.735 Y118.990 E7.8346 F800
G1 X89.576 Y118.313 E7.8520 F800
G1 X89.487 Y117.658 E7.8686 F800
G1 X89.466 Y117.033 E7.8842 F800
G1 X89.506 Y116.446 E7.8989 F800
G1 X89.604 Y115.903 E7.9127 F800
G1 X89.751 Y115.412 E7.9255 F800
G1 X89.941 Y114.977 E7.9374 F800
G1 X90.167 Y114.603 E7.9483 F800
G1 X90.419 Y114.294 E7.9583 F800
G1 X90.689 Y114.051 E7.9674 F800
G1 X90.969 Y113.878 E7.9756 F800
G1 X91.248 Y113.773 E7.9831 F800
G1 X91.519 Y113.736 E7.9899 F800
G1 X91.773 Y113.764 E7.9963 F800
G1 X92.000 Y113.856 E8.0024 F800
G1 X92.193 Y114.007 E8.0085 F800
G1 X92.345 Y114.212 E8.0149 F800
G1 X92.448 Y114.465 E8.0217 F800
G1 X92.497 Y114.760 E8.0292 F800
G1 X92.486 Y115.089 E8.0374 F800
G1 X92.412 Y115.444 E8.0465 F800
G1 X92.270 Y115.817 E8.0565 F800
G1 X92.059 Y116.199 E8.0674 F800
G1 X91.777 Y116.582 E8.0793 F800
G1 X91.425 Y116.955 E8.0921 F800
G1 X91.004 Y117.311 E8.1059 F800
G1 X90.516 Y117.640 E8.1206 F800
G1 X89.964 Y117.934 E8.1362 F800
G1 X89.352 Y118.184 E8.1528 F800
G1 X88.686 Y118.385 E8.1701 F800
G1 X87.972 Y118.528 E8.1884 F800
G1 X87.217 Y118.608 E8.2073 F800
G1 X86.428 Y118.619 E8.2271 F800
G1 X85.613 Y118.559 E8.2475 F800
G1 X84.781 Y118.423 E8.2686 F800
G1 X83.942 Y118.209 E8.2902 F800
G1 X83.103 Y117.917 E8.3124 F800
G1 X82.275 Y117.546 E8.3351 F800
G1 X81.466 Y117.099 E8.3582 F800
G1 X80.685 Y116.577 E8.3817 F800
G1 X79.941 Y115.983 E8.4055 F800
G1 X79.241 Y115.323 E8.4295 F800
G1 X78.594 Y114.602 E8.4538 F800
G1 X78.006 Y113.825 E8.4781 F800
G1 X77.483 Y113.000 E8.5025 F800
G1 X77.030 Y112.135 E8.5270 F800
G1 X76.652 Y111.237 E8.5513 F800
G1 X76.350 Y110.316 E8.5755 F800
G1 X76.128 Y109.380 E8.5996 F800
G1 X75.987 Y108.439 E8.6234 F800
G1 X75.925 Y107.502 E8.6469 F800
G1 X75.942 Y106.578 E8.6700 F800
G1 X76.035 Y105.675 E8.6927 F800
G1 X76.201 Y104.803 E8.7149 F800
G1 X76.436 Y103.968 E8.7365 F800
G1 X76.734 Y103.180 E8.7576 F800
G1 X77.089 Y102.444 E8.7780 F800
G1 X77.494 Y101.767 E8.7977 F800
G1 X77.940 Y101.152 E8.8167 F800
G1 X78.421 Y100.606 E8.8349 F800
G1 X78.928 Y100.129 E8.8523 F800
G1 X79.451 Y99.725 E8.8689 F800
G1 X79.982 Y99.394 E8.8845 F800
G1 X80.511 Y99.135 E8.8992 F800
G1 X81.029 Y98.948 E8.9130 F800
G1 X81.528 Y98.830 E8.9258 F800
G1 X82.000 Y98.777 E8.9377 F800
G1 X82.437 Y98.786 E8.9486 F800
G1 X82.831 Y98.849 E8.9586 F800
G1 X83.176 Y98.962 E8.9677 F800
G1 X83.466 Y99.118 E8.9759 F800
G1 X83.697 Y99.307 E8.9834 F800
G1 X83.864 Y99.523 E8.9902 F800
G1 X83.966 Y99.757 E8.9966 F800
G1 X84.000 Y100.000 E9.0027 F800
G1 X83.966 Y100.243 E9.0088 F800
G1 X83.864 Y100.477 E9.0152 F800
G1 X83.697 Y100.693 E9.0220 F800
G1 X83.466 Y100.882 E9.0295 F800
G1 X83.176 Y101.038 E9.0377 F800
G1 X82.831 Y101.151 E9.0468 F800
G1 X82.437 Y101.214 E9.0568 F800
G1 X82.000 Y101.223 E9.0677 F800
G1 X81.528 Y101.170 E9.0796 F800
G1 X81.029 Y101.052 E9.0924 F800
G1 X80.511 Y100.865 E9.1062 F800
G1 X79.982 Y100.606 E9.1209 F800
G1 X79.451 Y100.275 E9.1365 F800
G1 X78.928 Y99.871 E9.1531 F800
G1 X78.421 Y99.394 E9.1704 F800
G1 X77.940 Y98.848 E9.1886 F800
G1 X77.494 Y98.233 E9.2076 F800
G1 X77.089 Y97.556 E9.2274 F800
G1 X76.734 Y96.820 E9.2478 F800
G1 X76.436 Y96.032 E9.2689 F800
G1 X76.201 Y95.197 E9.2905 F800
G1 X76.035 Y94.325 E9.3127 F800
G1 X75.942 Y93.422 E9.3354 F800
G1 X75.925 Y92.498 E9.3585 F800
G1 X75.987 Y91.561 E9.3820 F800
G1 X76.128 Y90.620 E9.4058 F800
G1 X76.350 Y89.684 E9.4298 F800
G1 X76.652 Y88.763 E9.4541 F800
G1 X77.030 Y87.865 E9.4784 F800
G1 X77.483 Y87.000 E9.5028 F800
G1 X78.006 Y86.175 E9.5273 F800
G1 X78.594 Y85.398 E9.5516 F800
G1 X79.241 Y84.677 E9.5758 F800
G1 X79.941 Y84.017 E9.5999 F800
G1 X80.685 Y83.423 E9.6237 F800
G1 X81.466 Y82.901 E9.6472 F800
G1 X82.275 Y82.454 E9.6703 F800
G1 X83.103 Y82.083 E9.6930 F800
G1 X83.942 Y81.791 E9.7152 F800
G1 X84.781 Y81.577 E9.7368 F800
G1 X85.613 Y81.441 E9.7579 F800
G1 X86.428 Y81.381 E9.7783 F800
G1 X87.217 Y81.392 E9.7980 F800
G1 X87.972 Y81.472 E9.8170 F800
G1 X88.686 Y81.615 E9.8352 F800
G1 X89.352 Y81.816 E9.8526 F800
G1 X89.964 Y82.066 E9.8692 F800
G1 X90.516 Y82.360 E9.8848 F800
G1 X91.004 Y82.689 E9.8995 F800
G1 X91.425 Y83.045 E9.9133 F800
G1 X91.777 Y83.418 E9.9261 F800
G1 X92.059 Y83.801 E9.9380 F800
G1 X92.270 Y84.183 E9.9489 F800
G1 X92.412 Y84.556 E9.9589 F800
G1 X92.486 Y84.911 E9.9680 F800
G1 X92.497 Y85.240 E9.9762 F800
G1 X92.448 Y85.535 E9.9837 F800
G1 X92.345 Y85.788 E9.9905 F800
G1 X92.193 Y85.993 E9.9969 F800
G1 X92.000 Y86.144 E10.0030 F800
G1 X91.773 Y86.236 E10.0091 F800
G1 X91.519 Y86.264 E10.0155 F800
G1 X91.248 Y86.227 E10.0223 F800
G1 X90.969 Y86.122 E10.0298 F800
G1 X90.689 Y85.949 E10.0380 F800
G1 X90.419 Y85.706 E10.0471 F800
G1 X90.167 Y85.397 E10.0571 F800
G1 X89.941 Y85.023 E10.0680 F800
G1 X89.751 Y84.588 E10.0799 F800
G1 X89.604 Y84.097 E10.0927 F800
G1 X89.506 Y83.554 E10.1065 F800
G1 X89.466 Y82.967 E10.1212 F800
G1 X89.487 Y82.342 E10.1368 F800
G1 X89.576 Y81.687 E10.1534 F800
G1 X89.735 Y81.010 E10.1707 F800
G1 X89.968 Y80.320 E10.1889 F800
G1 X90.277 Y79.625 E10.2079 F800
G1 X90.661 Y78.936 E10.2277 F800
G1 X91.121 Y78.261 E10.2481 F800
G1 X91.655 Y77.609 E10.2692 F800
G1 X92.260 Y76.989 E10.2908 F800
G1 X92.932 Y76.408 E10.3130 F800
G1 X93.667 Y75.876 E10.3357 F800
G1 X94.459 Y75.399 E10.3588 F800
G1 X95.302 Y74.984 E10.3823 F800
G1 X96.188 Y74.636 E10.4061 F800
G1 X97.109 Y74.361 E10.4301 F800
G1 X98.058 Y74.161 E10.4544 F800
G1 X99.024 Y74.040 E10.4787 F800
G1 X100.000 Y74.000 E10.5031 F800
G1 X100.976 Y74.040 E10.5276 F800
G1 X101.942 Y74.161 E10.5519 F800
G1 X102.891 Y74.361 E10.5761 F800
G1 X103.812 Y74.636 E10.6002 F800
G1 X104.698 Y74.984 E10.6240 F800
G1 X105.541 Y75.399 E10.6475 F800
G1 X106.333 Y75.876 E10.6706 F800
G1 X107.068 Y76.408 E10.6933 F800
G1 X107.740 Y76.989 E10.7155 F800
G1 X108.345 Y77.609 E10.7371 F800
G1 X108.879 Y78.261 E10.7582 F800
G1 X109.339 Y78.936 E10.7786 F800
G1 X109.723 Y79.625 E10.7983 F800
G1 X110.032 Y80.320 E10.8173 F800
G1 X110.265 Y81.010 E10.8355 F800
G1 X110.424 Y81.687 E10.8529 F800
G1 X110.513 Y82.342 E10.8695 F800
G1 X110.534 Y82.967 E10.8851 F800
G1 X110.494 Y83.554 E10.8998 F800
G1 X110.396 Y84.097 E10.9136 F800
G1 X110.249 Y84.588 E10.9264 F800
G1 X110.059 Y85.023 E10.9383 F800
G1 X109.833 Y85.397 E10.9492 F800
G1 X109.581 Y85.706 E10.9592 F800
G1 X109.311 Y85.949 E10.9683 F800
G1 X109.031 Y86.122 E10.9765 F800
G1 X108.752 Y86.227 E10.9840 F800
G1 X108.481 Y86.264 E10.9908 F800
G1 X108.227 Y86.236 E10.9972 F800
G1 X108.000 Y86.144 E11.0033 F800
G1 X107.807 Y85.993 E11.0094 F800
G1 X107.655 Y85.788 E11.0158 F800
G1 X107.552 Y85.535 E11.0226 F800
G1 X107.503 Y85.240 E11.0301 F800
G1 X107.514 Y84.911 E11.0383 F800
G1 X107.588 Y84.556 E11.0474 F800
G1 X107.730 Y84.183 E11.0574 F800
G1 X107.941 Y83.801 E11.0683 F800
G1 X108.223 Y83.418 E11.0802 F800
G1 X108.575 Y83.045 E11.0930 F800
G1 X108.996 Y82.689 E11.1068 F800
G1 X109.484 Y82.360 E11.1215 F800
G1 X110.036 Y82.066 E11.1371 F800
G1 X110.648 Y81.816 E11.1537 F800
G1 X111.314 Y81.615 E11.1710 F800
G1 X112.028 Y81.472 E11.1892 F800
G1 X112.783 Y81.392 E11.2082 F800
G1 X113.572 Y81.381 E11.2280 F800
G1 X114.387 Y81.441 E11.2484 F800
G1 X115.219 Y81.577 E11.2695 F800
G1 X116.058 Y81.791 E11.2911 F800
G1 X116.897 Y82.083 E11.3133 F800
G1 X117.725 Y82.454 E11.3360 F800
G1 X118.534 Y82.901 E11.3591 F800
G1 X119.315 Y83.423 E11.3826 F800
G1 X120.059 Y84.017 E11.4064 F800
G1 X120.759 Y84.677 E11.4304 F800
G1 X121.406 Y85.398 E11.4547 F800
G1 X121.994 Y86.175 E11.4790 F800
G1 X122.517 Y87.000 E11.5034 F800
G1 X122.970 Y87.865 E11.5279 F800
G1 X123.348 Y88.763 E11.5522 F800
G1 X123.650 Y89.684 E11.5764 F800
G1 X123.872 Y90.620 E11.6005 F800
G1 X124.013 Y91.561 E11.6243 F800
G1 X124.075 Y92.498 E11.6478 F800
G1 X124.058 Y93.422 E11.6709 F800
G1 X123.965 Y94.325 E11.6936 F800
G1 X123.799 Y95.197 E11.7158 F800
G1 X123.564 Y96.032 E11.7374 F800
G1 X123.266 Y96.820 E11.7585 F800
G1 X122.911 Y97.556 E11.7789 F800
G1 X122.506 Y98.233 E11.7986 F800
G1 X122.060 Y98.848 E11.8176 F800
G1 X121.579 Y99.394 E11.8358 F800
G1 X121.072 Y99.871 E11.8532 F800
G1 X120.549 Y100.275 E11.8698 F800
G1 X120.018 Y100.606 E11.8854 F800
G1 X119.489 Y100.865 E11.9001 F800
G1 X118.971 Y101.052 E11.9139 F800
G1 X118.472 Y101.170 E11.9267 F800
G1 X118.000 Y101.223 E11.9386 F800
G1 X117.563 Y101.214 E11.9495 F800
G1 X117.169 Y101.151 E11.9595 F800
G1 X116.824 Y101.038 E11.9686 F800
G1 X116.534 Y100.882 E11.9768 F800
G1 X116.303 Y100.693 E11.9843 F800
G1 X116.136 Y100.477 E11.9911 F800
G1 X116.034 Y100.243 E11.9975 F800
G1 X116.000 Y100.000 E12.0036 F800
G1 E10.5036 F1200   ; Retract

; === TOPPER LAYER 3/3 — SPIROGRAPH  (Z=18.50 mm) ===
G1 Z19.50 F600   ; Z-hop
G1 X116.000 Y100.000 F1200   ; Travel → spirograph topper
G1 Z18.50 F300   ; Lower to Z
G1 E12.0036 F1200   ; Prime
G1 X116.034 Y99.757 E12.0097 F800
G1 X116.136 Y99.523 E12.0161 F800
G1 X116.303 Y99.307 E12.0229 F800
G1 X116.534 Y99.118 E12.0304 F800
G1 X116.824 Y98.962 E12.0386 F800
G1 X117.169 Y98.849 E12.0477 F800
G1 X117.563 Y98.786 E12.0577 F800
G1 X118.000 Y98.777 E12.0686 F800
G1 X118.472 Y98.830 E12.0805 F800
G1 X118.971 Y98.948 E12.0933 F800
G1 X119.489 Y99.135 E12.1071 F800
G1 X120.018 Y99.394 E12.1218 F800
G1 X120.549 Y99.725 E12.1374 F800
G1 X121.072 Y100.129 E12.1540 F800
G1 X121.579 Y100.606 E12.1713 F800
G1 X122.060 Y101.152 E12.1895 F800
G1 X122.506 Y101.767 E12.2085 F800
G1 X122.911 Y102.444 E12.2283 F800
G1 X123.266 Y103.180 E12.2487 F800
G1 X123.564 Y103.968 E12.2698 F800
G1 X123.799 Y104.803 E12.2914 F800
G1 X123.965 Y105.675 E12.3136 F800
G1 X124.058 Y106.578 E12.3363 F800
G1 X124.075 Y107.502 E12.3594 F800
G1 X124.013 Y108.439 E12.3829 F800
G1 X123.872 Y109.380 E12.4067 F800
G1 X123.650 Y110.316 E12.4307 F800
G1 X123.348 Y111.237 E12.4550 F800
G1 X122.970 Y112.135 E12.4793 F800
G1 X122.517 Y113.000 E12.5037 F800
G1 X121.994 Y113.825 E12.5282 F800
G1 X121.406 Y114.602 E12.5525 F800
G1 X120.759 Y115.323 E12.5767 F800
G1 X120.059 Y115.983 E12.6008 F800
G1 X119.315 Y116.577 E12.6246 F800
G1 X118.534 Y117.099 E12.6481 F800
G1 X117.725 Y117.546 E12.6712 F800
G1 X116.897 Y117.917 E12.6939 F800
G1 X116.058 Y118.209 E12.7161 F800
G1 X115.219 Y118.423 E12.7377 F800
G1 X114.387 Y118.559 E12.7588 F800
G1 X113.572 Y118.619 E12.7792 F800
G1 X112.783 Y118.608 E12.7989 F800
G1 X112.028 Y118.528 E12.8179 F800
G1 X111.314 Y118.385 E12.8361 F800
G1 X110.648 Y118.184 E12.8535 F800
G1 X110.036 Y117.934 E12.8701 F800
G1 X109.484 Y117.640 E12.8857 F800
G1 X108.996 Y117.311 E12.9004 F800
G1 X108.575 Y116.955 E12.9142 F800
G1 X108.223 Y116.582 E12.9270 F800
G1 X107.941 Y116.199 E12.9389 F800
G1 X107.730 Y115.817 E12.9498 F800
G1 X107.588 Y115.444 E12.9598 F800
G1 X107.514 Y115.089 E12.9689 F800
G1 X107.503 Y114.760 E12.9771 F800
G1 X107.552 Y114.465 E12.9845 F800
G1 X107.655 Y114.212 E12.9914 F800
G1 X107.807 Y114.007 E12.9978 F800
G1 X108.000 Y113.856 E13.0039 F800
G1 X108.227 Y113.764 E13.0100 F800
G1 X108.481 Y113.736 E13.0164 F800
G1 X108.752 Y113.773 E13.0232 F800
G1 X109.031 Y113.878 E13.0307 F800
G1 X109.311 Y114.051 E13.0389 F800
G1 X109.581 Y114.294 E13.0480 F800
G1 X109.833 Y114.603 E13.0580 F800
G1 X110.059 Y114.977 E13.0689 F800
G1 X110.249 Y115.412 E13.0808 F800
G1 X110.396 Y115.903 E13.0936 F800
G1 X110.494 Y116.446 E13.1074 F800
G1 X110.534 Y117.033 E13.1221 F800
G1 X110.513 Y117.658 E13.1377 F800
G1 X110.424 Y118.313 E13.1543 F800
G1 X110.265 Y118.990 E13.1716 F800
G1 X110.032 Y119.680 E13.1898 F800
G1 X109.723 Y120.375 E13.2088 F800
G1 X109.339 Y121.064 E13.2286 F800
G1 X108.879 Y121.739 E13.2490 F800
G1 X108.345 Y122.391 E13.2701 F800
G1 X107.740 Y123.011 E13.2917 F800
G1 X107.068 Y123.592 E13.3139 F800
G1 X106.333 Y124.124 E13.3366 F800
G1 X105.541 Y124.601 E13.3597 F800
G1 X104.698 Y125.016 E13.3832 F800
G1 X103.812 Y125.364 E13.4070 F800
G1 X102.891 Y125.639 E13.4310 F800
G1 X101.942 Y125.839 E13.4553 F800
G1 X100.976 Y125.960 E13.4796 F800
G1 X100.000 Y126.000 E13.5040 F800
G1 X99.024 Y125.960 E13.5285 F800
G1 X98.058 Y125.839 E13.5528 F800
G1 X97.109 Y125.639 E13.5770 F800
G1 X96.188 Y125.364 E13.6011 F800
G1 X95.302 Y125.016 E13.6249 F800
G1 X94.459 Y124.601 E13.6484 F800
G1 X93.667 Y124.124 E13.6715 F800
G1 X92.932 Y123.592 E13.6942 F800
G1 X92.260 Y123.011 E13.7164 F800
G1 X91.655 Y122.391 E13.7380 F800
G1 X91.121 Y121.739 E13.7591 F800
G1 X90.661 Y121.064 E13.7795 F800
G1 X90.277 Y120.375 E13.7992 F800
G1 X89.968 Y119.680 E13.8182 F800
G1 X89.735 Y118.990 E13.8364 F800
G1 X89.576 Y118.313 E13.8538 F800
G1 X89.487 Y117.658 E13.8704 F800
G1 X89.466 Y117.033 E13.8860 F800
G1 X89.506 Y116.446 E13.9007 F800
G1 X89.604 Y115.903 E13.9145 F800
G1 X89.751 Y115.412 E13.9273 F800
G1 X89.941 Y114.977 E13.9392 F800
G1 X90.167 Y114.603 E13.9501 F800
G1 X90.419 Y114.294 E13.9601 F800
G1 X90.689 Y114.051 E13.9692 F800
G1 X90.969 Y113.878 E13.9774 F800
G1 X91.248 Y113.773 E13.9848 F800
G1 X91.519 Y113.736 E13.9917 F800
G1 X91.773 Y113.764 E13.9981 F800
G1 X92.000 Y113.856 E14.0042 F800
G1 X92.193 Y114.007 E14.0103 F800
G1 X92.345 Y114.212 E14.0167 F800
G1 X92.448 Y114.465 E14.0235 F800
G1 X92.497 Y114.760 E14.0310 F800
G1 X92.486 Y115.089 E14.0392 F800
G1 X92.412 Y115.444 E14.0483 F800
G1 X92.270 Y115.817 E14.0583 F800
G1 X92.059 Y116.199 E14.0692 F800
G1 X91.777 Y116.582 E14.0811 F800
G1 X91.425 Y116.955 E14.0939 F800
G1 X91.004 Y117.311 E14.1077 F800
G1 X90.516 Y117.640 E14.1224 F800
G1 X89.964 Y117.934 E14.1380 F800
G1 X89.352 Y118.184 E14.1546 F800
G1 X88.686 Y118.385 E14.1719 F800
G1 X87.972 Y118.528 E14.1901 F800
G1 X87.217 Y118.608 E14.2091 F800
G1 X86.428 Y118.619 E14.2289 F800
G1 X85.613 Y118.559 E14.2493 F800
G1 X84.781 Y118.423 E14.2704 F800
G1 X83.942 Y118.209 E14.2920 F800
G1 X83.103 Y117.917 E14.3142 F800
G1 X82.275 Y117.546 E14.3369 F800
G1 X81.466 Y117.099 E14.3600 F800
G1 X80.685 Y116.577 E14.3835 F800
G1 X79.941 Y115.983 E14.4073 F800
G1 X79.241 Y115.323 E14.4313 F800
G1 X78.594 Y114.602 E14.4556 F800
G1 X78.006 Y113.825 E14.4799 F800
G1 X77.483 Y113.000 E14.5043 F800
G1 X77.030 Y112.135 E14.5288 F800
G1 X76.652 Y111.237 E14.5531 F800
G1 X76.350 Y110.316 E14.5773 F800
G1 X76.128 Y109.380 E14.6014 F800
G1 X75.987 Y108.439 E14.6252 F800
G1 X75.925 Y107.502 E14.6487 F800
G1 X75.942 Y106.578 E14.6718 F800
G1 X76.035 Y105.675 E14.6945 F800
G1 X76.201 Y104.803 E14.7167 F800
G1 X76.436 Y103.968 E14.7383 F800
G1 X76.734 Y103.180 E14.7594 F800
G1 X77.089 Y102.444 E14.7798 F800
G1 X77.494 Y101.767 E14.7995 F800
G1 X77.940 Y101.152 E14.8185 F800
G1 X78.421 Y100.606 E14.8367 F800
G1 X78.928 Y100.129 E14.8541 F800
G1 X79.451 Y99.725 E14.8707 F800
G1 X79.982 Y99.394 E14.8863 F800
G1 X80.511 Y99.135 E14.9010 F800
G1 X81.029 Y98.948 E14.9148 F800
G1 X81.528 Y98.830 E14.9276 F800
G1 X82.000 Y98.777 E14.9395 F800
G1 X82.437 Y98.786 E14.9504 F800
G1 X82.831 Y98.849 E14.9604 F800
G1 X83.176 Y98.962 E14.9695 F800
G1 X83.466 Y99.118 E14.9777 F800
G1 X83.697 Y99.307 E14.9851 F800
G1 X83.864 Y99.523 E14.9920 F800
G1 X83.966 Y99.757 E14.9984 F800
G1 X84.000 Y100.000 E15.0045 F800
G1 X83.966 Y100.243 E15.0106 F800
G1 X83.864 Y100.477 E15.0170 F800
G1 X83.697 Y100.693 E15.0238 F800
G1 X83.466 Y100.882 E15.0313 F800
G1 X83.176 Y101.038 E15.0395 F800
G1 X82.831 Y101.151 E15.0486 F800
G1 X82.437 Y101.214 E15.0586 F800
G1 X82.000 Y101.223 E15.0695 F800
G1 X81.528 Y101.170 E15.0814 F800
G1 X81.029 Y101.052 E15.0942 F800
G1 X80.511 Y100.865 E15.1080 F800
G1 X79.982 Y100.606 E15.1227 F800
G1 X79.451 Y100.275 E15.1383 F800
G1 X78.928 Y99.871 E15.1549 F800
G1 X78.421 Y99.394 E15.1722 F800
G1 X77.940 Y98.848 E15.1904 F800
G1 X77.494 Y98.233 E15.2094 F800
G1 X77.089 Y97.556 E15.2292 F800
G1 X76.734 Y96.820 E15.2496 F800
G1 X76.436 Y96.032 E15.2707 F800
G1 X76.201 Y95.197 E15.2923 F800
G1 X76.035 Y94.325 E15.3145 F800
G1 X75.942 Y93.422 E15.3372 F800
G1 X75.925 Y92.498 E15.3603 F800
G1 X75.987 Y91.561 E15.3838 F800
G1 X76.128 Y90.620 E15.4076 F800
G1 X76.350 Y89.684 E15.4316 F800
G1 X76.652 Y88.763 E15.4559 F800
G1 X77.030 Y87.865 E15.4802 F800
G1 X77.483 Y87.000 E15.5046 F800
G1 X78.006 Y86.175 E15.5291 F800
G1 X78.594 Y85.398 E15.5534 F800
G1 X79.241 Y84.677 E15.5776 F800
G1 X79.941 Y84.017 E15.6017 F800
G1 X80.685 Y83.423 E15.6255 F800
G1 X81.466 Y82.901 E15.6490 F800
G1 X82.275 Y82.454 E15.6721 F800
G1 X83.103 Y82.083 E15.6948 F800
G1 X83.942 Y81.791 E15.7170 F800
G1 X84.781 Y81.577 E15.7386 F800
G1 X85.613 Y81.441 E15.7597 F800
G1 X86.428 Y81.381 E15.7801 F800
G1 X87.217 Y81.392 E15.7998 F800
G1 X87.972 Y81.472 E15.8188 F800
G1 X88.686 Y81.615 E15.8370 F800
G1 X89.352 Y81.816 E15.8544 F800
G1 X89.964 Y82.066 E15.8710 F800
G1 X90.516 Y82.360 E15.8866 F800
G1 X91.004 Y82.689 E15.9013 F800
G1 X91.425 Y83.045 E15.9151 F800
G1 X91.777 Y83.418 E15.9279 F800
G1 X92.059 Y83.801 E15.9398 F800
G1 X92.270 Y84.183 E15.9507 F800
G1 X92.412 Y84.556 E15.9607 F800
G1 X92.486 Y84.911 E15.9698 F800
G1 X92.497 Y85.240 E15.9780 F800
G1 X92.448 Y85.535 E15.9854 F800
G1 X92.345 Y85.788 E15.9923 F800
G1 X92.193 Y85.993 E15.9987 F800
G1 X92.000 Y86.144 E16.0048 F800
G1 X91.773 Y86.236 E16.0109 F800
G1 X91.519 Y86.264 E16.0173 F800
G1 X91.248 Y86.227 E16.0241 F800
G1 X90.969 Y86.122 E16.0316 F800
G1 X90.689 Y85.949 E16.0398 F800
G1 X90.419 Y85.706 E16.0489 F800
G1 X90.167 Y85.397 E16.0589 F800
G1 X89.941 Y85.023 E16.0698 F800
G1 X89.751 Y84.588 E16.0817 F800
G1 X89.604 Y84.097 E16.0945 F800
G1 X89.506 Y83.554 E16.1083 F800
G1 X89.466 Y82.967 E16.1230 F800
G1 X89.487 Y82.342 E16.1386 F800
G1 X89.576 Y81.687 E16.1552 F800
G1 X89.735 Y81.010 E16.1725 F800
G1 X89.968 Y80.320 E16.1907 F800
G1 X90.277 Y79.625 E16.2097 F800
G1 X90.661 Y78.936 E16.2295 F800
G1 X91.121 Y78.261 E16.2499 F800
G1 X91.655 Y77.609 E16.2710 F800
G1 X92.260 Y76.989 E16.2926 F800
G1 X92.932 Y76.408 E16.3148 F800
G1 X93.667 Y75.876 E16.3375 F800
G1 X94.459 Y75.399 E16.3606 F800
G1 X95.302 Y74.984 E16.3841 F800
G1 X96.188 Y74.636 E16.4079 F800
G1 X97.109 Y74.361 E16.4319 F800
G1 X98.058 Y74.161 E16.4562 F800
G1 X99.024 Y74.040 E16.4805 F800
G1 X100.000 Y74.000 E16.5049 F800
G1 X100.976 Y74.040 E16.5294 F800
G1 X101.942 Y74.161 E16.5537 F800
G1 X102.891 Y74.361 E16.5779 F800
G1 X103.812 Y74.636 E16.6020 F800
G1 X104.698 Y74.984 E16.6258 F800
G1 X105.541 Y75.399 E16.6493 F800
G1 X106.333 Y75.876 E16.6724 F800
G1 X107.068 Y76.408 E16.6951 F800
G1 X107.740 Y76.989 E16.7173 F800
G1 X108.345 Y77.609 E16.7389 F800
G1 X108.879 Y78.261 E16.7600 F800
G1 X109.339 Y78.936 E16.7804 F800
G1 X109.723 Y79.625 E16.8001 F800
G1 X110.032 Y80.320 E16.8191 F800
G1 X110.265 Y81.010 E16.8373 F800
G1 X110.424 Y81.687 E16.8547 F800
G1 X110.513 Y82.342 E16.8713 F800
G1 X110.534 Y82.967 E16.8869 F800
G1 X110.494 Y83.554 E16.9016 F800
G1 X110.396 Y84.097 E16.9154 F800
G1 X110.249 Y84.588 E16.9282 F800
G1 X110.059 Y85.023 E16.9401 F800
G1 X109.833 Y85.397 E16.9510 F800
G1 X109.581 Y85.706 E16.9610 F800
G1 X109.311 Y85.949 E16.9701 F800
G1 X109.031 Y86.122 E16.9783 F800
G1 X108.752 Y86.227 E16.9857 F800
G1 X108.481 Y86.264 E16.9926 F800
G1 X108.227 Y86.236 E16.9990 F800
G1 X108.000 Y86.144 E17.0051 F800
G1 X107.807 Y85.993 E17.0112 F800
G1 X107.655 Y85.788 E17.0176 F800
G1 X107.552 Y85.535 E17.0244 F800
G1 X107.503 Y85.240 E17.0319 F800
G1 X107.514 Y84.911 E17.0401 F800
G1 X107.588 Y84.556 E17.0492 F800
G1 X107.730 Y84.183 E17.0592 F800
G1 X107.941 Y83.801 E17.0701 F800
G1 X108.223 Y83.418 E17.0820 F800
G1 X108.575 Y83.045 E17.0948 F800
G1 X108.996 Y82.689 E17.1086 F800
G1 X109.484 Y82.360 E17.1233 F800
G1 X110.036 Y82.066 E17.1389 F800
G1 X110.648 Y81.816 E17.1555 F800
G1 X111.314 Y81.615 E17.1728 F800
G1 X112.028 Y81.472 E17.1910 F800
G1 X112.783 Y81.392 E17.2100 F800
G1 X113.572 Y81.381 E17.2298 F800
G1 X114.387 Y81.441 E17.2502 F800
G1 X115.219 Y81.577 E17.2713 F800
G1 X116.058 Y81.791 E17.2929 F800
G1 X116.897 Y82.083 E17.3151 F800
G1 X117.725 Y82.454 E17.3378 F800
G1 X118.534 Y82.901 E17.3609 F800
G1 X119.315 Y83.423 E17.3844 F800
G1 X120.059 Y84.017 E17.4082 F800
G1 X120.759 Y84.677 E17.4322 F800
G1 X121.406 Y85.398 E17.4565 F800
G1 X121.994 Y86.175 E17.4808 F800
G1 X122.517 Y87.000 E17.5052 F800
G1 X122.970 Y87.865 E17.5297 F800
G1 X123.348 Y88.763 E17.5540 F800
G1 X123.650 Y89.684 E17.5782 F800
G1 X123.872 Y90.620 E17.6023 F800
G1 X124.013 Y91.561 E17.6261 F800
G1 X124.075 Y92.498 E17.6496 F800
G1 X124.058 Y93.422 E17.6727 F800
G1 X123.965 Y94.325 E17.6954 F800
G1 X123.799 Y95.197 E17.7176 F800
G1 X123.564 Y96.032 E17.7392 F800
G1 X123.266 Y96.820 E17.7603 F800
G1 X122.911 Y97.556 E17.7807 F800
G1 X122.506 Y98.233 E17.8004 F800
G1 X122.060 Y98.848 E17.8194 F800
G1 X121.579 Y99.394 E17.8376 F800
G1 X121.072 Y99.871 E17.8550 F800
G1 X120.549 Y100.275 E17.8716 F800
G1 X120.018 Y100.606 E17.8872 F800
G1 X119.489 Y100.865 E17.9019 F800
G1 X118.971 Y101.052 E17.9157 F800
G1 X118.472 Y101.170 E17.9285 F800
G1 X118.000 Y101.223 E17.9404 F800
G1 X117.563 Y101.214 E17.9513 F800
G1 X117.169 Y101.151 E17.9613 F800
G1 X116.824 Y101.038 E17.9704 F800
G1 X116.534 Y100.882 E17.9786 F800
G1 X116.303 Y100.693 E17.9860 F800
G1 X116.136 Y100.477 E17.9929 F800
G1 X116.034 Y100.243 E17.9993 F800
G1 X116.000 Y100.000 E18.0054 F800
G1 E16.5054 F1200   ; Retract

; === FINISH ===
G1 Z38.5 F600      ; Raise nozzle clear
G1 X0 Y0 F1200   ; Move to home position
M84              ; Disable motors

; === END ===
