; Diane Fort — Fill G-code
; Food Printing assignment
;
; Layers: 3
; Layer height: 2.0mm
; First layer Z: 3.0mm
; Center: (100, 100)
; Fort radius: 28.0mm
; Battlements: 18
; Notch depth: 3.0mm

; === INITIALIZATION ===
G21              ; Set units to millimeters
G90              ; Absolute positioning
M82              ; Absolute extrusion mode
G28              ; Home all axes


; === LAYER 1/3 (Z=3.0mm, fill rotation=0.0°) ===
G1 Z4.00 F600   ; Z-hop
G1 X122.000 Y100.000 F1200   ; Travel to fill ring 1
G1 Z3.00 F300   ; Lower to layer height
G1 X121.916 Y101.917 E0.1248 F300
G1 X121.666 Y103.820 E0.2495 F300
G1 X121.250 Y105.694 E0.3743 F300
G1 X120.673 Y107.524 E0.4990 F300
G1 X119.939 Y109.298 E0.6238 F300
G1 X119.053 Y111.000 E0.7485 F300
G1 X118.021 Y112.619 E0.8733 F300
G1 X116.853 Y114.141 E0.9980 F300
G1 X115.556 Y115.556 E1.1228 F300
G1 X114.141 Y116.853 E1.2475 F300
G1 X112.619 Y118.021 E1.3723 F300
G1 X111.000 Y119.053 E1.4970 F300
G1 X109.298 Y119.939 E1.6218 F300
G1 X107.524 Y120.673 E1.7465 F300
G1 X105.694 Y121.250 E1.8713 F300
G1 X103.820 Y121.666 E1.9960 F300
G1 X101.917 Y121.916 E2.1208 F300
G1 X100.000 Y122.000 E2.2455 F300
G1 X98.083 Y121.916 E2.3703 F300
G1 X96.180 Y121.666 E2.4950 F300
G1 X94.306 Y121.250 E2.6198 F300
G1 X92.476 Y120.673 E2.7445 F300
G1 X90.702 Y119.939 E2.8693 F300
G1 X89.000 Y119.053 E2.9940 F300
G1 X87.381 Y118.021 E3.1188 F300
G1 X85.859 Y116.853 E3.2435 F300
G1 X84.444 Y115.556 E3.3683 F300
G1 X83.147 Y114.141 E3.4930 F300
G1 X81.979 Y112.619 E3.6178 F300
G1 X80.947 Y111.000 E3.7425 F300
G1 X80.061 Y109.298 E3.8673 F300
G1 X79.327 Y107.524 E3.9920 F300
G1 X78.750 Y105.694 E4.1168 F300
G1 X78.334 Y103.820 E4.2415 F300
G1 X78.084 Y101.917 E4.3663 F300
G1 X78.000 Y100.000 E4.4911 F300
G1 X78.084 Y98.083 E4.6158 F300
G1 X78.334 Y96.180 E4.7406 F300
G1 X78.750 Y94.306 E4.8653 F300
G1 X79.327 Y92.476 E4.9901 F300
G1 X80.061 Y90.702 E5.1148 F300
G1 X80.947 Y89.000 E5.2396 F300
G1 X81.979 Y87.381 E5.3643 F300
G1 X83.147 Y85.859 E5.4891 F300
G1 X84.444 Y84.444 E5.6138 F300
G1 X85.859 Y83.147 E5.7386 F300
G1 X87.381 Y81.979 E5.8633 F300
G1 X89.000 Y80.947 E5.9881 F300
G1 X90.702 Y80.061 E6.1128 F300
G1 X92.476 Y79.327 E6.2376 F300
G1 X94.306 Y78.750 E6.3623 F300
G1 X96.180 Y78.334 E6.4871 F300
G1 X98.083 Y78.084 E6.6118 F300
G1 X100.000 Y78.000 E6.7366 F300
G1 X101.917 Y78.084 E6.8613 F300
G1 X103.820 Y78.334 E6.9861 F300
G1 X105.694 Y78.750 E7.1108 F300
G1 X107.524 Y79.327 E7.2356 F300
G1 X109.298 Y80.061 E7.3603 F300
G1 X111.000 Y80.947 E7.4851 F300
G1 X112.619 Y81.979 E7.6098 F300
G1 X114.141 Y83.147 E7.7346 F300
G1 X115.556 Y84.444 E7.8593 F300
G1 X116.853 Y85.859 E7.9841 F300
G1 X118.021 Y87.381 E8.1088 F300
G1 X119.053 Y89.000 E8.2336 F300
G1 X119.939 Y90.702 E8.3583 F300
G1 X120.673 Y92.476 E8.4831 F300
G1 X121.250 Y94.306 E8.6078 F300
G1 X121.666 Y96.180 E8.7326 F300
G1 X121.916 Y98.083 E8.8574 F300
G1 X122.000 Y100.000 E8.9821 F300
G1 E7.4821 F1200   ; Retract
G1 Z4.00 F600   ; Z-hop
G1 X118.000 Y100.000 F1200   ; Travel to fill ring 2
G1 Z3.00 F300   ; Lower to layer height
G1 E8.9821 F1200   ; Prime
G1 X117.932 Y98.431 E9.0842 F300
G1 X117.727 Y96.874 E9.1862 F300
G1 X117.387 Y95.341 E9.2883 F300
G1 X116.914 Y93.844 E9.3904 F300
G1 X116.314 Y92.393 E9.4925 F300
G1 X115.588 Y91.000 E9.5945 F300
G1 X114.745 Y89.676 E9.6966 F300
G1 X113.789 Y88.430 E9.7987 F300
G1 X112.728 Y87.272 E9.9007 F300
G1 X111.570 Y86.211 E10.0028 F300
G1 X110.324 Y85.255 E10.1049 F300
G1 X109.000 Y84.412 E10.2069 F300
G1 X107.607 Y83.686 E10.3090 F300
G1 X106.156 Y83.086 E10.4111 F300
G1 X104.659 Y82.613 E10.5131 F300
G1 X103.126 Y82.273 E10.6152 F300
G1 X101.569 Y82.068 E10.7173 F300
G1 X100.000 Y82.000 E10.8194 F300
G1 X98.431 Y82.068 E10.9214 F300
G1 X96.874 Y82.273 E11.0235 F300
G1 X95.341 Y82.613 E11.1256 F300
G1 X93.844 Y83.086 E11.2276 F300
G1 X92.393 Y83.686 E11.3297 F300
G1 X91.000 Y84.412 E11.4318 F300
G1 X89.676 Y85.255 E11.5338 F300
G1 X88.430 Y86.211 E11.6359 F300
G1 X87.272 Y87.272 E11.7380 F300
G1 X86.211 Y88.430 E11.8400 F300
G1 X85.255 Y89.676 E11.9421 F300
G1 X84.412 Y91.000 E12.0442 F300
G1 X83.686 Y92.393 E12.1463 F300
G1 X83.086 Y93.844 E12.2483 F300
G1 X82.613 Y95.341 E12.3504 F300
G1 X82.273 Y96.874 E12.4525 F300
G1 X82.068 Y98.431 E12.5545 F300
G1 X82.000 Y100.000 E12.6566 F300
G1 X82.068 Y101.569 E12.7587 F300
G1 X82.273 Y103.126 E12.8607 F300
G1 X82.613 Y104.659 E12.9628 F300
G1 X83.086 Y106.156 E13.0649 F300
G1 X83.686 Y107.607 E13.1669 F300
G1 X84.412 Y109.000 E13.2690 F300
G1 X85.255 Y110.324 E13.3711 F300
G1 X86.211 Y111.570 E13.4732 F300
G1 X87.272 Y112.728 E13.5752 F300
G1 X88.430 Y113.789 E13.6773 F300
G1 X89.676 Y114.745 E13.7794 F300
G1 X91.000 Y115.588 E13.8814 F300
G1 X92.393 Y116.314 E13.9835 F300
G1 X93.844 Y116.914 E14.0856 F300
G1 X95.341 Y117.387 E14.1876 F300
G1 X96.874 Y117.727 E14.2897 F300
G1 X98.431 Y117.932 E14.3918 F300
G1 X100.000 Y118.000 E14.4939 F300
G1 X101.569 Y117.932 E14.5959 F300
G1 X103.126 Y117.727 E14.6980 F300
G1 X104.659 Y117.387 E14.8001 F300
G1 X106.156 Y116.914 E14.9021 F300
G1 X107.607 Y116.314 E15.0042 F300
G1 X109.000 Y115.588 E15.1063 F300
G1 X110.324 Y114.745 E15.2083 F300
G1 X111.570 Y113.789 E15.3104 F300
G1 X112.728 Y112.728 E15.4125 F300
G1 X113.789 Y111.570 E15.5145 F300
G1 X114.745 Y110.324 E15.6166 F300
G1 X115.588 Y109.000 E15.7187 F300
G1 X116.314 Y107.607 E15.8208 F300
G1 X116.914 Y106.156 E15.9228 F300
G1 X117.387 Y104.659 E16.0249 F300
G1 X117.727 Y103.126 E16.1270 F300
G1 X117.932 Y101.569 E16.2290 F300
G1 X118.000 Y100.000 E16.3311 F300
G1 E14.8311 F1200   ; Retract
G1 Z4.00 F600   ; Z-hop
G1 X114.000 Y100.000 F1200   ; Travel to fill ring 3
G1 Z3.00 F300   ; Lower to layer height
G1 E16.3311 F1200   ; Prime
G1 X113.947 Y101.220 E16.4105 F300
G1 X113.787 Y102.431 E16.4899 F300
G1 X113.523 Y103.623 E16.5693 F300
G1 X113.156 Y104.788 E16.6486 F300
G1 X112.688 Y105.917 E16.7280 F300
G1 X112.124 Y107.000 E16.8074 F300
G1 X111.468 Y108.030 E16.8868 F300
G1 X110.725 Y108.999 E16.9662 F300
G1 X109.899 Y109.899 E17.0456 F300
G1 X108.999 Y110.725 E17.1250 F300
G1 X108.030 Y111.468 E17.2044 F300
G1 X107.000 Y112.124 E17.2837 F300
G1 X105.917 Y112.688 E17.3631 F300
G1 X104.788 Y113.156 E17.4425 F300
G1 X103.623 Y113.523 E17.5219 F300
G1 X102.431 Y113.787 E17.6013 F300
G1 X101.220 Y113.947 E17.6807 F300
G1 X100.000 Y114.000 E17.7601 F300
G1 X98.780 Y113.947 E17.8395 F300
G1 X97.569 Y113.787 E17.9188 F300
G1 X96.377 Y113.523 E17.9982 F300
G1 X95.212 Y113.156 E18.0776 F300
G1 X94.083 Y112.688 E18.1570 F300
G1 X93.000 Y112.124 E18.2364 F300
G1 X91.970 Y111.468 E18.3158 F300
G1 X91.001 Y110.725 E18.3952 F300
G1 X90.101 Y109.899 E18.4746 F300
G1 X89.275 Y108.999 E18.5539 F300
G1 X88.532 Y108.030 E18.6333 F300
G1 X87.876 Y107.000 E18.7127 F300
G1 X87.312 Y105.917 E18.7921 F300
G1 X86.844 Y104.788 E18.8715 F300
G1 X86.477 Y103.623 E18.9509 F300
G1 X86.213 Y102.431 E19.0303 F300
G1 X86.053 Y101.220 E19.1097 F300
G1 X86.000 Y100.000 E19.1890 F300
G1 X86.053 Y98.780 E19.2684 F300
G1 X86.213 Y97.569 E19.3478 F300
G1 X86.477 Y96.377 E19.4272 F300
G1 X86.844 Y95.212 E19.5066 F300
G1 X87.312 Y94.083 E19.5860 F300
G1 X87.876 Y93.000 E19.6654 F300
G1 X88.532 Y91.970 E19.7448 F300
G1 X89.275 Y91.001 E19.8241 F300
G1 X90.101 Y90.101 E19.9035 F300
G1 X91.001 Y89.275 E19.9829 F300
G1 X91.970 Y88.532 E20.0623 F300
G1 X93.000 Y87.876 E20.1417 F300
G1 X94.083 Y87.312 E20.2211 F300
G1 X95.212 Y86.844 E20.3005 F300
G1 X96.377 Y86.477 E20.3799 F300
G1 X97.569 Y86.213 E20.4592 F300
G1 X98.780 Y86.053 E20.5386 F300
G1 X100.000 Y86.000 E20.6180 F300
G1 X101.220 Y86.053 E20.6974 F300
G1 X102.431 Y86.213 E20.7768 F300
G1 X103.623 Y86.477 E20.8562 F300
G1 X104.788 Y86.844 E20.9356 F300
G1 X105.917 Y87.312 E21.0149 F300
G1 X107.000 Y87.876 E21.0943 F300
G1 X108.030 Y88.532 E21.1737 F300
G1 X108.999 Y89.275 E21.2531 F300
G1 X109.899 Y90.101 E21.3325 F300
G1 X110.725 Y91.001 E21.4119 F300
G1 X111.468 Y91.970 E21.4913 F300
G1 X112.124 Y93.000 E21.5707 F300
G1 X112.688 Y94.083 E21.6500 F300
G1 X113.156 Y95.212 E21.7294 F300
G1 X113.523 Y96.377 E21.8088 F300
G1 X113.787 Y97.569 E21.8882 F300
G1 X113.947 Y98.780 E21.9676 F300
G1 X114.000 Y100.000 E22.0470 F300
G1 E20.5470 F1200   ; Retract
G1 Z4.00 F600   ; Z-hop
G1 X110.000 Y100.000 F1200   ; Travel to fill ring 4
G1 Z3.00 F300   ; Lower to layer height
G1 E22.0470 F1200   ; Prime
G1 X109.962 Y99.128 E22.1037 F300
G1 X109.848 Y98.264 E22.1604 F300
G1 X109.659 Y97.412 E22.2171 F300
G1 X109.397 Y96.580 E22.2738 F300
G1 X109.063 Y95.774 E22.3305 F300
G1 X108.660 Y95.000 E22.3872 F300
G1 X108.192 Y94.264 E22.4439 F300
G1 X107.660 Y93.572 E22.5006 F300
G1 X107.071 Y92.929 E22.5573 F300
G1 X106.428 Y92.340 E22.6140 F300
G1 X105.736 Y91.808 E22.6707 F300
G1 X105.000 Y91.340 E22.7274 F300
G1 X104.226 Y90.937 E22.7842 F300
G1 X103.420 Y90.603 E22.8409 F300
G1 X102.588 Y90.341 E22.8976 F300
G1 X101.736 Y90.152 E22.9543 F300
G1 X100.872 Y90.038 E23.0110 F300
G1 X100.000 Y90.000 E23.0677 F300
G1 X99.128 Y90.038 E23.1244 F300
G1 X98.264 Y90.152 E23.1811 F300
G1 X97.412 Y90.341 E23.2378 F300
G1 X96.580 Y90.603 E23.2945 F300
G1 X95.774 Y90.937 E23.3512 F300
G1 X95.000 Y91.340 E23.4079 F300
G1 X94.264 Y91.808 E23.4646 F300
G1 X93.572 Y92.340 E23.5213 F300
G1 X92.929 Y92.929 E23.5780 F300
G1 X92.340 Y93.572 E23.6347 F300
G1 X91.808 Y94.264 E23.6914 F300
G1 X91.340 Y95.000 E23.7481 F300
G1 X90.937 Y95.774 E23.8048 F300
G1 X90.603 Y96.580 E23.8615 F300
G1 X90.341 Y97.412 E23.9183 F300
G1 X90.152 Y98.264 E23.9750 F300
G1 X90.038 Y99.128 E24.0317 F300
G1 X90.000 Y100.000 E24.0884 F300
G1 X90.038 Y100.872 E24.1451 F300
G1 X90.152 Y101.736 E24.2018 F300
G1 X90.341 Y102.588 E24.2585 F300
G1 X90.603 Y103.420 E24.3152 F300
G1 X90.937 Y104.226 E24.3719 F300
G1 X91.340 Y105.000 E24.4286 F300
G1 X91.808 Y105.736 E24.4853 F300
G1 X92.340 Y106.428 E24.5420 F300
G1 X92.929 Y107.071 E24.5987 F300
G1 X93.572 Y107.660 E24.6554 F300
G1 X94.264 Y108.192 E24.7121 F300
G1 X95.000 Y108.660 E24.7688 F300
G1 X95.774 Y109.063 E24.8255 F300
G1 X96.580 Y109.397 E24.8822 F300
G1 X97.412 Y109.659 E24.9389 F300
G1 X98.264 Y109.848 E24.9957 F300
G1 X99.128 Y109.962 E25.0524 F300
G1 X100.000 Y110.000 E25.1091 F300
G1 X100.872 Y109.962 E25.1658 F300
G1 X101.736 Y109.848 E25.2225 F300
G1 X102.588 Y109.659 E25.2792 F300
G1 X103.420 Y109.397 E25.3359 F300
G1 X104.226 Y109.063 E25.3926 F300
G1 X105.000 Y108.660 E25.4493 F300
G1 X105.736 Y108.192 E25.5060 F300
G1 X106.428 Y107.660 E25.5627 F300
G1 X107.071 Y107.071 E25.6194 F300
G1 X107.660 Y106.428 E25.6761 F300
G1 X108.192 Y105.736 E25.7328 F300
G1 X108.660 Y105.000 E25.7895 F300
G1 X109.063 Y104.226 E25.8462 F300
G1 X109.397 Y103.420 E25.9029 F300
G1 X109.659 Y102.588 E25.9596 F300
G1 X109.848 Y101.736 E26.0163 F300
G1 X109.962 Y100.872 E26.0731 F300
G1 X110.000 Y100.000 E26.1298 F300
G1 E24.6298 F1200   ; Retract
G1 Z4.00 F600   ; Z-hop
G1 X106.000 Y100.000 F1200   ; Travel to fill ring 5
G1 Z3.00 F300   ; Lower to layer height
G1 E26.1298 F1200   ; Prime
G1 X105.977 Y100.523 E26.1638 F300
G1 X105.909 Y101.042 E26.1978 F300
G1 X105.796 Y101.553 E26.2318 F300
G1 X105.638 Y102.052 E26.2659 F300
G1 X105.438 Y102.536 E26.2999 F300
G1 X105.196 Y103.000 E26.3339 F300
G1 X104.915 Y103.441 E26.3679 F300
G1 X104.596 Y103.857 E26.4019 F300
G1 X104.243 Y104.243 E26.4360 F300
G1 X103.857 Y104.596 E26.4700 F300
G1 X103.441 Y104.915 E26.5040 F300
G1 X103.000 Y105.196 E26.5380 F300
G1 X102.536 Y105.438 E26.5721 F300
G1 X102.052 Y105.638 E26.6061 F300
G1 X101.553 Y105.796 E26.6401 F300
G1 X101.042 Y105.909 E26.6741 F300
G1 X100.523 Y105.977 E26.7082 F300
G1 X100.000 Y106.000 E26.7422 F300
G1 X99.477 Y105.977 E26.7762 F300
G1 X98.958 Y105.909 E26.8102 F300
G1 X98.447 Y105.796 E26.8442 F300
G1 X97.948 Y105.638 E26.8783 F300
G1 X97.464 Y105.438 E26.9123 F300
G1 X97.000 Y105.196 E26.9463 F300
G1 X96.559 Y104.915 E26.9803 F300
G1 X96.143 Y104.596 E27.0144 F300
G1 X95.757 Y104.243 E27.0484 F300
G1 X95.404 Y103.857 E27.0824 F300
G1 X95.085 Y103.441 E27.1164 F300
G1 X94.804 Y103.000 E27.1505 F300
G1 X94.562 Y102.536 E27.1845 F300
G1 X94.362 Y102.052 E27.2185 F300
G1 X94.204 Y101.553 E27.2525 F300
G1 X94.091 Y101.042 E27.2865 F300
G1 X94.023 Y100.523 E27.3206 F300
G1 X94.000 Y100.000 E27.3546 F300
G1 X94.023 Y99.477 E27.3886 F300
G1 X94.091 Y98.958 E27.4226 F300
G1 X94.204 Y98.447 E27.4567 F300
G1 X94.362 Y97.948 E27.4907 F300
G1 X94.562 Y97.464 E27.5247 F300
G1 X94.804 Y97.000 E27.5587 F300
G1 X95.085 Y96.559 E27.5928 F300
G1 X95.404 Y96.143 E27.6268 F300
G1 X95.757 Y95.757 E27.6608 F300
G1 X96.143 Y95.404 E27.6948 F300
G1 X96.559 Y95.085 E27.7288 F300
G1 X97.000 Y94.804 E27.7629 F300
G1 X97.464 Y94.562 E27.7969 F300
G1 X97.948 Y94.362 E27.8309 F300
G1 X98.447 Y94.204 E27.8649 F300
G1 X98.958 Y94.091 E27.8990 F300
G1 X99.477 Y94.023 E27.9330 F300
G1 X100.000 Y94.000 E27.9670 F300
G1 X100.523 Y94.023 E28.0010 F300
G1 X101.042 Y94.091 E28.0351 F300
G1 X101.553 Y94.204 E28.0691 F300
G1 X102.052 Y94.362 E28.1031 F300
G1 X102.536 Y94.562 E28.1371 F300
G1 X103.000 Y94.804 E28.1711 F300
G1 X103.441 Y95.085 E28.2052 F300
G1 X103.857 Y95.404 E28.2392 F300
G1 X104.243 Y95.757 E28.2732 F300
G1 X104.596 Y96.143 E28.3072 F300
G1 X104.915 Y96.559 E28.3413 F300
G1 X105.196 Y97.000 E28.3753 F300
G1 X105.438 Y97.464 E28.4093 F300
G1 X105.638 Y97.948 E28.4433 F300
G1 X105.796 Y98.447 E28.4774 F300
G1 X105.909 Y98.958 E28.5114 F300
G1 X105.977 Y99.477 E28.5454 F300
G1 X106.000 Y100.000 E28.5794 F300
G1 E27.0794 F1200   ; Retract

; === LAYER 2/3 (Z=5.0mm, fill rotation=2.5°) ===
G1 Z6.00 F600   ; Z-hop
G1 X121.979 Y100.960 F1200   ; Travel to fill ring 1
G1 Z5.00 F300   ; Lower to layer height
G1 E28.5794 F1200   ; Prime
G1 X121.812 Y102.872 E28.7042 F300
G1 X121.479 Y104.762 E28.8289 F300
G1 X120.982 Y106.616 E28.9537 F300
G1 X120.325 Y108.419 E29.0784 F300
G1 X119.514 Y110.158 E29.2032 F300
G1 X118.555 Y111.821 E29.3279 F300
G1 X117.454 Y113.393 E29.4527 F300
G1 X116.220 Y114.863 E29.5774 F300
G1 X114.863 Y116.220 E29.7022 F300
G1 X113.393 Y117.454 E29.8269 F300
G1 X111.821 Y118.555 E29.9517 F300
G1 X110.158 Y119.514 E30.0764 F300
G1 X108.419 Y120.325 E30.2012 F300
G1 X106.616 Y120.982 E30.3259 F300
G1 X104.762 Y121.479 E30.4507 F300
G1 X102.872 Y121.812 E30.5754 F300
G1 X100.960 Y121.979 E30.7002 F300
G1 X99.040 Y121.979 E30.8249 F300
G1 X97.128 Y121.812 E30.9497 F300
G1 X95.238 Y121.479 E31.0745 F300
G1 X93.384 Y120.982 E31.1992 F300
G1 X91.581 Y120.325 E31.3240 F300
G1 X89.842 Y119.514 E31.4487 F300
G1 X88.179 Y118.555 E31.5735 F300
G1 X86.607 Y117.454 E31.6982 F300
G1 X85.137 Y116.220 E31.8230 F300
G1 X83.780 Y114.863 E31.9477 F300
G1 X82.546 Y113.393 E32.0725 F300
G1 X81.445 Y111.821 E32.1972 F300
G1 X80.486 Y110.158 E32.3220 F300
G1 X79.675 Y108.419 E32.4467 F300
G1 X79.018 Y106.616 E32.5715 F300
G1 X78.521 Y104.762 E32.6962 F300
G1 X78.188 Y102.872 E32.8210 F300
G1 X78.021 Y100.960 E32.9457 F300
G1 X78.021 Y99.040 E33.0705 F300
G1 X78.188 Y97.128 E33.1952 F300
G1 X78.521 Y95.238 E33.3200 F300
G1 X79.018 Y93.384 E33.4447 F300
G1 X79.675 Y91.581 E33.5695 F300
G1 X80.486 Y89.842 E33.6942 F300
G1 X81.445 Y88.179 E33.8190 F300
G1 X82.546 Y86.607 E33.9437 F300
G1 X83.780 Y85.137 E34.0685 F300
G1 X85.137 Y83.780 E34.1932 F300
G1 X86.607 Y82.546 E34.3180 F300
G1 X88.179 Y81.445 E34.4427 F300
G1 X89.842 Y80.486 E34.5675 F300
G1 X91.581 Y79.675 E34.6922 F300
G1 X93.384 Y79.018 E34.8170 F300
G1 X95.238 Y78.521 E34.9417 F300
G1 X97.128 Y78.188 E35.0665 F300
G1 X99.040 Y78.021 E35.1912 F300
G1 X100.960 Y78.021 E35.3160 F300
G1 X102.872 Y78.188 E35.4408 F300
G1 X104.762 Y78.521 E35.5655 F300
G1 X106.616 Y79.018 E35.6903 F300
G1 X108.419 Y79.675 E35.8150 F300
G1 X110.158 Y80.486 E35.9398 F300
G1 X111.821 Y81.445 E36.0645 F300
G1 X113.393 Y82.546 E36.1893 F300
G1 X114.863 Y83.780 E36.3140 F300
G1 X116.220 Y85.137 E36.4388 F300
G1 X117.454 Y86.607 E36.5635 F300
G1 X118.555 Y88.179 E36.6883 F300
G1 X119.514 Y89.842 E36.8130 F300
G1 X120.325 Y91.581 E36.9378 F300
G1 X120.982 Y93.384 E37.0625 F300
G1 X121.479 Y95.238 E37.1873 F300
G1 X121.812 Y97.128 E37.3120 F300
G1 X121.979 Y99.040 E37.4368 F300
G1 X121.979 Y100.960 E37.5615 F300
G1 E36.0615 F1200   ; Retract
G1 Z6.00 F600   ; Z-hop
G1 X117.983 Y100.785 F1200   ; Travel to fill ring 2
G1 Z5.00 F300   ; Lower to layer height
G1 E37.5615 F1200   ; Prime
G1 X117.983 Y99.215 E37.6636 F300
G1 X117.846 Y97.651 E37.7657 F300
G1 X117.573 Y96.104 E37.8677 F300
G1 X117.167 Y94.587 E37.9698 F300
G1 X116.630 Y93.112 E38.0719 F300
G1 X115.966 Y91.689 E38.1739 F300
G1 X115.181 Y90.329 E38.2760 F300
G1 X114.280 Y89.042 E38.3781 F300
G1 X113.271 Y87.839 E38.4802 F300
G1 X112.161 Y86.729 E38.5822 F300
G1 X110.958 Y85.720 E38.6843 F300
G1 X109.671 Y84.819 E38.7864 F300
G1 X108.311 Y84.034 E38.8884 F300
G1 X106.888 Y83.370 E38.9905 F300
G1 X105.413 Y82.833 E39.0926 F300
G1 X103.896 Y82.427 E39.1946 F300
G1 X102.349 Y82.154 E39.2967 F300
G1 X100.785 Y82.017 E39.3988 F300
G1 X99.215 Y82.017 E39.5008 F300
G1 X97.651 Y82.154 E39.6029 F300
G1 X96.104 Y82.427 E39.7050 F300
G1 X94.587 Y82.833 E39.8071 F300
G1 X93.112 Y83.370 E39.9091 F300
G1 X91.689 Y84.034 E40.0112 F300
G1 X90.329 Y84.819 E40.1133 F300
G1 X89.042 Y85.720 E40.2153 F300
G1 X87.839 Y86.729 E40.3174 F300
G1 X86.729 Y87.839 E40.4195 F300
G1 X85.720 Y89.042 E40.5215 F300
G1 X84.819 Y90.329 E40.6236 F300
G1 X84.034 Y91.689 E40.7257 F300
G1 X83.370 Y93.112 E40.8277 F300
G1 X82.833 Y94.587 E40.9298 F300
G1 X82.427 Y96.104 E41.0319 F300
G1 X82.154 Y97.651 E41.1340 F300
G1 X82.017 Y99.215 E41.2360 F300
G1 X82.017 Y100.785 E41.3381 F300
G1 X82.154 Y102.349 E41.4402 F300
G1 X82.427 Y103.896 E41.5422 F300
G1 X82.833 Y105.413 E41.6443 F300
G1 X83.370 Y106.888 E41.7464 F300
G1 X84.034 Y108.311 E41.8484 F300
G1 X84.819 Y109.671 E41.9505 F300
G1 X85.720 Y110.958 E42.0526 F300
G1 X86.729 Y112.161 E42.1546 F300
G1 X87.839 Y113.271 E42.2567 F300
G1 X89.042 Y114.280 E42.3588 F300
G1 X90.329 Y115.181 E42.4609 F300
G1 X91.689 Y115.966 E42.5629 F300
G1 X93.112 Y116.630 E42.6650 F300
G1 X94.587 Y117.167 E42.7671 F300
G1 X96.104 Y117.573 E42.8691 F300
G1 X97.651 Y117.846 E42.9712 F300
G1 X99.215 Y117.983 E43.0733 F300
G1 X100.785 Y117.983 E43.1753 F300
G1 X102.349 Y117.846 E43.2774 F300
G1 X103.896 Y117.573 E43.3795 F300
G1 X105.413 Y117.167 E43.4816 F300
G1 X106.888 Y116.630 E43.5836 F300
G1 X108.311 Y115.966 E43.6857 F300
G1 X109.671 Y115.181 E43.7878 F300
G1 X110.958 Y114.280 E43.8898 F300
G1 X112.161 Y113.271 E43.9919 F300
G1 X113.271 Y112.161 E44.0940 F300
G1 X114.280 Y110.958 E44.1960 F300
G1 X115.181 Y109.671 E44.2981 F300
G1 X115.966 Y108.311 E44.4002 F300
G1 X116.630 Y106.888 E44.5022 F300
G1 X117.167 Y105.413 E44.6043 F300
G1 X117.573 Y103.896 E44.7064 F300
G1 X117.846 Y102.349 E44.8085 F300
G1 X117.983 Y100.785 E44.9105 F300
G1 E43.4105 F1200   ; Retract
G1 Z6.00 F600   ; Z-hop
G1 X113.987 Y100.611 F1200   ; Travel to fill ring 3
G1 Z5.00 F300   ; Lower to layer height
G1 E44.9105 F1200   ; Prime
G1 X113.880 Y101.827 E44.9899 F300
G1 X113.668 Y103.030 E45.0693 F300
G1 X113.352 Y104.210 E45.1487 F300
G1 X112.934 Y105.358 E45.2281 F300
G1 X112.418 Y106.464 E45.3075 F300
G1 X111.807 Y107.522 E45.3868 F300
G1 X111.107 Y108.523 E45.4662 F300
G1 X110.322 Y109.458 E45.5456 F300
G1 X109.458 Y110.322 E45.6250 F300
G1 X108.523 Y111.107 E45.7044 F300
G1 X107.522 Y111.807 E45.7838 F300
G1 X106.464 Y112.418 E45.8632 F300
G1 X105.358 Y112.934 E45.9426 F300
G1 X104.210 Y113.352 E46.0219 F300
G1 X103.030 Y113.668 E46.1013 F300
G1 X101.827 Y113.880 E46.1807 F300
G1 X100.611 Y113.987 E46.2601 F300
G1 X99.389 Y113.987 E46.3395 F300
G1 X98.173 Y113.880 E46.4189 F300
G1 X96.970 Y113.668 E46.4983 F300
G1 X95.790 Y113.352 E46.5777 F300
G1 X94.642 Y112.934 E46.6570 F300
G1 X93.536 Y112.418 E46.7364 F300
G1 X92.478 Y111.807 E46.8158 F300
G1 X91.477 Y111.107 E46.8952 F300
G1 X90.542 Y110.322 E46.9746 F300
G1 X89.678 Y109.458 E47.0540 F300
G1 X88.893 Y108.523 E47.1334 F300
G1 X88.193 Y107.522 E47.2128 F300
G1 X87.582 Y106.464 E47.2921 F300
G1 X87.066 Y105.358 E47.3715 F300
G1 X86.648 Y104.210 E47.4509 F300
G1 X86.332 Y103.030 E47.5303 F300
G1 X86.120 Y101.827 E47.6097 F300
G1 X86.013 Y100.611 E47.6891 F300
G1 X86.013 Y99.389 E47.7685 F300
G1 X86.120 Y98.173 E47.8479 F300
G1 X86.332 Y96.970 E47.9272 F300
G1 X86.648 Y95.790 E48.0066 F300
G1 X87.066 Y94.642 E48.0860 F300
G1 X87.582 Y93.536 E48.1654 F300
G1 X88.193 Y92.478 E48.2448 F300
G1 X88.893 Y91.477 E48.3242 F300
G1 X89.678 Y90.542 E48.4036 F300
G1 X90.542 Y89.678 E48.4829 F300
G1 X91.477 Y88.893 E48.5623 F300
G1 X92.478 Y88.193 E48.6417 F300
G1 X93.536 Y87.582 E48.7211 F300
G1 X94.642 Y87.066 E48.8005 F300
G1 X95.790 Y86.648 E48.8799 F300
G1 X96.970 Y86.332 E48.9593 F300
G1 X98.173 Y86.120 E49.0387 F300
G1 X99.389 Y86.013 E49.1180 F300
G1 X100.611 Y86.013 E49.1974 F300
G1 X101.827 Y86.120 E49.2768 F300
G1 X103.030 Y86.332 E49.3562 F300
G1 X104.210 Y86.648 E49.4356 F300
G1 X105.358 Y87.066 E49.5150 F300
G1 X106.464 Y87.582 E49.5944 F300
G1 X107.522 Y88.193 E49.6738 F300
G1 X108.523 Y88.893 E49.7531 F300
G1 X109.458 Y89.678 E49.8325 F300
G1 X110.322 Y90.542 E49.9119 F300
G1 X111.107 Y91.477 E49.9913 F300
G1 X111.807 Y92.478 E50.0707 F300
G1 X112.418 Y93.536 E50.1501 F300
G1 X112.934 Y94.642 E50.2295 F300
G1 X113.352 Y95.790 E50.3089 F300
G1 X113.668 Y96.970 E50.3882 F300
G1 X113.880 Y98.173 E50.4676 F300
G1 X113.987 Y99.389 E50.5470 F300
G1 X113.987 Y100.611 E50.6264 F300
G1 E49.1264 F1200   ; Retract
G1 Z6.00 F600   ; Z-hop
G1 X109.990 Y100.436 F1200   ; Travel to fill ring 4
G1 Z5.00 F300   ; Lower to layer height
G1 E50.6264 F1200   ; Prime
G1 X109.990 Y99.564 E50.6831 F300
G1 X109.914 Y98.695 E50.7398 F300
G1 X109.763 Y97.836 E50.7965 F300
G1 X109.537 Y96.993 E50.8532 F300
G1 X109.239 Y96.173 E50.9099 F300
G1 X108.870 Y95.383 E50.9666 F300
G1 X108.434 Y94.627 E51.0233 F300
G1 X107.934 Y93.912 E51.0800 F300
G1 X107.373 Y93.244 E51.1368 F300
G1 X106.756 Y92.627 E51.1935 F300
G1 X106.088 Y92.066 E51.2502 F300
G1 X105.373 Y91.566 E51.3069 F300
G1 X104.617 Y91.130 E51.3636 F300
G1 X103.827 Y90.761 E51.4203 F300
G1 X103.007 Y90.463 E51.4770 F300
G1 X102.164 Y90.237 E51.5337 F300
G1 X101.305 Y90.086 E51.5904 F300
G1 X100.436 Y90.010 E51.6471 F300
G1 X99.564 Y90.010 E51.7038 F300
G1 X98.695 Y90.086 E51.7605 F300
G1 X97.836 Y90.237 E51.8172 F300
G1 X96.993 Y90.463 E51.8739 F300
G1 X96.173 Y90.761 E51.9306 F300
G1 X95.383 Y91.130 E51.9873 F300
G1 X94.627 Y91.566 E52.0440 F300
G1 X93.912 Y92.066 E52.1007 F300
G1 X93.244 Y92.627 E52.1574 F300
G1 X92.627 Y93.244 E52.2142 F300
G1 X92.066 Y93.912 E52.2709 F300
G1 X91.566 Y94.627 E52.3276 F300
G1 X91.130 Y95.383 E52.3843 F300
G1 X90.761 Y96.173 E52.4410 F300
G1 X90.463 Y96.993 E52.4977 F300
G1 X90.237 Y97.836 E52.5544 F300
G1 X90.086 Y98.695 E52.6111 F300
G1 X90.010 Y99.564 E52.6678 F300
G1 X90.010 Y100.436 E52.7245 F300
G1 X90.086 Y101.305 E52.7812 F300
G1 X90.237 Y102.164 E52.8379 F300
G1 X90.463 Y103.007 E52.8946 F300
G1 X90.761 Y103.827 E52.9513 F300
G1 X91.130 Y104.617 E53.0080 F300
G1 X91.566 Y105.373 E53.0647 F300
G1 X92.066 Y106.088 E53.1214 F300
G1 X92.627 Y106.756 E53.1781 F300
G1 X93.244 Y107.373 E53.2348 F300
G1 X93.912 Y107.934 E53.2916 F300
G1 X94.627 Y108.434 E53.3483 F300
G1 X95.383 Y108.870 E53.4050 F300
G1 X96.173 Y109.239 E53.4617 F300
G1 X96.993 Y109.537 E53.5184 F300
G1 X97.836 Y109.763 E53.5751 F300
G1 X98.695 Y109.914 E53.6318 F300
G1 X99.564 Y109.990 E53.6885 F300
G1 X100.436 Y109.990 E53.7452 F300
G1 X101.305 Y109.914 E53.8019 F300
G1 X102.164 Y109.763 E53.8586 F300
G1 X103.007 Y109.537 E53.9153 F300
G1 X103.827 Y109.239 E53.9720 F300
G1 X104.617 Y108.870 E54.0287 F300
G1 X105.373 Y108.434 E54.0854 F300
G1 X106.088 Y107.934 E54.1421 F300
G1 X106.756 Y107.373 E54.1988 F300
G1 X107.373 Y106.756 E54.2555 F300
G1 X107.934 Y106.088 E54.3122 F300
G1 X108.434 Y105.373 E54.3689 F300
G1 X108.870 Y104.617 E54.4257 F300
G1 X109.239 Y103.827 E54.4824 F300
G1 X109.537 Y103.007 E54.5391 F300
G1 X109.763 Y102.164 E54.5958 F300
G1 X109.914 Y101.305 E54.6525 F300
G1 X109.990 Y100.436 E54.7092 F300
G1 E53.2092 F1200   ; Retract
G1 Z6.00 F600   ; Z-hop
G1 X105.994 Y100.262 F1200   ; Travel to fill ring 5
G1 Z5.00 F300   ; Lower to layer height
G1 E54.7092 F1200   ; Prime
G1 X105.949 Y100.783 E54.7432 F300
G1 X105.858 Y101.299 E54.7772 F300
G1 X105.722 Y101.804 E54.8112 F300
G1 X105.543 Y102.296 E54.8453 F300
G1 X105.322 Y102.770 E54.8793 F300
G1 X105.060 Y103.224 E54.9133 F300
G1 X104.760 Y103.653 E54.9473 F300
G1 X104.424 Y104.054 E54.9814 F300
G1 X104.054 Y104.424 E55.0154 F300
G1 X103.653 Y104.760 E55.0494 F300
G1 X103.224 Y105.060 E55.0834 F300
G1 X102.770 Y105.322 E55.1175 F300
G1 X102.296 Y105.543 E55.1515 F300
G1 X101.804 Y105.722 E55.1855 F300
G1 X101.299 Y105.858 E55.2195 F300
G1 X100.783 Y105.949 E55.2536 F300
G1 X100.262 Y105.994 E55.2876 F300
G1 X99.738 Y105.994 E55.3216 F300
G1 X99.217 Y105.949 E55.3556 F300
G1 X98.701 Y105.858 E55.3896 F300
G1 X98.196 Y105.722 E55.4237 F300
G1 X97.704 Y105.543 E55.4577 F300
G1 X97.230 Y105.322 E55.4917 F300
G1 X96.776 Y105.060 E55.5257 F300
G1 X96.347 Y104.760 E55.5598 F300
G1 X95.946 Y104.424 E55.5938 F300
G1 X95.576 Y104.054 E55.6278 F300
G1 X95.240 Y103.653 E55.6618 F300
G1 X94.940 Y103.224 E55.6959 F300
G1 X94.678 Y102.770 E55.7299 F300
G1 X94.457 Y102.296 E55.7639 F300
G1 X94.278 Y101.804 E55.7979 F300
G1 X94.142 Y101.299 E55.8319 F300
G1 X94.051 Y100.783 E55.8660 F300
G1 X94.006 Y100.262 E55.9000 F300
G1 X94.006 Y99.738 E55.9340 F300
G1 X94.051 Y99.217 E55.9680 F300
G1 X94.142 Y98.701 E56.0021 F300
G1 X94.278 Y98.196 E56.0361 F300
G1 X94.457 Y97.704 E56.0701 F300
G1 X94.678 Y97.230 E56.1041 F300
G1 X94.940 Y96.776 E56.1382 F300
G1 X95.240 Y96.347 E56.1722 F300
G1 X95.576 Y95.946 E56.2062 F300
G1 X95.946 Y95.576 E56.2402 F300
G1 X96.347 Y95.240 E56.2742 F300
G1 X96.776 Y94.940 E56.3083 F300
G1 X97.230 Y94.678 E56.3423 F300
G1 X97.704 Y94.457 E56.3763 F300
G1 X98.196 Y94.278 E56.4103 F300
G1 X98.701 Y94.142 E56.4444 F300
G1 X99.217 Y94.051 E56.4784 F300
G1 X99.738 Y94.006 E56.5124 F300
G1 X100.262 Y94.006 E56.5464 F300
G1 X100.783 Y94.051 E56.5805 F300
G1 X101.299 Y94.142 E56.6145 F300
G1 X101.804 Y94.278 E56.6485 F300
G1 X102.296 Y94.457 E56.6825 F300
G1 X102.770 Y94.678 E56.7165 F300
G1 X103.224 Y94.940 E56.7506 F300
G1 X103.653 Y95.240 E56.7846 F300
G1 X104.054 Y95.576 E56.8186 F300
G1 X104.424 Y95.946 E56.8526 F300
G1 X104.760 Y96.347 E56.8867 F300
G1 X105.060 Y96.776 E56.9207 F300
G1 X105.322 Y97.230 E56.9547 F300
G1 X105.543 Y97.704 E56.9887 F300
G1 X105.722 Y98.196 E57.0228 F300
G1 X105.858 Y98.701 E57.0568 F300
G1 X105.949 Y99.217 E57.0908 F300
G1 X105.994 Y99.738 E57.1248 F300
G1 X105.994 Y100.262 E57.1588 F300
G1 E55.6588 F1200   ; Retract

; === LAYER 3/3 (Z=7.0mm, fill rotation=5.0°) ===
G1 Z8.00 F600   ; Z-hop
G1 X121.916 Y101.917 F1200   ; Travel to fill ring 1
G1 Z7.00 F300   ; Lower to layer height
G1 E57.1588 F1200   ; Prime
G1 X121.666 Y103.820 E57.2836 F300
G1 X121.250 Y105.694 E57.4083 F300
G1 X120.673 Y107.524 E57.5331 F300
G1 X119.939 Y109.298 E57.6579 F300
G1 X119.053 Y111.000 E57.7826 F300
G1 X118.021 Y112.619 E57.9074 F300
G1 X116.853 Y114.141 E58.0321 F300
G1 X115.556 Y115.556 E58.1569 F300
G1 X114.141 Y116.853 E58.2816 F300
G1 X112.619 Y118.021 E58.4064 F300
G1 X111.000 Y119.053 E58.5311 F300
G1 X109.298 Y119.939 E58.6559 F300
G1 X107.524 Y120.673 E58.7806 F300
G1 X105.694 Y121.250 E58.9054 F300
G1 X103.820 Y121.666 E59.0301 F300
G1 X101.917 Y121.916 E59.1549 F300
G1 X100.000 Y122.000 E59.2796 F300
G1 X98.083 Y121.916 E59.4044 F300
G1 X96.180 Y121.666 E59.5291 F300
G1 X94.306 Y121.250 E59.6539 F300
G1 X92.476 Y120.673 E59.7786 F300
G1 X90.702 Y119.939 E59.9034 F300
G1 X89.000 Y119.053 E60.0281 F300
G1 X87.381 Y118.021 E60.1529 F300
G1 X85.859 Y116.853 E60.2776 F300
G1 X84.444 Y115.556 E60.4024 F300
G1 X83.147 Y114.141 E60.5271 F300
G1 X81.979 Y112.619 E60.6519 F300
G1 X80.947 Y111.000 E60.7766 F300
G1 X80.061 Y109.298 E60.9014 F300
G1 X79.327 Y107.524 E61.0261 F300
G1 X78.750 Y105.694 E61.1509 F300
G1 X78.334 Y103.820 E61.2756 F300
G1 X78.084 Y101.917 E61.4004 F300
G1 X78.000 Y100.000 E61.5251 F300
G1 X78.084 Y98.083 E61.6499 F300
G1 X78.334 Y96.180 E61.7746 F300
G1 X78.750 Y94.306 E61.8994 F300
G1 X79.327 Y92.476 E62.0242 F300
G1 X80.061 Y90.702 E62.1489 F300
G1 X80.947 Y89.000 E62.2737 F300
G1 X81.979 Y87.381 E62.3984 F300
G1 X83.147 Y85.859 E62.5232 F300
G1 X84.444 Y84.444 E62.6479 F300
G1 X85.859 Y83.147 E62.7727 F300
G1 X87.381 Y81.979 E62.8974 F300
G1 X89.000 Y80.947 E63.0222 F300
G1 X90.702 Y80.061 E63.1469 F300
G1 X92.476 Y79.327 E63.2717 F300
G1 X94.306 Y78.750 E63.3964 F300
G1 X96.180 Y78.334 E63.5212 F300
G1 X98.083 Y78.084 E63.6459 F300
G1 X100.000 Y78.000 E63.7707 F300
G1 X101.917 Y78.084 E63.8954 F300
G1 X103.820 Y78.334 E64.0202 F300
G1 X105.694 Y78.750 E64.1449 F300
G1 X107.524 Y79.327 E64.2697 F300
G1 X109.298 Y80.061 E64.3944 F300
G1 X111.000 Y80.947 E64.5192 F300
G1 X112.619 Y81.979 E64.6439 F300
G1 X114.141 Y83.147 E64.7687 F300
G1 X115.556 Y84.444 E64.8934 F300
G1 X116.853 Y85.859 E65.0182 F300
G1 X118.021 Y87.381 E65.1429 F300
G1 X119.053 Y89.000 E65.2677 F300
G1 X119.939 Y90.702 E65.3924 F300
G1 X120.673 Y92.476 E65.5172 F300
G1 X121.250 Y94.306 E65.6419 F300
G1 X121.666 Y96.180 E65.7667 F300
G1 X121.916 Y98.083 E65.8914 F300
G1 X122.000 Y100.000 E66.0162 F300
G1 X121.916 Y101.917 E66.1409 F300
G1 E64.6409 F1200   ; Retract
G1 Z8.00 F600   ; Z-hop
G1 X117.932 Y101.569 F1200   ; Travel to fill ring 2
G1 Z7.00 F300   ; Lower to layer height
G1 E66.1409 F1200   ; Prime
G1 X118.000 Y100.000 E66.2430 F300
G1 X117.932 Y98.431 E66.3451 F300
G1 X117.727 Y96.874 E66.4472 F300
G1 X117.387 Y95.341 E66.5492 F300
G1 X116.914 Y93.844 E66.6513 F300
G1 X116.314 Y92.393 E66.7534 F300
G1 X115.588 Y91.000 E66.8554 F300
G1 X114.745 Y89.676 E66.9575 F300
G1 X113.789 Y88.430 E67.0596 F300
G1 X112.728 Y87.272 E67.1616 F300
G1 X111.570 Y86.211 E67.2637 F300
G1 X110.324 Y85.255 E67.3658 F300
G1 X109.000 Y84.412 E67.4679 F300
G1 X107.607 Y83.686 E67.5699 F300
G1 X106.156 Y83.086 E67.6720 F300
G1 X104.659 Y82.613 E67.7741 F300
G1 X103.126 Y82.273 E67.8761 F300
G1 X101.569 Y82.068 E67.9782 F300
G1 X100.000 Y82.000 E68.0803 F300
G1 X98.431 Y82.068 E68.1823 F300
G1 X96.874 Y82.273 E68.2844 F300
G1 X95.341 Y82.613 E68.3865 F300
G1 X93.844 Y83.086 E68.4885 F300
G1 X92.393 Y83.686 E68.5906 F300
G1 X91.000 Y84.412 E68.6927 F300
G1 X89.676 Y85.255 E68.7948 F300
G1 X88.430 Y86.211 E68.8968 F300
G1 X87.272 Y87.272 E68.9989 F300
G1 X86.211 Y88.430 E69.1010 F300
G1 X85.255 Y89.676 E69.2030 F300
G1 X84.412 Y91.000 E69.3051 F300
G1 X83.686 Y92.393 E69.4072 F300
G1 X83.086 Y93.844 E69.5092 F300
G1 X82.613 Y95.341 E69.6113 F300
G1 X82.273 Y96.874 E69.7134 F300
G1 X82.068 Y98.431 E69.8154 F300
G1 X82.000 Y100.000 E69.9175 F300
G1 X82.068 Y101.569 E70.0196 F300
G1 X82.273 Y103.126 E70.1217 F300
G1 X82.613 Y104.659 E70.2237 F300
G1 X83.086 Y106.156 E70.3258 F300
G1 X83.686 Y107.607 E70.4279 F300
G1 X84.412 Y109.000 E70.5299 F300
G1 X85.255 Y110.324 E70.6320 F300
G1 X86.211 Y111.570 E70.7341 F300
G1 X87.272 Y112.728 E70.8361 F300
G1 X88.430 Y113.789 E70.9382 F300
G1 X89.676 Y114.745 E71.0403 F300
G1 X91.000 Y115.588 E71.1423 F300
G1 X92.393 Y116.314 E71.2444 F300
G1 X93.844 Y116.914 E71.3465 F300
G1 X95.341 Y117.387 E71.4486 F300
G1 X96.874 Y117.727 E71.5506 F300
G1 X98.431 Y117.932 E71.6527 F300
G1 X100.000 Y118.000 E71.7548 F300
G1 X101.569 Y117.932 E71.8568 F300
G1 X103.126 Y117.727 E71.9589 F300
G1 X104.659 Y117.387 E72.0610 F300
G1 X106.156 Y116.914 E72.1630 F300
G1 X107.607 Y116.314 E72.2651 F300
G1 X109.000 Y115.588 E72.3672 F300
G1 X110.324 Y114.745 E72.4693 F300
G1 X111.570 Y113.789 E72.5713 F300
G1 X112.728 Y112.728 E72.6734 F300
G1 X113.789 Y111.570 E72.7755 F300
G1 X114.745 Y110.324 E72.8775 F300
G1 X115.588 Y109.000 E72.9796 F300
G1 X116.314 Y107.607 E73.0817 F300
G1 X116.914 Y106.156 E73.1837 F300
G1 X117.387 Y104.659 E73.2858 F300
G1 X117.727 Y103.126 E73.3879 F300
G1 X117.932 Y101.569 E73.4899 F300
G1 E71.9899 F1200   ; Retract
G1 Z8.00 F600   ; Z-hop
G1 X113.947 Y101.220 F1200   ; Travel to fill ring 3
G1 Z7.00 F300   ; Lower to layer height
G1 E73.4899 F1200   ; Prime
G1 X113.787 Y102.431 E73.5693 F300
G1 X113.523 Y103.623 E73.6487 F300
G1 X113.156 Y104.788 E73.7281 F300
G1 X112.688 Y105.917 E73.8075 F300
G1 X112.124 Y107.000 E73.8869 F300
G1 X111.468 Y108.030 E73.9663 F300
G1 X110.725 Y108.999 E74.0457 F300
G1 X109.899 Y109.899 E74.1250 F300
G1 X108.999 Y110.725 E74.2044 F300
G1 X108.030 Y111.468 E74.2838 F300
G1 X107.000 Y112.124 E74.3632 F300
G1 X105.917 Y112.688 E74.4426 F300
G1 X104.788 Y113.156 E74.5220 F300
G1 X103.623 Y113.523 E74.6014 F300
G1 X102.431 Y113.787 E74.6808 F300
G1 X101.220 Y113.947 E74.7601 F300
G1 X100.000 Y114.000 E74.8395 F300
G1 X98.780 Y113.947 E74.9189 F300
G1 X97.569 Y113.787 E74.9983 F300
G1 X96.377 Y113.523 E75.0777 F300
G1 X95.212 Y113.156 E75.1571 F300
G1 X94.083 Y112.688 E75.2365 F300
G1 X93.000 Y112.124 E75.3159 F300
G1 X91.970 Y111.468 E75.3952 F300
G1 X91.001 Y110.725 E75.4746 F300
G1 X90.101 Y109.899 E75.5540 F300
G1 X89.275 Y108.999 E75.6334 F300
G1 X88.532 Y108.030 E75.7128 F300
G1 X87.876 Y107.000 E75.7922 F300
G1 X87.312 Y105.917 E75.8716 F300
G1 X86.844 Y104.788 E75.9509 F300
G1 X86.477 Y103.623 E76.0303 F300
G1 X86.213 Y102.431 E76.1097 F300
G1 X86.053 Y101.220 E76.1891 F300
G1 X86.000 Y100.000 E76.2685 F300
G1 X86.053 Y98.780 E76.3479 F300
G1 X86.213 Y97.569 E76.4273 F300
G1 X86.477 Y96.377 E76.5067 F300
G1 X86.844 Y95.212 E76.5860 F300
G1 X87.312 Y94.083 E76.6654 F300
G1 X87.876 Y93.000 E76.7448 F300
G1 X88.532 Y91.970 E76.8242 F300
G1 X89.275 Y91.001 E76.9036 F300
G1 X90.101 Y90.101 E76.9830 F300
G1 X91.001 Y89.275 E77.0624 F300
G1 X91.970 Y88.532 E77.1418 F300
G1 X93.000 Y87.876 E77.2211 F300
G1 X94.083 Y87.312 E77.3005 F300
G1 X95.212 Y86.844 E77.3799 F300
G1 X96.377 Y86.477 E77.4593 F300
G1 X97.569 Y86.213 E77.5387 F300
G1 X98.780 Y86.053 E77.6181 F300
G1 X100.000 Y86.000 E77.6975 F300
G1 X101.220 Y86.053 E77.7769 F300
G1 X102.431 Y86.213 E77.8562 F300
G1 X103.623 Y86.477 E77.9356 F300
G1 X104.788 Y86.844 E78.0150 F300
G1 X105.917 Y87.312 E78.0944 F300
G1 X107.000 Y87.876 E78.1738 F300
G1 X108.030 Y88.532 E78.2532 F300
G1 X108.999 Y89.275 E78.3326 F300
G1 X109.899 Y90.101 E78.4120 F300
G1 X110.725 Y91.001 E78.4913 F300
G1 X111.468 Y91.970 E78.5707 F300
G1 X112.124 Y93.000 E78.6501 F300
G1 X112.688 Y94.083 E78.7295 F300
G1 X113.156 Y95.212 E78.8089 F300
G1 X113.523 Y96.377 E78.8883 F300
G1 X113.787 Y97.569 E78.9677 F300
G1 X113.947 Y98.780 E79.0471 F300
G1 X114.000 Y100.000 E79.1264 F300
G1 X113.947 Y101.220 E79.2058 F300
G1 E77.7058 F1200   ; Retract
G1 Z8.00 F600   ; Z-hop
G1 X109.962 Y100.872 F1200   ; Travel to fill ring 4
G1 Z7.00 F300   ; Lower to layer height
G1 E79.2058 F1200   ; Prime
G1 X110.000 Y100.000 E79.2625 F300
G1 X109.962 Y99.128 E79.3192 F300
G1 X109.848 Y98.264 E79.3759 F300
G1 X109.659 Y97.412 E79.4326 F300
G1 X109.397 Y96.580 E79.4894 F300
G1 X109.063 Y95.774 E79.5461 F300
G1 X108.660 Y95.000 E79.6028 F300
G1 X108.192 Y94.264 E79.6595 F300
G1 X107.660 Y93.572 E79.7162 F300
G1 X107.071 Y92.929 E79.7729 F300
G1 X106.428 Y92.340 E79.8296 F300
G1 X105.736 Y91.808 E79.8863 F300
G1 X105.000 Y91.340 E79.9430 F300
G1 X104.226 Y90.937 E79.9997 F300
G1 X103.420 Y90.603 E80.0564 F300
G1 X102.588 Y90.341 E80.1131 F300
G1 X101.736 Y90.152 E80.1698 F300
G1 X100.872 Y90.038 E80.2265 F300
G1 X100.000 Y90.000 E80.2832 F300
G1 X99.128 Y90.038 E80.3399 F300
G1 X98.264 Y90.152 E80.3966 F300
G1 X97.412 Y90.341 E80.4533 F300
G1 X96.580 Y90.603 E80.5100 F300
G1 X95.774 Y90.937 E80.5668 F300
G1 X95.000 Y91.340 E80.6235 F300
G1 X94.264 Y91.808 E80.6802 F300
G1 X93.572 Y92.340 E80.7369 F300
G1 X92.929 Y92.929 E80.7936 F300
G1 X92.340 Y93.572 E80.8503 F300
G1 X91.808 Y94.264 E80.9070 F300
G1 X91.340 Y95.000 E80.9637 F300
G1 X90.937 Y95.774 E81.0204 F300
G1 X90.603 Y96.580 E81.0771 F300
G1 X90.341 Y97.412 E81.1338 F300
G1 X90.152 Y98.264 E81.1905 F300
G1 X90.038 Y99.128 E81.2472 F300
G1 X90.000 Y100.000 E81.3039 F300
G1 X90.038 Y100.872 E81.3606 F300
G1 X90.152 Y101.736 E81.4173 F300
G1 X90.341 Y102.588 E81.4740 F300
G1 X90.603 Y103.420 E81.5307 F300
G1 X90.937 Y104.226 E81.5874 F300
G1 X91.340 Y105.000 E81.6442 F300
G1 X91.808 Y105.736 E81.7009 F300
G1 X92.340 Y106.428 E81.7576 F300
G1 X92.929 Y107.071 E81.8143 F300
G1 X93.572 Y107.660 E81.8710 F300
G1 X94.264 Y108.192 E81.9277 F300
G1 X95.000 Y108.660 E81.9844 F300
G1 X95.774 Y109.063 E82.0411 F300
G1 X96.580 Y109.397 E82.0978 F300
G1 X97.412 Y109.659 E82.1545 F300
G1 X98.264 Y109.848 E82.2112 F300
G1 X99.128 Y109.962 E82.2679 F300
G1 X100.000 Y110.000 E82.3246 F300
G1 X100.872 Y109.962 E82.3813 F300
G1 X101.736 Y109.848 E82.4380 F300
G1 X102.588 Y109.659 E82.4947 F300
G1 X103.420 Y109.397 E82.5514 F300
G1 X104.226 Y109.063 E82.6081 F300
G1 X105.000 Y108.660 E82.6648 F300
G1 X105.736 Y108.192 E82.7216 F300
G1 X106.428 Y107.660 E82.7783 F300
G1 X107.071 Y107.071 E82.8350 F300
G1 X107.660 Y106.428 E82.8917 F300
G1 X108.192 Y105.736 E82.9484 F300
G1 X108.660 Y105.000 E83.0051 F300
G1 X109.063 Y104.226 E83.0618 F300
G1 X109.397 Y103.420 E83.1185 F300
G1 X109.659 Y102.588 E83.1752 F300
G1 X109.848 Y101.736 E83.2319 F300
G1 X109.962 Y100.872 E83.2886 F300
G1 E81.7886 F1200   ; Retract
G1 Z8.00 F600   ; Z-hop
G1 X105.977 Y100.523 F1200   ; Travel to fill ring 5
G1 Z7.00 F300   ; Lower to layer height
G1 E83.2886 F1200   ; Prime
G1 X105.909 Y101.042 E83.3226 F300
G1 X105.796 Y101.553 E83.3566 F300
G1 X105.638 Y102.052 E83.3907 F300
G1 X105.438 Y102.536 E83.4247 F300
G1 X105.196 Y103.000 E83.4587 F300
G1 X104.915 Y103.441 E83.4927 F300
G1 X104.596 Y103.857 E83.5268 F300
G1 X104.243 Y104.243 E83.5608 F300
G1 X103.857 Y104.596 E83.5948 F300
G1 X103.441 Y104.915 E83.6288 F300
G1 X103.000 Y105.196 E83.6629 F300
G1 X102.536 Y105.438 E83.6969 F300
G1 X102.052 Y105.638 E83.7309 F300
G1 X101.553 Y105.796 E83.7649 F300
G1 X101.042 Y105.909 E83.7989 F300
G1 X100.523 Y105.977 E83.8330 F300
G1 X100.000 Y106.000 E83.8670 F300
G1 X99.477 Y105.977 E83.9010 F300
G1 X98.958 Y105.909 E83.9350 F300
G1 X98.447 Y105.796 E83.9691 F300
G1 X97.948 Y105.638 E84.0031 F300
G1 X97.464 Y105.438 E84.0371 F300
G1 X97.000 Y105.196 E84.0711 F300
G1 X96.559 Y104.915 E84.1052 F300
G1 X96.143 Y104.596 E84.1392 F300
G1 X95.757 Y104.243 E84.1732 F300
G1 X95.404 Y103.857 E84.2072 F300
G1 X95.085 Y103.441 E84.2413 F300
G1 X94.804 Y103.000 E84.2753 F300
G1 X94.562 Y102.536 E84.3093 F300
G1 X94.362 Y102.052 E84.3433 F300
G1 X94.204 Y101.553 E84.3773 F300
G1 X94.091 Y101.042 E84.4114 F300
G1 X94.023 Y100.523 E84.4454 F300
G1 X94.000 Y100.000 E84.4794 F300
G1 X94.023 Y99.477 E84.5134 F300
G1 X94.091 Y98.958 E84.5475 F300
G1 X94.204 Y98.447 E84.5815 F300
G1 X94.362 Y97.948 E84.6155 F300
G1 X94.562 Y97.464 E84.6495 F300
G1 X94.804 Y97.000 E84.6836 F300
G1 X95.085 Y96.559 E84.7176 F300
G1 X95.404 Y96.143 E84.7516 F300
G1 X95.757 Y95.757 E84.7856 F300
G1 X96.143 Y95.404 E84.8196 F300
G1 X96.559 Y95.085 E84.8537 F300
G1 X97.000 Y94.804 E84.8877 F300
G1 X97.464 Y94.562 E84.9217 F300
G1 X97.948 Y94.362 E84.9557 F300
G1 X98.447 Y94.204 E84.9898 F300
G1 X98.958 Y94.091 E85.0238 F300
G1 X99.477 Y94.023 E85.0578 F300
G1 X100.000 Y94.000 E85.0918 F300
G1 X100.523 Y94.023 E85.1259 F300
G1 X101.042 Y94.091 E85.1599 F300
G1 X101.553 Y94.204 E85.1939 F300
G1 X102.052 Y94.362 E85.2279 F300
G1 X102.536 Y94.562 E85.2619 F300
G1 X103.000 Y94.804 E85.2960 F300
G1 X103.441 Y95.085 E85.3300 F300
G1 X103.857 Y95.404 E85.3640 F300
G1 X104.243 Y95.757 E85.3980 F300
G1 X104.596 Y96.143 E85.4321 F300
G1 X104.915 Y96.559 E85.4661 F300
G1 X105.196 Y97.000 E85.5001 F300
G1 X105.438 Y97.464 E85.5341 F300
G1 X105.638 Y97.948 E85.5682 F300
G1 X105.796 Y98.447 E85.6022 F300
G1 X105.909 Y98.958 E85.6362 F300
G1 X105.977 Y99.477 E85.6702 F300
G1 X106.000 Y100.000 E85.7042 F300
G1 X105.977 Y100.523 E85.7383 F300
G1 E84.2383 F1200   ; Retract

; === FINISH ===
G1 Z27.0 F600      ; Raise nozzle clear
G1 X0 Y0 F1200   ; Move to home
M84              ; Disable motors

; === END ===
