; Diane Fort — Outline G-code
; Food Printing assignment
;
; Layers: 3
; Layer height: 2.0mm
; First layer Z: 6.0mm
; Center: (100, 100)
; Fort radius: 28.0mm
; Battlements: 18
; Notch depth: 3.0mm

; === INITIALIZATION ===
G21              ; Set units to millimeters
G90              ; Absolute positioning
M82              ; Absolute extrusion mode
G28              ; Home all axes


; === LAYER 1/3 (Z=6.0mm, fort wall rotation=0.0°) ===
G1 Z7.00 F600   ; Z-hop
G1 X128.000 Y100.000 F1200   ; Travel to fort outline
G1 Z6.00 F300   ; Lower to layer height
G1 X124.620 Y104.341 E0.3576 F300
G1 X126.311 Y109.577 E0.7152 F300
G1 X121.651 Y112.500 E1.0728 F300
G1 X121.449 Y117.998 E1.4305 F300
G1 X116.070 Y119.151 E1.7881 F300
G1 X114.000 Y124.249 E2.1457 F300
G1 X108.551 Y123.492 E2.5033 F300
G1 X104.862 Y127.575 E2.8609 F300
G1 X100.000 Y125.000 E3.2185 F300
G1 X95.138 Y127.575 E3.5761 F300
G1 X91.449 Y123.492 E3.9337 F300
G1 X86.000 Y124.249 E4.2914 F300
G1 X83.930 Y119.151 E4.6490 F300
G1 X78.551 Y117.998 E5.0066 F300
G1 X78.349 Y112.500 E5.3642 F300
G1 X73.689 Y109.577 E5.7218 F300
G1 X75.380 Y104.341 E6.0794 F300
G1 X72.000 Y100.000 E6.4370 F300
G1 X75.380 Y95.659 E6.7946 F300
G1 X73.689 Y90.423 E7.1523 F300
G1 X78.349 Y87.500 E7.5099 F300
G1 X78.551 Y82.002 E7.8675 F300
G1 X83.930 Y80.849 E8.2251 F300
G1 X86.000 Y75.751 E8.5827 F300
G1 X91.449 Y76.508 E8.9403 F300
G1 X95.138 Y72.425 E9.2979 F300
G1 X100.000 Y75.000 E9.6556 F300
G1 X104.862 Y72.425 E10.0132 F300
G1 X108.551 Y76.508 E10.3708 F300
G1 X114.000 Y75.751 E10.7284 F300
G1 X116.070 Y80.849 E11.0860 F300
G1 X121.449 Y82.002 E11.4436 F300
G1 X121.651 Y87.500 E11.8012 F300
G1 X126.311 Y90.423 E12.1588 F300
G1 X124.620 Y95.659 E12.5165 F300
G1 X128.000 Y100.000 E12.8741 F300
G1 E11.3741 F1200   ; Retract

; === LAYER 2/3 (Z=8.0mm, fort wall rotation=10.0°) ===
G1 Z9.00 F600   ; Z-hop
G1 X127.575 Y104.862 F1200   ; Travel to fort outline
G1 Z8.00 F300   ; Lower to layer height
G1 E12.8741 F1200   ; Prime
G1 X123.492 Y108.551 E13.2317 F300
G1 X124.249 Y114.000 E13.5893 F300
G1 X119.151 Y116.070 E13.9469 F300
G1 X117.998 Y121.449 E14.3045 F300
G1 X112.500 Y121.651 E14.6621 F300
G1 X109.577 Y126.311 E15.0198 F300
G1 X104.341 Y124.620 E15.3774 F300
G1 X100.000 Y128.000 E15.7350 F300
G1 X95.659 Y124.620 E16.0926 F300
G1 X90.423 Y126.311 E16.4502 F300
G1 X87.500 Y121.651 E16.8078 F300
G1 X82.002 Y121.449 E17.1654 F300
G1 X80.849 Y116.070 E17.5230 F300
G1 X75.751 Y114.000 E17.8807 F300
G1 X76.508 Y108.551 E18.2383 F300
G1 X72.425 Y104.862 E18.5959 F300
G1 X75.000 Y100.000 E18.9535 F300
G1 X72.425 Y95.138 E19.3111 F300
G1 X76.508 Y91.449 E19.6687 F300
G1 X75.751 Y86.000 E20.0263 F300
G1 X80.849 Y83.930 E20.3839 F300
G1 X82.002 Y78.551 E20.7416 F300
G1 X87.500 Y78.349 E21.0992 F300
G1 X90.423 Y73.689 E21.4568 F300
G1 X95.659 Y75.380 E21.8144 F300
G1 X100.000 Y72.000 E22.1720 F300
G1 X104.341 Y75.380 E22.5296 F300
G1 X109.577 Y73.689 E22.8872 F300
G1 X112.500 Y78.349 E23.2449 F300
G1 X117.998 Y78.551 E23.6025 F300
G1 X119.151 Y83.930 E23.9601 F300
G1 X124.249 Y86.000 E24.3177 F300
G1 X123.492 Y91.449 E24.6753 F300
G1 X127.575 Y95.138 E25.0329 F300
G1 X125.000 Y100.000 E25.3905 F300
G1 X127.575 Y104.862 E25.7481 F300
G1 E24.2481 F1200   ; Retract

; === LAYER 3/3 (Z=10.0mm, fort wall rotation=20.0°) ===
G1 Z11.00 F600   ; Z-hop
G1 X126.311 Y109.577 F1200   ; Travel to fort outline
G1 Z10.00 F300   ; Lower to layer height
G1 E25.7481 F1200   ; Prime
G1 X121.651 Y112.500 E26.1058 F300
G1 X121.449 Y117.998 E26.4634 F300
G1 X116.070 Y119.151 E26.8210 F300
G1 X114.000 Y124.249 E27.1786 F300
G1 X108.551 Y123.492 E27.5362 F300
G1 X104.862 Y127.575 E27.8938 F300
G1 X100.000 Y125.000 E28.2514 F300
G1 X95.138 Y127.575 E28.6090 F300
G1 X91.449 Y123.492 E28.9667 F300
G1 X86.000 Y124.249 E29.3243 F300
G1 X83.930 Y119.151 E29.6819 F300
G1 X78.551 Y117.998 E30.0395 F300
G1 X78.349 Y112.500 E30.3971 F300
G1 X73.689 Y109.577 E30.7547 F300
G1 X75.380 Y104.341 E31.1123 F300
G1 X72.000 Y100.000 E31.4700 F300
G1 X75.380 Y95.659 E31.8276 F300
G1 X73.689 Y90.423 E32.1852 F300
G1 X78.349 Y87.500 E32.5428 F300
G1 X78.551 Y82.002 E32.9004 F300
G1 X83.930 Y80.849 E33.2580 F300
G1 X86.000 Y75.751 E33.6156 F300
G1 X91.449 Y76.508 E33.9732 F300
G1 X95.138 Y72.425 E34.3309 F300
G1 X100.000 Y75.000 E34.6885 F300
G1 X104.862 Y72.425 E35.0461 F300
G1 X108.551 Y76.508 E35.4037 F300
G1 X114.000 Y75.751 E35.7613 F300
G1 X116.070 Y80.849 E36.1189 F300
G1 X121.449 Y82.002 E36.4765 F300
G1 X121.651 Y87.500 E36.8342 F300
G1 X126.311 Y90.423 E37.1918 F300
G1 X124.620 Y95.659 E37.5494 F300
G1 X128.000 Y100.000 E37.9070 F300
G1 X124.620 Y104.341 E38.2646 F300
G1 X126.311 Y109.577 E38.6222 F300
G1 E37.1222 F1200   ; Retract

; === FINISH ===
G1 Z30.0 F600      ; Raise nozzle clear
G1 X0 Y0 F1200   ; Move to home
M84              ; Disable motors

; === END ===
