; Diane Fort — Cup Outline G-code
; Food Printing assignment
;
; CUP STRUCTURE:
;   Outline: solid base (layer 1) + circular wall (layers 2+)
;   Fill   : concentric rings inside cup (second material)
;
; Wall layers: 6
; Layer height: 2.0 mm
; Base Z: 5.50 mm
; Wall top Z: 17.50 mm
; Radius: 26.0 mm  (diameter 52.0 mm)
; Center: (100, 100)
; Print speed: 800 mm/min
; Extrusion mult: 0.025
; Layer 1=base fill  |  Layers 2+= wall circle

; === INITIALIZATION ===
G21              ; Set units to millimeters
G90              ; Absolute positioning
M82              ; Absolute extrusion mode
G28              ; Home all axes

; === LAYER 1 — SOLID BASE  (Z=5.50 mm) ===
G1 Z6.50 F600   ; Z-hop
G1 X104.000 Y100.000 F1200   ; Travel → base ring 1 (r=4.0mm)
G1 Z5.50 F300   ; Lower to Z
G1 X103.985 Y100.349 E0.0087 F800
G1 X103.939 Y100.695 E0.0174 F800
G1 X103.864 Y101.035 E0.0262 F800
G1 X103.759 Y101.368 E0.0349 F800
G1 X103.625 Y101.690 E0.0436 F800
G1 X103.464 Y102.000 E0.0523 F800
G1 X103.277 Y102.294 E0.0611 F800
G1 X103.064 Y102.571 E0.0698 F800
G1 X102.828 Y102.828 E0.0785 F800
G1 X102.571 Y103.064 E0.0872 F800
G1 X102.294 Y103.277 E0.0960 F800
G1 X102.000 Y103.464 E0.1047 F800
G1 X101.690 Y103.625 E0.1134 F800
G1 X101.368 Y103.759 E0.1221 F800
G1 X101.035 Y103.864 E0.1309 F800
G1 X100.695 Y103.939 E0.1396 F800
G1 X100.349 Y103.985 E0.1483 F800
G1 X100.000 Y104.000 E0.1570 F800
G1 X99.651 Y103.985 E0.1658 F800
G1 X99.305 Y103.939 E0.1745 F800
G1 X98.965 Y103.864 E0.1832 F800
G1 X98.632 Y103.759 E0.1919 F800
G1 X98.310 Y103.625 E0.2006 F800
G1 X98.000 Y103.464 E0.2094 F800
G1 X97.706 Y103.277 E0.2181 F800
G1 X97.429 Y103.064 E0.2268 F800
G1 X97.172 Y102.828 E0.2355 F800
G1 X96.936 Y102.571 E0.2443 F800
G1 X96.723 Y102.294 E0.2530 F800
G1 X96.536 Y102.000 E0.2617 F800
G1 X96.375 Y101.690 E0.2704 F800
G1 X96.241 Y101.368 E0.2792 F800
G1 X96.136 Y101.035 E0.2879 F800
G1 X96.061 Y100.695 E0.2966 F800
G1 X96.015 Y100.349 E0.3053 F800
G1 X96.000 Y100.000 E0.3141 F800
G1 X96.015 Y99.651 E0.3228 F800
G1 X96.061 Y99.305 E0.3315 F800
G1 X96.136 Y98.965 E0.3402 F800
G1 X96.241 Y98.632 E0.3490 F800
G1 X96.375 Y98.310 E0.3577 F800
G1 X96.536 Y98.000 E0.3664 F800
G1 X96.723 Y97.706 E0.3751 F800
G1 X96.936 Y97.429 E0.3839 F800
G1 X97.172 Y97.172 E0.3926 F800
G1 X97.429 Y96.936 E0.4013 F800
G1 X97.706 Y96.723 E0.4100 F800
G1 X98.000 Y96.536 E0.4187 F800
G1 X98.310 Y96.375 E0.4275 F800
G1 X98.632 Y96.241 E0.4362 F800
G1 X98.965 Y96.136 E0.4449 F800
G1 X99.305 Y96.061 E0.4536 F800
G1 X99.651 Y96.015 E0.4624 F800
G1 X100.000 Y96.000 E0.4711 F800
G1 X100.349 Y96.015 E0.4798 F800
G1 X100.695 Y96.061 E0.4885 F800
G1 X101.035 Y96.136 E0.4973 F800
G1 X101.368 Y96.241 E0.5060 F800
G1 X101.690 Y96.375 E0.5147 F800
G1 X102.000 Y96.536 E0.5234 F800
G1 X102.294 Y96.723 E0.5322 F800
G1 X102.571 Y96.936 E0.5409 F800
G1 X102.828 Y97.172 E0.5496 F800
G1 X103.064 Y97.429 E0.5583 F800
G1 X103.277 Y97.706 E0.5671 F800
G1 X103.464 Y98.000 E0.5758 F800
G1 X103.625 Y98.310 E0.5845 F800
G1 X103.759 Y98.632 E0.5932 F800
G1 X103.864 Y98.965 E0.6019 F800
G1 X103.939 Y99.305 E0.6107 F800
G1 X103.985 Y99.651 E0.6194 F800
G1 X104.000 Y100.000 E0.6281 F800
G1 E-0.8719 F1200   ; Retract
G1 Z6.50 F600   ; Z-hop
G1 X108.000 Y100.000 F1200   ; Travel → base ring 2 (r=8.0mm)
G1 Z5.50 F300   ; Lower to Z
G1 E0.6281 F1200   ; Prime
G1 X107.970 Y99.303 E0.6456 F800
G1 X107.878 Y98.611 E0.6630 F800
G1 X107.727 Y97.929 E0.6805 F800
G1 X107.518 Y97.264 E0.6979 F800
G1 X107.250 Y96.619 E0.7154 F800
G1 X106.928 Y96.000 E0.7328 F800
G1 X106.553 Y95.411 E0.7503 F800
G1 X106.128 Y94.858 E0.7677 F800
G1 X105.657 Y94.343 E0.7851 F800
G1 X105.142 Y93.872 E0.8026 F800
G1 X104.589 Y93.447 E0.8200 F800
G1 X104.000 Y93.072 E0.8375 F800
G1 X103.381 Y92.750 E0.8549 F800
G1 X102.736 Y92.482 E0.8724 F800
G1 X102.071 Y92.273 E0.8898 F800
G1 X101.389 Y92.122 E0.9073 F800
G1 X100.697 Y92.030 E0.9247 F800
G1 X100.000 Y92.000 E0.9422 F800
G1 X99.303 Y92.030 E0.9596 F800
G1 X98.611 Y92.122 E0.9771 F800
G1 X97.929 Y92.273 E0.9945 F800
G1 X97.264 Y92.482 E1.0120 F800
G1 X96.619 Y92.750 E1.0294 F800
G1 X96.000 Y93.072 E1.0469 F800
G1 X95.411 Y93.447 E1.0643 F800
G1 X94.858 Y93.872 E1.0818 F800
G1 X94.343 Y94.343 E1.0992 F800
G1 X93.872 Y94.858 E1.1167 F800
G1 X93.447 Y95.411 E1.1341 F800
G1 X93.072 Y96.000 E1.1516 F800
G1 X92.750 Y96.619 E1.1690 F800
G1 X92.482 Y97.264 E1.1864 F800
G1 X92.273 Y97.929 E1.2039 F800
G1 X92.122 Y98.611 E1.2213 F800
G1 X92.030 Y99.303 E1.2388 F800
G1 X92.000 Y100.000 E1.2562 F800
G1 X92.030 Y100.697 E1.2737 F800
G1 X92.122 Y101.389 E1.2911 F800
G1 X92.273 Y102.071 E1.3086 F800
G1 X92.482 Y102.736 E1.3260 F800
G1 X92.750 Y103.381 E1.3435 F800
G1 X93.072 Y104.000 E1.3609 F800
G1 X93.447 Y104.589 E1.3784 F800
G1 X93.872 Y105.142 E1.3958 F800
G1 X94.343 Y105.657 E1.4133 F800
G1 X94.858 Y106.128 E1.4307 F800
G1 X95.411 Y106.553 E1.4482 F800
G1 X96.000 Y106.928 E1.4656 F800
G1 X96.619 Y107.250 E1.4831 F800
G1 X97.264 Y107.518 E1.5005 F800
G1 X97.929 Y107.727 E1.5180 F800
G1 X98.611 Y107.878 E1.5354 F800
G1 X99.303 Y107.970 E1.5529 F800
G1 X100.000 Y108.000 E1.5703 F800
G1 X100.697 Y107.970 E1.5877 F800
G1 X101.389 Y107.878 E1.6052 F800
G1 X102.071 Y107.727 E1.6226 F800
G1 X102.736 Y107.518 E1.6401 F800
G1 X103.381 Y107.250 E1.6575 F800
G1 X104.000 Y106.928 E1.6750 F800
G1 X104.589 Y106.553 E1.6924 F800
G1 X105.142 Y106.128 E1.7099 F800
G1 X105.657 Y105.657 E1.7273 F800
G1 X106.128 Y105.142 E1.7448 F800
G1 X106.553 Y104.589 E1.7622 F800
G1 X106.928 Y104.000 E1.7797 F800
G1 X107.250 Y103.381 E1.7971 F800
G1 X107.518 Y102.736 E1.8146 F800
G1 X107.727 Y102.071 E1.8320 F800
G1 X107.878 Y101.389 E1.8495 F800
G1 X107.970 Y100.697 E1.8669 F800
G1 X108.000 Y100.000 E1.8844 F800
G1 E0.3844 F1200   ; Retract
G1 Z6.50 F600   ; Z-hop
G1 X112.000 Y100.000 F1200   ; Travel → base ring 3 (r=12.0mm)
G1 Z5.50 F300   ; Lower to Z
G1 E1.8844 F1200   ; Prime
G1 X111.954 Y101.046 E1.9105 F800
G1 X111.818 Y102.084 E1.9367 F800
G1 X111.591 Y103.106 E1.9629 F800
G1 X111.276 Y104.104 E1.9890 F800
G1 X110.876 Y105.071 E2.0152 F800
G1 X110.392 Y106.000 E2.0414 F800
G1 X109.830 Y106.883 E2.0676 F800
G1 X109.193 Y107.713 E2.0937 F800
G1 X108.485 Y108.485 E2.1199 F800
G1 X107.713 Y109.193 E2.1461 F800
G1 X106.883 Y109.830 E2.1722 F800
G1 X106.000 Y110.392 E2.1984 F800
G1 X105.071 Y110.876 E2.2246 F800
G1 X104.104 Y111.276 E2.2508 F800
G1 X103.106 Y111.591 E2.2769 F800
G1 X102.084 Y111.818 E2.3031 F800
G1 X101.046 Y111.954 E2.3293 F800
G1 X100.000 Y112.000 E2.3554 F800
G1 X98.954 Y111.954 E2.3816 F800
G1 X97.916 Y111.818 E2.4078 F800
G1 X96.894 Y111.591 E2.4340 F800
G1 X95.896 Y111.276 E2.4601 F800
G1 X94.929 Y110.876 E2.4863 F800
G1 X94.000 Y110.392 E2.5125 F800
G1 X93.117 Y109.830 E2.5386 F800
G1 X92.287 Y109.193 E2.5648 F800
G1 X91.515 Y108.485 E2.5910 F800
G1 X90.807 Y107.713 E2.6172 F800
G1 X90.170 Y106.883 E2.6433 F800
G1 X89.608 Y106.000 E2.6695 F800
G1 X89.124 Y105.071 E2.6957 F800
G1 X88.724 Y104.104 E2.7218 F800
G1 X88.409 Y103.106 E2.7480 F800
G1 X88.182 Y102.084 E2.7742 F800
G1 X88.046 Y101.046 E2.8004 F800
G1 X88.000 Y100.000 E2.8265 F800
G1 X88.046 Y98.954 E2.8527 F800
G1 X88.182 Y97.916 E2.8789 F800
G1 X88.409 Y96.894 E2.9051 F800
G1 X88.724 Y95.896 E2.9312 F800
G1 X89.124 Y94.929 E2.9574 F800
G1 X89.608 Y94.000 E2.9836 F800
G1 X90.170 Y93.117 E3.0097 F800
G1 X90.807 Y92.287 E3.0359 F800
G1 X91.515 Y91.515 E3.0621 F800
G1 X92.287 Y90.807 E3.0883 F800
G1 X93.117 Y90.170 E3.1144 F800
G1 X94.000 Y89.608 E3.1406 F800
G1 X94.929 Y89.124 E3.1668 F800
G1 X95.896 Y88.724 E3.1929 F800
G1 X96.894 Y88.409 E3.2191 F800
G1 X97.916 Y88.182 E3.2453 F800
G1 X98.954 Y88.046 E3.2715 F800
G1 X100.000 Y88.000 E3.2976 F800
G1 X101.046 Y88.046 E3.3238 F800
G1 X102.084 Y88.182 E3.3500 F800
G1 X103.106 Y88.409 E3.3761 F800
G1 X104.104 Y88.724 E3.4023 F800
G1 X105.071 Y89.124 E3.4285 F800
G1 X106.000 Y89.608 E3.4547 F800
G1 X106.883 Y90.170 E3.4808 F800
G1 X107.713 Y90.807 E3.5070 F800
G1 X108.485 Y91.515 E3.5332 F800
G1 X109.193 Y92.287 E3.5593 F800
G1 X109.830 Y93.117 E3.5855 F800
G1 X110.392 Y94.000 E3.6117 F800
G1 X110.876 Y94.929 E3.6379 F800
G1 X111.276 Y95.896 E3.6640 F800
G1 X111.591 Y96.894 E3.6902 F800
G1 X111.818 Y97.916 E3.7164 F800
G1 X111.954 Y98.954 E3.7425 F800
G1 X112.000 Y100.000 E3.7687 F800
G1 E2.2687 F1200   ; Retract
G1 Z6.50 F600   ; Z-hop
G1 X116.000 Y100.000 F1200   ; Travel → base ring 4 (r=16.0mm)
G1 Z5.50 F300   ; Lower to Z
G1 E3.7687 F1200   ; Prime
G1 X115.939 Y98.606 E3.8036 F800
G1 X115.757 Y97.222 E3.8385 F800
G1 X115.455 Y95.859 E3.8734 F800
G1 X115.035 Y94.528 E3.9083 F800
G1 X114.501 Y93.238 E3.9432 F800
G1 X113.856 Y92.000 E3.9781 F800
G1 X113.106 Y90.823 E4.0130 F800
G1 X112.257 Y89.715 E4.0479 F800
G1 X111.314 Y88.686 E4.0828 F800
G1 X110.285 Y87.743 E4.1177 F800
G1 X109.177 Y86.894 E4.1526 F800
G1 X108.000 Y86.144 E4.1875 F800
G1 X106.762 Y85.499 E4.2224 F800
G1 X105.472 Y84.965 E4.2573 F800
G1 X104.141 Y84.545 E4.2921 F800
G1 X102.778 Y84.243 E4.3270 F800
G1 X101.394 Y84.061 E4.3619 F800
G1 X100.000 Y84.000 E4.3968 F800
G1 X98.606 Y84.061 E4.4317 F800
G1 X97.222 Y84.243 E4.4666 F800
G1 X95.859 Y84.545 E4.5015 F800
G1 X94.528 Y84.965 E4.5364 F800
G1 X93.238 Y85.499 E4.5713 F800
G1 X92.000 Y86.144 E4.6062 F800
G1 X90.823 Y86.894 E4.6411 F800
G1 X89.715 Y87.743 E4.6760 F800
G1 X88.686 Y88.686 E4.7109 F800
G1 X87.743 Y89.715 E4.7458 F800
G1 X86.894 Y90.823 E4.7807 F800
G1 X86.144 Y92.000 E4.8156 F800
G1 X85.499 Y93.238 E4.8505 F800
G1 X84.965 Y94.528 E4.8854 F800
G1 X84.545 Y95.859 E4.9203 F800
G1 X84.243 Y97.222 E4.9552 F800
G1 X84.061 Y98.606 E4.9901 F800
G1 X84.000 Y100.000 E5.0250 F800
G1 X84.061 Y101.394 E5.0598 F800
G1 X84.243 Y102.778 E5.0947 F800
G1 X84.545 Y104.141 E5.1296 F800
G1 X84.965 Y105.472 E5.1645 F800
G1 X85.499 Y106.762 E5.1994 F800
G1 X86.144 Y108.000 E5.2343 F800
G1 X86.894 Y109.177 E5.2692 F800
G1 X87.743 Y110.285 E5.3041 F800
G1 X88.686 Y111.314 E5.3390 F800
G1 X89.715 Y112.257 E5.3739 F800
G1 X90.823 Y113.106 E5.4088 F800
G1 X92.000 Y113.856 E5.4437 F800
G1 X93.238 Y114.501 E5.4786 F800
G1 X94.528 Y115.035 E5.5135 F800
G1 X95.859 Y115.455 E5.5484 F800
G1 X97.222 Y115.757 E5.5833 F800
G1 X98.606 Y115.939 E5.6182 F800
G1 X100.000 Y116.000 E5.6531 F800
G1 X101.394 Y115.939 E5.6880 F800
G1 X102.778 Y115.757 E5.7229 F800
G1 X104.141 Y115.455 E5.7578 F800
G1 X105.472 Y115.035 E5.7927 F800
G1 X106.762 Y114.501 E5.8276 F800
G1 X108.000 Y113.856 E5.8624 F800
G1 X109.177 Y113.106 E5.8973 F800
G1 X110.285 Y112.257 E5.9322 F800
G1 X111.314 Y111.314 E5.9671 F800
G1 X112.257 Y110.285 E6.0020 F800
G1 X113.106 Y109.177 E6.0369 F800
G1 X113.856 Y108.000 E6.0718 F800
G1 X114.501 Y106.762 E6.1067 F800
G1 X115.035 Y105.472 E6.1416 F800
G1 X115.455 Y104.141 E6.1765 F800
G1 X115.757 Y102.778 E6.2114 F800
G1 X115.939 Y101.394 E6.2463 F800
G1 X116.000 Y100.000 E6.2812 F800
G1 E4.7812 F1200   ; Retract
G1 Z6.50 F600   ; Z-hop
G1 X120.000 Y100.000 F1200   ; Travel → base ring 5 (r=20.0mm)
G1 Z5.50 F300   ; Lower to Z
G1 E6.2812 F1200   ; Prime
G1 X119.924 Y101.743 E6.3248 F800
G1 X119.696 Y103.473 E6.3684 F800
G1 X119.319 Y105.176 E6.4120 F800
G1 X118.794 Y106.840 E6.4557 F800
G1 X118.126 Y108.452 E6.4993 F800
G1 X117.321 Y110.000 E6.5429 F800
G1 X116.383 Y111.472 E6.5865 F800
G1 X115.321 Y112.856 E6.6301 F800
G1 X114.142 Y114.142 E6.6738 F800
G1 X112.856 Y115.321 E6.7174 F800
G1 X111.472 Y116.383 E6.7610 F800
G1 X110.000 Y117.321 E6.8046 F800
G1 X108.452 Y118.126 E6.8482 F800
G1 X106.840 Y118.794 E6.8919 F800
G1 X105.176 Y119.319 E6.9355 F800
G1 X103.473 Y119.696 E6.9791 F800
G1 X101.743 Y119.924 E7.0227 F800
G1 X100.000 Y120.000 E7.0663 F800
G1 X98.257 Y119.924 E7.1100 F800
G1 X96.527 Y119.696 E7.1536 F800
G1 X94.824 Y119.319 E7.1972 F800
G1 X93.160 Y118.794 E7.2408 F800
G1 X91.548 Y118.126 E7.2844 F800
G1 X90.000 Y117.321 E7.3281 F800
G1 X88.528 Y116.383 E7.3717 F800
G1 X87.144 Y115.321 E7.4153 F800
G1 X85.858 Y114.142 E7.4589 F800
G1 X84.679 Y112.856 E7.5025 F800
G1 X83.617 Y111.472 E7.5462 F800
G1 X82.679 Y110.000 E7.5898 F800
G1 X81.874 Y108.452 E7.6334 F800
G1 X81.206 Y106.840 E7.6770 F800
G1 X80.681 Y105.176 E7.7206 F800
G1 X80.304 Y103.473 E7.7643 F800
G1 X80.076 Y101.743 E7.8079 F800
G1 X80.000 Y100.000 E7.8515 F800
G1 X80.076 Y98.257 E7.8951 F800
G1 X80.304 Y96.527 E7.9387 F800
G1 X80.681 Y94.824 E7.9823 F800
G1 X81.206 Y93.160 E8.0260 F800
G1 X81.874 Y91.548 E8.0696 F800
G1 X82.679 Y90.000 E8.1132 F800
G1 X83.617 Y88.528 E8.1568 F800
G1 X84.679 Y87.144 E8.2004 F800
G1 X85.858 Y85.858 E8.2441 F800
G1 X87.144 Y84.679 E8.2877 F800
G1 X88.528 Y83.617 E8.3313 F800
G1 X90.000 Y82.679 E8.3749 F800
G1 X91.548 Y81.874 E8.4185 F800
G1 X93.160 Y81.206 E8.4622 F800
G1 X94.824 Y80.681 E8.5058 F800
G1 X96.527 Y80.304 E8.5494 F800
G1 X98.257 Y80.076 E8.5930 F800
G1 X100.000 Y80.000 E8.6366 F800
G1 X101.743 Y80.076 E8.6803 F800
G1 X103.473 Y80.304 E8.7239 F800
G1 X105.176 Y80.681 E8.7675 F800
G1 X106.840 Y81.206 E8.8111 F800
G1 X108.452 Y81.874 E8.8547 F800
G1 X110.000 Y82.679 E8.8984 F800
G1 X111.472 Y83.617 E8.9420 F800
G1 X112.856 Y84.679 E8.9856 F800
G1 X114.142 Y85.858 E9.0292 F800
G1 X115.321 Y87.144 E9.0728 F800
G1 X116.383 Y88.528 E9.1165 F800
G1 X117.321 Y90.000 E9.1601 F800
G1 X118.126 Y91.548 E9.2037 F800
G1 X118.794 Y93.160 E9.2473 F800
G1 X119.319 Y94.824 E9.2909 F800
G1 X119.696 Y96.527 E9.3345 F800
G1 X119.924 Y98.257 E9.3782 F800
G1 X120.000 Y100.000 E9.4218 F800
G1 E7.9218 F1200   ; Retract
G1 Z6.50 F600   ; Z-hop
G1 X124.000 Y100.000 F1200   ; Travel → base ring 6 (r=24.0mm)
G1 Z5.50 F300   ; Lower to Z
G1 E9.4218 F1200   ; Prime
G1 X123.909 Y97.908 E9.4741 F800
G1 X123.635 Y95.832 E9.5265 F800
G1 X123.182 Y93.788 E9.5788 F800
G1 X122.553 Y91.792 E9.6312 F800
G1 X121.751 Y89.857 E9.6835 F800
G1 X120.785 Y88.000 E9.7358 F800
G1 X119.660 Y86.234 E9.7882 F800
G1 X118.385 Y84.573 E9.8405 F800
G1 X116.971 Y83.029 E9.8929 F800
G1 X115.427 Y81.615 E9.9452 F800
G1 X113.766 Y80.340 E9.9976 F800
G1 X112.000 Y79.215 E10.0499 F800
G1 X110.143 Y78.249 E10.1023 F800
G1 X108.208 Y77.447 E10.1546 F800
G1 X106.212 Y76.818 E10.2069 F800
G1 X104.168 Y76.365 E10.2593 F800
G1 X102.092 Y76.091 E10.3116 F800
G1 X100.000 Y76.000 E10.3640 F800
G1 X97.908 Y76.091 E10.4163 F800
G1 X95.832 Y76.365 E10.4687 F800
G1 X93.788 Y76.818 E10.5210 F800
G1 X91.792 Y77.447 E10.5733 F800
G1 X89.857 Y78.249 E10.6257 F800
G1 X88.000 Y79.215 E10.6780 F800
G1 X86.234 Y80.340 E10.7304 F800
G1 X84.573 Y81.615 E10.7827 F800
G1 X83.029 Y83.029 E10.8351 F800
G1 X81.615 Y84.573 E10.8874 F800
G1 X80.340 Y86.234 E10.9397 F800
G1 X79.215 Y88.000 E10.9921 F800
G1 X78.249 Y89.857 E11.0444 F800
G1 X77.447 Y91.792 E11.0968 F800
G1 X76.818 Y93.788 E11.1491 F800
G1 X76.365 Y95.832 E11.2015 F800
G1 X76.091 Y97.908 E11.2538 F800
G1 X76.000 Y100.000 E11.3061 F800
G1 X76.091 Y102.092 E11.3585 F800
G1 X76.365 Y104.168 E11.4108 F800
G1 X76.818 Y106.212 E11.4632 F800
G1 X77.447 Y108.208 E11.5155 F800
G1 X78.249 Y110.143 E11.5679 F800
G1 X79.215 Y112.000 E11.6202 F800
G1 X80.340 Y113.766 E11.6725 F800
G1 X81.615 Y115.427 E11.7249 F800
G1 X83.029 Y116.971 E11.7772 F800
G1 X84.573 Y118.385 E11.8296 F800
G1 X86.234 Y119.660 E11.8819 F800
G1 X88.000 Y120.785 E11.9343 F800
G1 X89.857 Y121.751 E11.9866 F800
G1 X91.792 Y122.553 E12.0390 F800
G1 X93.788 Y123.182 E12.0913 F800
G1 X95.832 Y123.635 E12.1436 F800
G1 X97.908 Y123.909 E12.1960 F800
G1 X100.000 Y124.000 E12.2483 F800
G1 X102.092 Y123.909 E12.3007 F800
G1 X104.168 Y123.635 E12.3530 F800
G1 X106.212 Y123.182 E12.4054 F800
G1 X108.208 Y122.553 E12.4577 F800
G1 X110.143 Y121.751 E12.5100 F800
G1 X112.000 Y120.785 E12.5624 F800
G1 X113.766 Y119.660 E12.6147 F800
G1 X115.427 Y118.385 E12.6671 F800
G1 X116.971 Y116.971 E12.7194 F800
G1 X118.385 Y115.427 E12.7718 F800
G1 X119.660 Y113.766 E12.8241 F800
G1 X120.785 Y112.000 E12.8764 F800
G1 X121.751 Y110.143 E12.9288 F800
G1 X122.553 Y108.208 E12.9811 F800
G1 X123.182 Y106.212 E13.0335 F800
G1 X123.635 Y104.168 E13.0858 F800
G1 X123.909 Y102.092 E13.1382 F800
G1 X124.000 Y100.000 E13.1905 F800
G1 E11.6905 F1200   ; Retract
G1 Z6.50 F600   ; Z-hop
G1 X126.000 Y100.000 F1200   ; Travel → base ring 7 (r=26.0mm)
G1 Z5.50 F300   ; Lower to Z
G1 E13.1905 F1200   ; Prime
G1 X125.901 Y102.266 E13.2472 F800
G1 X125.605 Y104.515 E13.3039 F800
G1 X125.114 Y106.729 E13.3606 F800
G1 X124.432 Y108.893 E13.4173 F800
G1 X123.564 Y110.988 E13.4740 F800
G1 X122.517 Y113.000 E13.5307 F800
G1 X121.298 Y114.913 E13.5874 F800
G1 X119.917 Y116.712 E13.6441 F800
G1 X118.385 Y118.385 E13.7008 F800
G1 X116.712 Y119.917 E13.7576 F800
G1 X114.913 Y121.298 E13.8143 F800
G1 X113.000 Y122.517 E13.8710 F800
G1 X110.988 Y123.564 E13.9277 F800
G1 X108.893 Y124.432 E13.9844 F800
G1 X106.729 Y125.114 E14.0411 F800
G1 X104.515 Y125.605 E14.0978 F800
G1 X102.266 Y125.901 E14.1545 F800
G1 X100.000 Y126.000 E14.2112 F800
G1 X97.734 Y125.901 E14.2679 F800
G1 X95.485 Y125.605 E14.3246 F800
G1 X93.271 Y125.114 E14.3813 F800
G1 X91.107 Y124.432 E14.4380 F800
G1 X89.012 Y123.564 E14.4947 F800
G1 X87.000 Y122.517 E14.5514 F800
G1 X85.087 Y121.298 E14.6081 F800
G1 X83.288 Y119.917 E14.6648 F800
G1 X81.615 Y118.385 E14.7215 F800
G1 X80.083 Y116.712 E14.7782 F800
G1 X78.702 Y114.913 E14.8350 F800
G1 X77.483 Y113.000 E14.8917 F800
G1 X76.436 Y110.988 E14.9484 F800
G1 X75.568 Y108.893 E15.0051 F800
G1 X74.886 Y106.729 E15.0618 F800
G1 X74.395 Y104.515 E15.1185 F800
G1 X74.099 Y102.266 E15.1752 F800
G1 X74.000 Y100.000 E15.2319 F800
G1 X74.099 Y97.734 E15.2886 F800
G1 X74.395 Y95.485 E15.3453 F800
G1 X74.886 Y93.271 E15.4020 F800
G1 X75.568 Y91.107 E15.4587 F800
G1 X76.436 Y89.012 E15.5154 F800
G1 X77.483 Y87.000 E15.5721 F800
G1 X78.702 Y85.087 E15.6288 F800
G1 X80.083 Y83.288 E15.6855 F800
G1 X81.615 Y81.615 E15.7422 F800
G1 X83.288 Y80.083 E15.7989 F800
G1 X85.087 Y78.702 E15.8556 F800
G1 X87.000 Y77.483 E15.9124 F800
G1 X89.012 Y76.436 E15.9691 F800
G1 X91.107 Y75.568 E16.0258 F800
G1 X93.271 Y74.886 E16.0825 F800
G1 X95.485 Y74.395 E16.1392 F800
G1 X97.734 Y74.099 E16.1959 F800
G1 X100.000 Y74.000 E16.2526 F800
G1 X102.266 Y74.099 E16.3093 F800
G1 X104.515 Y74.395 E16.3660 F800
G1 X106.729 Y74.886 E16.4227 F800
G1 X108.893 Y75.568 E16.4794 F800
G1 X110.988 Y76.436 E16.5361 F800
G1 X113.000 Y77.483 E16.5928 F800
G1 X114.913 Y78.702 E16.6495 F800
G1 X116.712 Y80.083 E16.7062 F800
G1 X118.385 Y81.615 E16.7629 F800
G1 X119.917 Y83.288 E16.8196 F800
G1 X121.298 Y85.087 E16.8763 F800
G1 X122.517 Y87.000 E16.9330 F800
G1 X123.564 Y89.012 E16.9898 F800
G1 X124.432 Y91.107 E17.0465 F800
G1 X125.114 Y93.271 E17.1032 F800
G1 X125.605 Y95.485 E17.1599 F800
G1 X125.901 Y97.734 E17.2166 F800
G1 X126.000 Y100.000 E17.2733 F800
G1 E15.7733 F1200   ; Retract

; === LAYER 2 — WALL  (Z=7.50 mm) ===
G1 Z8.50 F600   ; Z-hop
G1 X126.000 Y100.000 F1200   ; Travel → wall circle
G1 Z7.50 F300   ; Lower to Z
G1 E17.2733 F1200   ; Prime
G1 X125.901 Y102.266 E17.3300 F800
G1 X125.605 Y104.515 E17.3867 F800
G1 X125.114 Y106.729 E17.4434 F800
G1 X124.432 Y108.893 E17.5001 F800
G1 X123.564 Y110.988 E17.5568 F800
G1 X122.517 Y113.000 E17.6135 F800
G1 X121.298 Y114.913 E17.6702 F800
G1 X119.917 Y116.712 E17.7269 F800
G1 X118.385 Y118.385 E17.7836 F800
G1 X116.712 Y119.917 E17.8403 F800
G1 X114.913 Y121.298 E17.8970 F800
G1 X113.000 Y122.517 E17.9537 F800
G1 X110.988 Y123.564 E18.0104 F800
G1 X108.893 Y124.432 E18.0672 F800
G1 X106.729 Y125.114 E18.1239 F800
G1 X104.515 Y125.605 E18.1806 F800
G1 X102.266 Y125.901 E18.2373 F800
G1 X100.000 Y126.000 E18.2940 F800
G1 X97.734 Y125.901 E18.3507 F800
G1 X95.485 Y125.605 E18.4074 F800
G1 X93.271 Y125.114 E18.4641 F800
G1 X91.107 Y124.432 E18.5208 F800
G1 X89.012 Y123.564 E18.5775 F800
G1 X87.000 Y122.517 E18.6342 F800
G1 X85.087 Y121.298 E18.6909 F800
G1 X83.288 Y119.917 E18.7476 F800
G1 X81.615 Y118.385 E18.8043 F800
G1 X80.083 Y116.712 E18.8610 F800
G1 X78.702 Y114.913 E18.9177 F800
G1 X77.483 Y113.000 E18.9744 F800
G1 X76.436 Y110.988 E19.0311 F800
G1 X75.568 Y108.893 E19.0878 F800
G1 X74.886 Y106.729 E19.1445 F800
G1 X74.395 Y104.515 E19.2013 F800
G1 X74.099 Y102.266 E19.2580 F800
G1 X74.000 Y100.000 E19.3147 F800
G1 X74.099 Y97.734 E19.3714 F800
G1 X74.395 Y95.485 E19.4281 F800
G1 X74.886 Y93.271 E19.4848 F800
G1 X75.568 Y91.107 E19.5415 F800
G1 X76.436 Y89.012 E19.5982 F800
G1 X77.483 Y87.000 E19.6549 F800
G1 X78.702 Y85.087 E19.7116 F800
G1 X80.083 Y83.288 E19.7683 F800
G1 X81.615 Y81.615 E19.8250 F800
G1 X83.288 Y80.083 E19.8817 F800
G1 X85.087 Y78.702 E19.9384 F800
G1 X87.000 Y77.483 E19.9951 F800
G1 X89.012 Y76.436 E20.0518 F800
G1 X91.107 Y75.568 E20.1085 F800
G1 X93.271 Y74.886 E20.1652 F800
G1 X95.485 Y74.395 E20.2219 F800
G1 X97.734 Y74.099 E20.2787 F800
G1 X100.000 Y74.000 E20.3354 F800
G1 X102.266 Y74.099 E20.3921 F800
G1 X104.515 Y74.395 E20.4488 F800
G1 X106.729 Y74.886 E20.5055 F800
G1 X108.893 Y75.568 E20.5622 F800
G1 X110.988 Y76.436 E20.6189 F800
G1 X113.000 Y77.483 E20.6756 F800
G1 X114.913 Y78.702 E20.7323 F800
G1 X116.712 Y80.083 E20.7890 F800
G1 X118.385 Y81.615 E20.8457 F800
G1 X119.917 Y83.288 E20.9024 F800
G1 X121.298 Y85.087 E20.9591 F800
G1 X122.517 Y87.000 E21.0158 F800
G1 X123.564 Y89.012 E21.0725 F800
G1 X124.432 Y91.107 E21.1292 F800
G1 X125.114 Y93.271 E21.1859 F800
G1 X125.605 Y95.485 E21.2426 F800
G1 X125.901 Y97.734 E21.2993 F800
G1 X126.000 Y100.000 E21.3561 F800
G1 E19.8561 F1200   ; Retract

; === LAYER 3 — WALL  (Z=9.50 mm) ===
G1 Z10.50 F600   ; Z-hop
G1 X126.000 Y100.000 F1200   ; Travel → wall circle
G1 Z9.50 F300   ; Lower to Z
G1 E21.3561 F1200   ; Prime
G1 X125.901 Y102.266 E21.4128 F800
G1 X125.605 Y104.515 E21.4695 F800
G1 X125.114 Y106.729 E21.5262 F800
G1 X124.432 Y108.893 E21.5829 F800
G1 X123.564 Y110.988 E21.6396 F800
G1 X122.517 Y113.000 E21.6963 F800
G1 X121.298 Y114.913 E21.7530 F800
G1 X119.917 Y116.712 E21.8097 F800
G1 X118.385 Y118.385 E21.8664 F800
G1 X116.712 Y119.917 E21.9231 F800
G1 X114.913 Y121.298 E21.9798 F800
G1 X113.000 Y122.517 E22.0365 F800
G1 X110.988 Y123.564 E22.0932 F800
G1 X108.893 Y124.432 E22.1499 F800
G1 X106.729 Y125.114 E22.2066 F800
G1 X104.515 Y125.605 E22.2633 F800
G1 X102.266 Y125.901 E22.3200 F800
G1 X100.000 Y126.000 E22.3767 F800
G1 X97.734 Y125.901 E22.4335 F800
G1 X95.485 Y125.605 E22.4902 F800
G1 X93.271 Y125.114 E22.5469 F800
G1 X91.107 Y124.432 E22.6036 F800
G1 X89.012 Y123.564 E22.6603 F800
G1 X87.000 Y122.517 E22.7170 F800
G1 X85.087 Y121.298 E22.7737 F800
G1 X83.288 Y119.917 E22.8304 F800
G1 X81.615 Y118.385 E22.8871 F800
G1 X80.083 Y116.712 E22.9438 F800
G1 X78.702 Y114.913 E23.0005 F800
G1 X77.483 Y113.000 E23.0572 F800
G1 X76.436 Y110.988 E23.1139 F800
G1 X75.568 Y108.893 E23.1706 F800
G1 X74.886 Y106.729 E23.2273 F800
G1 X74.395 Y104.515 E23.2840 F800
G1 X74.099 Y102.266 E23.3407 F800
G1 X74.000 Y100.000 E23.3974 F800
G1 X74.099 Y97.734 E23.4541 F800
G1 X74.395 Y95.485 E23.5108 F800
G1 X74.886 Y93.271 E23.5676 F800
G1 X75.568 Y91.107 E23.6243 F800
G1 X76.436 Y89.012 E23.6810 F800
G1 X77.483 Y87.000 E23.7377 F800
G1 X78.702 Y85.087 E23.7944 F800
G1 X80.083 Y83.288 E23.8511 F800
G1 X81.615 Y81.615 E23.9078 F800
G1 X83.288 Y80.083 E23.9645 F800
G1 X85.087 Y78.702 E24.0212 F800
G1 X87.000 Y77.483 E24.0779 F800
G1 X89.012 Y76.436 E24.1346 F800
G1 X91.107 Y75.568 E24.1913 F800
G1 X93.271 Y74.886 E24.2480 F800
G1 X95.485 Y74.395 E24.3047 F800
G1 X97.734 Y74.099 E24.3614 F800
G1 X100.000 Y74.000 E24.4181 F800
G1 X102.266 Y74.099 E24.4748 F800
G1 X104.515 Y74.395 E24.5315 F800
G1 X106.729 Y74.886 E24.5882 F800
G1 X108.893 Y75.568 E24.6450 F800
G1 X110.988 Y76.436 E24.7017 F800
G1 X113.000 Y77.483 E24.7584 F800
G1 X114.913 Y78.702 E24.8151 F800
G1 X116.712 Y80.083 E24.8718 F800
G1 X118.385 Y81.615 E24.9285 F800
G1 X119.917 Y83.288 E24.9852 F800
G1 X121.298 Y85.087 E25.0419 F800
G1 X122.517 Y87.000 E25.0986 F800
G1 X123.564 Y89.012 E25.1553 F800
G1 X124.432 Y91.107 E25.2120 F800
G1 X125.114 Y93.271 E25.2687 F800
G1 X125.605 Y95.485 E25.3254 F800
G1 X125.901 Y97.734 E25.3821 F800
G1 X126.000 Y100.000 E25.4388 F800
G1 E23.9388 F1200   ; Retract

; === LAYER 4 — WALL  (Z=11.50 mm) ===
G1 Z12.50 F600   ; Z-hop
G1 X126.000 Y100.000 F1200   ; Travel → wall circle
G1 Z11.50 F300   ; Lower to Z
G1 E25.4388 F1200   ; Prime
G1 X125.901 Y102.266 E25.4955 F800
G1 X125.605 Y104.515 E25.5522 F800
G1 X125.114 Y106.729 E25.6089 F800
G1 X124.432 Y108.893 E25.6656 F800
G1 X123.564 Y110.988 E25.7224 F800
G1 X122.517 Y113.000 E25.7791 F800
G1 X121.298 Y114.913 E25.8358 F800
G1 X119.917 Y116.712 E25.8925 F800
G1 X118.385 Y118.385 E25.9492 F800
G1 X116.712 Y119.917 E26.0059 F800
G1 X114.913 Y121.298 E26.0626 F800
G1 X113.000 Y122.517 E26.1193 F800
G1 X110.988 Y123.564 E26.1760 F800
G1 X108.893 Y124.432 E26.2327 F800
G1 X106.729 Y125.114 E26.2894 F800
G1 X104.515 Y125.605 E26.3461 F800
G1 X102.266 Y125.901 E26.4028 F800
G1 X100.000 Y126.000 E26.4595 F800
G1 X97.734 Y125.901 E26.5162 F800
G1 X95.485 Y125.605 E26.5729 F800
G1 X93.271 Y125.114 E26.6296 F800
G1 X91.107 Y124.432 E26.6863 F800
G1 X89.012 Y123.564 E26.7430 F800
G1 X87.000 Y122.517 E26.7998 F800
G1 X85.087 Y121.298 E26.8565 F800
G1 X83.288 Y119.917 E26.9132 F800
G1 X81.615 Y118.385 E26.9699 F800
G1 X80.083 Y116.712 E27.0266 F800
G1 X78.702 Y114.913 E27.0833 F800
G1 X77.483 Y113.000 E27.1400 F800
G1 X76.436 Y110.988 E27.1967 F800
G1 X75.568 Y108.893 E27.2534 F800
G1 X74.886 Y106.729 E27.3101 F800
G1 X74.395 Y104.515 E27.3668 F800
G1 X74.099 Y102.266 E27.4235 F800
G1 X74.000 Y100.000 E27.4802 F800
G1 X74.099 Y97.734 E27.5369 F800
G1 X74.395 Y95.485 E27.5936 F800
G1 X74.886 Y93.271 E27.6503 F800
G1 X75.568 Y91.107 E27.7070 F800
G1 X76.436 Y89.012 E27.7637 F800
G1 X77.483 Y87.000 E27.8204 F800
G1 X78.702 Y85.087 E27.8772 F800
G1 X80.083 Y83.288 E27.9339 F800
G1 X81.615 Y81.615 E27.9906 F800
G1 X83.288 Y80.083 E28.0473 F800
G1 X85.087 Y78.702 E28.1040 F800
G1 X87.000 Y77.483 E28.1607 F800
G1 X89.012 Y76.436 E28.2174 F800
G1 X91.107 Y75.568 E28.2741 F800
G1 X93.271 Y74.886 E28.3308 F800
G1 X95.485 Y74.395 E28.3875 F800
G1 X97.734 Y74.099 E28.4442 F800
G1 X100.000 Y74.000 E28.5009 F800
G1 X102.266 Y74.099 E28.5576 F800
G1 X104.515 Y74.395 E28.6143 F800
G1 X106.729 Y74.886 E28.6710 F800
G1 X108.893 Y75.568 E28.7277 F800
G1 X110.988 Y76.436 E28.7844 F800
G1 X113.000 Y77.483 E28.8411 F800
G1 X114.913 Y78.702 E28.8978 F800
G1 X116.712 Y80.083 E28.9545 F800
G1 X118.385 Y81.615 E29.0113 F800
G1 X119.917 Y83.288 E29.0680 F800
G1 X121.298 Y85.087 E29.1247 F800
G1 X122.517 Y87.000 E29.1814 F800
G1 X123.564 Y89.012 E29.2381 F800
G1 X124.432 Y91.107 E29.2948 F800
G1 X125.114 Y93.271 E29.3515 F800
G1 X125.605 Y95.485 E29.4082 F800
G1 X125.901 Y97.734 E29.4649 F800
G1 X126.000 Y100.000 E29.5216 F800
G1 E28.0216 F1200   ; Retract

; === LAYER 5 — WALL  (Z=13.50 mm) ===
G1 Z14.50 F600   ; Z-hop
G1 X126.000 Y100.000 F1200   ; Travel → wall circle
G1 Z13.50 F300   ; Lower to Z
G1 E29.5216 F1200   ; Prime
G1 X125.901 Y102.266 E29.5783 F800
G1 X125.605 Y104.515 E29.6350 F800
G1 X125.114 Y106.729 E29.6917 F800
G1 X124.432 Y108.893 E29.7484 F800
G1 X123.564 Y110.988 E29.8051 F800
G1 X122.517 Y113.000 E29.8618 F800
G1 X121.298 Y114.913 E29.9185 F800
G1 X119.917 Y116.712 E29.9752 F800
G1 X118.385 Y118.385 E30.0319 F800
G1 X116.712 Y119.917 E30.0887 F800
G1 X114.913 Y121.298 E30.1454 F800
G1 X113.000 Y122.517 E30.2021 F800
G1 X110.988 Y123.564 E30.2588 F800
G1 X108.893 Y124.432 E30.3155 F800
G1 X106.729 Y125.114 E30.3722 F800
G1 X104.515 Y125.605 E30.4289 F800
G1 X102.266 Y125.901 E30.4856 F800
G1 X100.000 Y126.000 E30.5423 F800
G1 X97.734 Y125.901 E30.5990 F800
G1 X95.485 Y125.605 E30.6557 F800
G1 X93.271 Y125.114 E30.7124 F800
G1 X91.107 Y124.432 E30.7691 F800
G1 X89.012 Y123.564 E30.8258 F800
G1 X87.000 Y122.517 E30.8825 F800
G1 X85.087 Y121.298 E30.9392 F800
G1 X83.288 Y119.917 E30.9959 F800
G1 X81.615 Y118.385 E31.0526 F800
G1 X80.083 Y116.712 E31.1093 F800
G1 X78.702 Y114.913 E31.1661 F800
G1 X77.483 Y113.000 E31.2228 F800
G1 X76.436 Y110.988 E31.2795 F800
G1 X75.568 Y108.893 E31.3362 F800
G1 X74.886 Y106.729 E31.3929 F800
G1 X74.395 Y104.515 E31.4496 F800
G1 X74.099 Y102.266 E31.5063 F800
G1 X74.000 Y100.000 E31.5630 F800
G1 X74.099 Y97.734 E31.6197 F800
G1 X74.395 Y95.485 E31.6764 F800
G1 X74.886 Y93.271 E31.7331 F800
G1 X75.568 Y91.107 E31.7898 F800
G1 X76.436 Y89.012 E31.8465 F800
G1 X77.483 Y87.000 E31.9032 F800
G1 X78.702 Y85.087 E31.9599 F800
G1 X80.083 Y83.288 E32.0166 F800
G1 X81.615 Y81.615 E32.0733 F800
G1 X83.288 Y80.083 E32.1300 F800
G1 X85.087 Y78.702 E32.1867 F800
G1 X87.000 Y77.483 E32.2435 F800
G1 X89.012 Y76.436 E32.3002 F800
G1 X91.107 Y75.568 E32.3569 F800
G1 X93.271 Y74.886 E32.4136 F800
G1 X95.485 Y74.395 E32.4703 F800
G1 X97.734 Y74.099 E32.5270 F800
G1 X100.000 Y74.000 E32.5837 F800
G1 X102.266 Y74.099 E32.6404 F800
G1 X104.515 Y74.395 E32.6971 F800
G1 X106.729 Y74.886 E32.7538 F800
G1 X108.893 Y75.568 E32.8105 F800
G1 X110.988 Y76.436 E32.8672 F800
G1 X113.000 Y77.483 E32.9239 F800
G1 X114.913 Y78.702 E32.9806 F800
G1 X116.712 Y80.083 E33.0373 F800
G1 X118.385 Y81.615 E33.0940 F800
G1 X119.917 Y83.288 E33.1507 F800
G1 X121.298 Y85.087 E33.2074 F800
G1 X122.517 Y87.000 E33.2641 F800
G1 X123.564 Y89.012 E33.3209 F800
G1 X124.432 Y91.107 E33.3776 F800
G1 X125.114 Y93.271 E33.4343 F800
G1 X125.605 Y95.485 E33.4910 F800
G1 X125.901 Y97.734 E33.5477 F800
G1 X126.000 Y100.000 E33.6044 F800
G1 E32.1044 F1200   ; Retract

; === LAYER 6 — WALL  (Z=15.50 mm) ===
G1 Z16.50 F600   ; Z-hop
G1 X126.000 Y100.000 F1200   ; Travel → wall circle
G1 Z15.50 F300   ; Lower to Z
G1 E33.6044 F1200   ; Prime
G1 X125.901 Y102.266 E33.6611 F800
G1 X125.605 Y104.515 E33.7178 F800
G1 X125.114 Y106.729 E33.7745 F800
G1 X124.432 Y108.893 E33.8312 F800
G1 X123.564 Y110.988 E33.8879 F800
G1 X122.517 Y113.000 E33.9446 F800
G1 X121.298 Y114.913 E34.0013 F800
G1 X119.917 Y116.712 E34.0580 F800
G1 X118.385 Y118.385 E34.1147 F800
G1 X116.712 Y119.917 E34.1714 F800
G1 X114.913 Y121.298 E34.2281 F800
G1 X113.000 Y122.517 E34.2848 F800
G1 X110.988 Y123.564 E34.3415 F800
G1 X108.893 Y124.432 E34.3982 F800
G1 X106.729 Y125.114 E34.4550 F800
G1 X104.515 Y125.605 E34.5117 F800
G1 X102.266 Y125.901 E34.5684 F800
G1 X100.000 Y126.000 E34.6251 F800
G1 X97.734 Y125.901 E34.6818 F800
G1 X95.485 Y125.605 E34.7385 F800
G1 X93.271 Y125.114 E34.7952 F800
G1 X91.107 Y124.432 E34.8519 F800
G1 X89.012 Y123.564 E34.9086 F800
G1 X87.000 Y122.517 E34.9653 F800
G1 X85.087 Y121.298 E35.0220 F800
G1 X83.288 Y119.917 E35.0787 F800
G1 X81.615 Y118.385 E35.1354 F800
G1 X80.083 Y116.712 E35.1921 F800
G1 X78.702 Y114.913 E35.2488 F800
G1 X77.483 Y113.000 E35.3055 F800
G1 X76.436 Y110.988 E35.3622 F800
G1 X75.568 Y108.893 E35.4189 F800
G1 X74.886 Y106.729 E35.4756 F800
G1 X74.395 Y104.515 E35.5324 F800
G1 X74.099 Y102.266 E35.5891 F800
G1 X74.000 Y100.000 E35.6458 F800
G1 X74.099 Y97.734 E35.7025 F800
G1 X74.395 Y95.485 E35.7592 F800
G1 X74.886 Y93.271 E35.8159 F800
G1 X75.568 Y91.107 E35.8726 F800
G1 X76.436 Y89.012 E35.9293 F800
G1 X77.483 Y87.000 E35.9860 F800
G1 X78.702 Y85.087 E36.0427 F800
G1 X80.083 Y83.288 E36.0994 F800
G1 X81.615 Y81.615 E36.1561 F800
G1 X83.288 Y80.083 E36.2128 F800
G1 X85.087 Y78.702 E36.2695 F800
G1 X87.000 Y77.483 E36.3262 F800
G1 X89.012 Y76.436 E36.3829 F800
G1 X91.107 Y75.568 E36.4396 F800
G1 X93.271 Y74.886 E36.4963 F800
G1 X95.485 Y74.395 E36.5530 F800
G1 X97.734 Y74.099 E36.6098 F800
G1 X100.000 Y74.000 E36.6665 F800
G1 X102.266 Y74.099 E36.7232 F800
G1 X104.515 Y74.395 E36.7799 F800
G1 X106.729 Y74.886 E36.8366 F800
G1 X108.893 Y75.568 E36.8933 F800
G1 X110.988 Y76.436 E36.9500 F800
G1 X113.000 Y77.483 E37.0067 F800
G1 X114.913 Y78.702 E37.0634 F800
G1 X116.712 Y80.083 E37.1201 F800
G1 X118.385 Y81.615 E37.1768 F800
G1 X119.917 Y83.288 E37.2335 F800
G1 X121.298 Y85.087 E37.2902 F800
G1 X122.517 Y87.000 E37.3469 F800
G1 X123.564 Y89.012 E37.4036 F800
G1 X124.432 Y91.107 E37.4603 F800
G1 X125.114 Y93.271 E37.5170 F800
G1 X125.605 Y95.485 E37.5737 F800
G1 X125.901 Y97.734 E37.6304 F800
G1 X126.000 Y100.000 E37.6872 F800
G1 E36.1872 F1200   ; Retract

; === LAYER 7 — WALL  (Z=17.50 mm) ===
G1 Z18.50 F600   ; Z-hop
G1 X126.000 Y100.000 F1200   ; Travel → wall circle
G1 Z17.50 F300   ; Lower to Z
G1 E37.6872 F1200   ; Prime
G1 X125.901 Y102.266 E37.7439 F800
G1 X125.605 Y104.515 E37.8006 F800
G1 X125.114 Y106.729 E37.8573 F800
G1 X124.432 Y108.893 E37.9140 F800
G1 X123.564 Y110.988 E37.9707 F800
G1 X122.517 Y113.000 E38.0274 F800
G1 X121.298 Y114.913 E38.0841 F800
G1 X119.917 Y116.712 E38.1408 F800
G1 X118.385 Y118.385 E38.1975 F800
G1 X116.712 Y119.917 E38.2542 F800
G1 X114.913 Y121.298 E38.3109 F800
G1 X113.000 Y122.517 E38.3676 F800
G1 X110.988 Y123.564 E38.4243 F800
G1 X108.893 Y124.432 E38.4810 F800
G1 X106.729 Y125.114 E38.5377 F800
G1 X104.515 Y125.605 E38.5944 F800
G1 X102.266 Y125.901 E38.6511 F800
G1 X100.000 Y126.000 E38.7078 F800
G1 X97.734 Y125.901 E38.7645 F800
G1 X95.485 Y125.605 E38.8213 F800
G1 X93.271 Y125.114 E38.8780 F800
G1 X91.107 Y124.432 E38.9347 F800
G1 X89.012 Y123.564 E38.9914 F800
G1 X87.000 Y122.517 E39.0481 F800
G1 X85.087 Y121.298 E39.1048 F800
G1 X83.288 Y119.917 E39.1615 F800
G1 X81.615 Y118.385 E39.2182 F800
G1 X80.083 Y116.712 E39.2749 F800
G1 X78.702 Y114.913 E39.3316 F800
G1 X77.483 Y113.000 E39.3883 F800
G1 X76.436 Y110.988 E39.4450 F800
G1 X75.568 Y108.893 E39.5017 F800
G1 X74.886 Y106.729 E39.5584 F800
G1 X74.395 Y104.515 E39.6151 F800
G1 X74.099 Y102.266 E39.6718 F800
G1 X74.000 Y100.000 E39.7285 F800
G1 X74.099 Y97.734 E39.7852 F800
G1 X74.395 Y95.485 E39.8419 F800
G1 X74.886 Y93.271 E39.8987 F800
G1 X75.568 Y91.107 E39.9554 F800
G1 X76.436 Y89.012 E40.0121 F800
G1 X77.483 Y87.000 E40.0688 F800
G1 X78.702 Y85.087 E40.1255 F800
G1 X80.083 Y83.288 E40.1822 F800
G1 X81.615 Y81.615 E40.2389 F800
G1 X83.288 Y80.083 E40.2956 F800
G1 X85.087 Y78.702 E40.3523 F800
G1 X87.000 Y77.483 E40.4090 F800
G1 X89.012 Y76.436 E40.4657 F800
G1 X91.107 Y75.568 E40.5224 F800
G1 X93.271 Y74.886 E40.5791 F800
G1 X95.485 Y74.395 E40.6358 F800
G1 X97.734 Y74.099 E40.6925 F800
G1 X100.000 Y74.000 E40.7492 F800
G1 X102.266 Y74.099 E40.8059 F800
G1 X104.515 Y74.395 E40.8626 F800
G1 X106.729 Y74.886 E40.9193 F800
G1 X108.893 Y75.568 E40.9761 F800
G1 X110.988 Y76.436 E41.0328 F800
G1 X113.000 Y77.483 E41.0895 F800
G1 X114.913 Y78.702 E41.1462 F800
G1 X116.712 Y80.083 E41.2029 F800
G1 X118.385 Y81.615 E41.2596 F800
G1 X119.917 Y83.288 E41.3163 F800
G1 X121.298 Y85.087 E41.3730 F800
G1 X122.517 Y87.000 E41.4297 F800
G1 X123.564 Y89.012 E41.4864 F800
G1 X124.432 Y91.107 E41.5431 F800
G1 X125.114 Y93.271 E41.5998 F800
G1 X125.605 Y95.485 E41.6565 F800
G1 X125.901 Y97.734 E41.7132 F800
G1 X126.000 Y100.000 E41.7699 F800
G1 E40.2699 F1200   ; Retract

; === FINISH ===
G1 Z37.5 F600      ; Raise nozzle clear
G1 X0 Y0 F1200   ; Move to home position
M84              ; Disable motors

; === END ===
