; Diane Fort — Cup Fill (second material) G-code
; Food Printing assignment
;
; CUP STRUCTURE:
;   Outline: solid base (layer 1) + circular wall (layers 2+)
;   Fill   : concentric rings inside cup (second material)
;
; Wall layers: 8
; Layer height: 1.0 mm
; Base Z: 5.50 mm
; Wall top Z: 13.50 mm
; Radius: 26.0 mm  (diameter 52.0 mm)
; Center: (100, 100)
; Print speed: 800 mm/min
; Extrusion mult: 0.025
; Single fill layer at Z=6.50 mm inside the cup

; === INITIALIZATION ===
G21              ; Set units to millimeters
G90              ; Absolute positioning
M82              ; Absolute extrusion mode
G28              ; Home all axes

; === FILL LAYER — INSIDE CUP  (Z=6.50 mm) ===
G1 Z7.50 F600   ; Z-hop
G1 X102.000 Y100.000 F1200   ; Travel → fill ring 1 (r=2.0mm) rep 1/5
G1 Z6.50 F300   ; Lower to Z
G1 X101.992 Y100.174 E0.0044 F800
G1 X101.970 Y100.347 E0.0087 F800
G1 X101.932 Y100.518 E0.0131 F800
G1 X101.879 Y100.684 E0.0174 F800
G1 X101.813 Y100.845 E0.0218 F800
G1 X101.732 Y101.000 E0.0262 F800
G1 X101.638 Y101.147 E0.0305 F800
G1 X101.532 Y101.286 E0.0349 F800
G1 X101.414 Y101.414 E0.0393 F800
G1 X101.286 Y101.532 E0.0436 F800
G1 X101.147 Y101.638 E0.0480 F800
G1 X101.000 Y101.732 E0.0523 F800
G1 X100.845 Y101.813 E0.0567 F800
G1 X100.684 Y101.879 E0.0611 F800
G1 X100.518 Y101.932 E0.0654 F800
G1 X100.347 Y101.970 E0.0698 F800
G1 X100.174 Y101.992 E0.0742 F800
G1 X100.000 Y102.000 E0.0785 F800
G1 X99.826 Y101.992 E0.0829 F800
G1 X99.653 Y101.970 E0.0872 F800
G1 X99.482 Y101.932 E0.0916 F800
G1 X99.316 Y101.879 E0.0960 F800
G1 X99.155 Y101.813 E0.1003 F800
G1 X99.000 Y101.732 E0.1047 F800
G1 X98.853 Y101.638 E0.1090 F800
G1 X98.714 Y101.532 E0.1134 F800
G1 X98.586 Y101.414 E0.1178 F800
G1 X98.468 Y101.286 E0.1221 F800
G1 X98.362 Y101.147 E0.1265 F800
G1 X98.268 Y101.000 E0.1309 F800
G1 X98.187 Y100.845 E0.1352 F800
G1 X98.121 Y100.684 E0.1396 F800
G1 X98.068 Y100.518 E0.1439 F800
G1 X98.030 Y100.347 E0.1483 F800
G1 X98.008 Y100.174 E0.1527 F800
G1 X98.000 Y100.000 E0.1570 F800
G1 X98.008 Y99.826 E0.1614 F800
G1 X98.030 Y99.653 E0.1658 F800
G1 X98.068 Y99.482 E0.1701 F800
G1 X98.121 Y99.316 E0.1745 F800
G1 X98.187 Y99.155 E0.1788 F800
G1 X98.268 Y99.000 E0.1832 F800
G1 X98.362 Y98.853 E0.1876 F800
G1 X98.468 Y98.714 E0.1919 F800
G1 X98.586 Y98.586 E0.1963 F800
G1 X98.714 Y98.468 E0.2006 F800
G1 X98.853 Y98.362 E0.2050 F800
G1 X99.000 Y98.268 E0.2094 F800
G1 X99.155 Y98.187 E0.2137 F800
G1 X99.316 Y98.121 E0.2181 F800
G1 X99.482 Y98.068 E0.2225 F800
G1 X99.653 Y98.030 E0.2268 F800
G1 X99.826 Y98.008 E0.2312 F800
G1 X100.000 Y98.000 E0.2355 F800
G1 X100.174 Y98.008 E0.2399 F800
G1 X100.347 Y98.030 E0.2443 F800
G1 X100.518 Y98.068 E0.2486 F800
G1 X100.684 Y98.121 E0.2530 F800
G1 X100.845 Y98.187 E0.2574 F800
G1 X101.000 Y98.268 E0.2617 F800
G1 X101.147 Y98.362 E0.2661 F800
G1 X101.286 Y98.468 E0.2704 F800
G1 X101.414 Y98.586 E0.2748 F800
G1 X101.532 Y98.714 E0.2792 F800
G1 X101.638 Y98.853 E0.2835 F800
G1 X101.732 Y99.000 E0.2879 F800
G1 X101.813 Y99.155 E0.2922 F800
G1 X101.879 Y99.316 E0.2966 F800
G1 X101.932 Y99.482 E0.3010 F800
G1 X101.970 Y99.653 E0.3053 F800
G1 X101.992 Y99.826 E0.3097 F800
G1 X102.000 Y100.000 E0.3141 F800
G1 E-1.1859 F1200   ; Retract
G1 Z7.50 F600   ; Z-hop
G1 X102.000 Y100.000 F1200   ; Travel → fill ring 1 (r=2.0mm) rep 2/5
G1 Z6.50 F300   ; Lower to Z
G1 E0.3141 F1200   ; Prime
G1 X101.992 Y100.174 E0.3184 F800
G1 X101.970 Y100.347 E0.3228 F800
G1 X101.932 Y100.518 E0.3271 F800
G1 X101.879 Y100.684 E0.3315 F800
G1 X101.813 Y100.845 E0.3359 F800
G1 X101.732 Y101.000 E0.3402 F800
G1 X101.638 Y101.147 E0.3446 F800
G1 X101.532 Y101.286 E0.3490 F800
G1 X101.414 Y101.414 E0.3533 F800
G1 X101.286 Y101.532 E0.3577 F800
G1 X101.147 Y101.638 E0.3620 F800
G1 X101.000 Y101.732 E0.3664 F800
G1 X100.845 Y101.813 E0.3708 F800
G1 X100.684 Y101.879 E0.3751 F800
G1 X100.518 Y101.932 E0.3795 F800
G1 X100.347 Y101.970 E0.3839 F800
G1 X100.174 Y101.992 E0.3882 F800
G1 X100.000 Y102.000 E0.3926 F800
G1 X99.826 Y101.992 E0.3969 F800
G1 X99.653 Y101.970 E0.4013 F800
G1 X99.482 Y101.932 E0.4057 F800
G1 X99.316 Y101.879 E0.4100 F800
G1 X99.155 Y101.813 E0.4144 F800
G1 X99.000 Y101.732 E0.4187 F800
G1 X98.853 Y101.638 E0.4231 F800
G1 X98.714 Y101.532 E0.4275 F800
G1 X98.586 Y101.414 E0.4318 F800
G1 X98.468 Y101.286 E0.4362 F800
G1 X98.362 Y101.147 E0.4406 F800
G1 X98.268 Y101.000 E0.4449 F800
G1 X98.187 Y100.845 E0.4493 F800
G1 X98.121 Y100.684 E0.4536 F800
G1 X98.068 Y100.518 E0.4580 F800
G1 X98.030 Y100.347 E0.4624 F800
G1 X98.008 Y100.174 E0.4667 F800
G1 X98.000 Y100.000 E0.4711 F800
G1 X98.008 Y99.826 E0.4755 F800
G1 X98.030 Y99.653 E0.4798 F800
G1 X98.068 Y99.482 E0.4842 F800
G1 X98.121 Y99.316 E0.4885 F800
G1 X98.187 Y99.155 E0.4929 F800
G1 X98.268 Y99.000 E0.4973 F800
G1 X98.362 Y98.853 E0.5016 F800
G1 X98.468 Y98.714 E0.5060 F800
G1 X98.586 Y98.586 E0.5103 F800
G1 X98.714 Y98.468 E0.5147 F800
G1 X98.853 Y98.362 E0.5191 F800
G1 X99.000 Y98.268 E0.5234 F800
G1 X99.155 Y98.187 E0.5278 F800
G1 X99.316 Y98.121 E0.5322 F800
G1 X99.482 Y98.068 E0.5365 F800
G1 X99.653 Y98.030 E0.5409 F800
G1 X99.826 Y98.008 E0.5452 F800
G1 X100.000 Y98.000 E0.5496 F800
G1 X100.174 Y98.008 E0.5540 F800
G1 X100.347 Y98.030 E0.5583 F800
G1 X100.518 Y98.068 E0.5627 F800
G1 X100.684 Y98.121 E0.5671 F800
G1 X100.845 Y98.187 E0.5714 F800
G1 X101.000 Y98.268 E0.5758 F800
G1 X101.147 Y98.362 E0.5801 F800
G1 X101.286 Y98.468 E0.5845 F800
G1 X101.414 Y98.586 E0.5889 F800
G1 X101.532 Y98.714 E0.5932 F800
G1 X101.638 Y98.853 E0.5976 F800
G1 X101.732 Y99.000 E0.6019 F800
G1 X101.813 Y99.155 E0.6063 F800
G1 X101.879 Y99.316 E0.6107 F800
G1 X101.932 Y99.482 E0.6150 F800
G1 X101.970 Y99.653 E0.6194 F800
G1 X101.992 Y99.826 E0.6238 F800
G1 X102.000 Y100.000 E0.6281 F800
G1 E-0.8719 F1200   ; Retract
G1 Z7.50 F600   ; Z-hop
G1 X102.000 Y100.000 F1200   ; Travel → fill ring 1 (r=2.0mm) rep 3/5
G1 Z6.50 F300   ; Lower to Z
G1 E0.6281 F1200   ; Prime
G1 X101.992 Y100.174 E0.6325 F800
G1 X101.970 Y100.347 E0.6368 F800
G1 X101.932 Y100.518 E0.6412 F800
G1 X101.879 Y100.684 E0.6456 F800
G1 X101.813 Y100.845 E0.6499 F800
G1 X101.732 Y101.000 E0.6543 F800
G1 X101.638 Y101.147 E0.6587 F800
G1 X101.532 Y101.286 E0.6630 F800
G1 X101.414 Y101.414 E0.6674 F800
G1 X101.286 Y101.532 E0.6717 F800
G1 X101.147 Y101.638 E0.6761 F800
G1 X101.000 Y101.732 E0.6805 F800
G1 X100.845 Y101.813 E0.6848 F800
G1 X100.684 Y101.879 E0.6892 F800
G1 X100.518 Y101.932 E0.6935 F800
G1 X100.347 Y101.970 E0.6979 F800
G1 X100.174 Y101.992 E0.7023 F800
G1 X100.000 Y102.000 E0.7066 F800
G1 X99.826 Y101.992 E0.7110 F800
G1 X99.653 Y101.970 E0.7154 F800
G1 X99.482 Y101.932 E0.7197 F800
G1 X99.316 Y101.879 E0.7241 F800
G1 X99.155 Y101.813 E0.7284 F800
G1 X99.000 Y101.732 E0.7328 F800
G1 X98.853 Y101.638 E0.7372 F800
G1 X98.714 Y101.532 E0.7415 F800
G1 X98.586 Y101.414 E0.7459 F800
G1 X98.468 Y101.286 E0.7503 F800
G1 X98.362 Y101.147 E0.7546 F800
G1 X98.268 Y101.000 E0.7590 F800
G1 X98.187 Y100.845 E0.7633 F800
G1 X98.121 Y100.684 E0.7677 F800
G1 X98.068 Y100.518 E0.7721 F800
G1 X98.030 Y100.347 E0.7764 F800
G1 X98.008 Y100.174 E0.7808 F800
G1 X98.000 Y100.000 E0.7851 F800
G1 X98.008 Y99.826 E0.7895 F800
G1 X98.030 Y99.653 E0.7939 F800
G1 X98.068 Y99.482 E0.7982 F800
G1 X98.121 Y99.316 E0.8026 F800
G1 X98.187 Y99.155 E0.8070 F800
G1 X98.268 Y99.000 E0.8113 F800
G1 X98.362 Y98.853 E0.8157 F800
G1 X98.468 Y98.714 E0.8200 F800
G1 X98.586 Y98.586 E0.8244 F800
G1 X98.714 Y98.468 E0.8288 F800
G1 X98.853 Y98.362 E0.8331 F800
G1 X99.000 Y98.268 E0.8375 F800
G1 X99.155 Y98.187 E0.8419 F800
G1 X99.316 Y98.121 E0.8462 F800
G1 X99.482 Y98.068 E0.8506 F800
G1 X99.653 Y98.030 E0.8549 F800
G1 X99.826 Y98.008 E0.8593 F800
G1 X100.000 Y98.000 E0.8637 F800
G1 X100.174 Y98.008 E0.8680 F800
G1 X100.347 Y98.030 E0.8724 F800
G1 X100.518 Y98.068 E0.8767 F800
G1 X100.684 Y98.121 E0.8811 F800
G1 X100.845 Y98.187 E0.8855 F800
G1 X101.000 Y98.268 E0.8898 F800
G1 X101.147 Y98.362 E0.8942 F800
G1 X101.286 Y98.468 E0.8986 F800
G1 X101.414 Y98.586 E0.9029 F800
G1 X101.532 Y98.714 E0.9073 F800
G1 X101.638 Y98.853 E0.9116 F800
G1 X101.732 Y99.000 E0.9160 F800
G1 X101.813 Y99.155 E0.9204 F800
G1 X101.879 Y99.316 E0.9247 F800
G1 X101.932 Y99.482 E0.9291 F800
G1 X101.970 Y99.653 E0.9335 F800
G1 X101.992 Y99.826 E0.9378 F800
G1 X102.000 Y100.000 E0.9422 F800
G1 E-0.5578 F1200   ; Retract
G1 Z7.50 F600   ; Z-hop
G1 X102.000 Y100.000 F1200   ; Travel → fill ring 1 (r=2.0mm) rep 4/5
G1 Z6.50 F300   ; Lower to Z
G1 E0.9422 F1200   ; Prime
G1 X101.992 Y100.174 E0.9465 F800
G1 X101.970 Y100.347 E0.9509 F800
G1 X101.932 Y100.518 E0.9553 F800
G1 X101.879 Y100.684 E0.9596 F800
G1 X101.813 Y100.845 E0.9640 F800
G1 X101.732 Y101.000 E0.9684 F800
G1 X101.638 Y101.147 E0.9727 F800
G1 X101.532 Y101.286 E0.9771 F800
G1 X101.414 Y101.414 E0.9814 F800
G1 X101.286 Y101.532 E0.9858 F800
G1 X101.147 Y101.638 E0.9902 F800
G1 X101.000 Y101.732 E0.9945 F800
G1 X100.845 Y101.813 E0.9989 F800
G1 X100.684 Y101.879 E1.0032 F800
G1 X100.518 Y101.932 E1.0076 F800
G1 X100.347 Y101.970 E1.0120 F800
G1 X100.174 Y101.992 E1.0163 F800
G1 X100.000 Y102.000 E1.0207 F800
G1 X99.826 Y101.992 E1.0251 F800
G1 X99.653 Y101.970 E1.0294 F800
G1 X99.482 Y101.932 E1.0338 F800
G1 X99.316 Y101.879 E1.0381 F800
G1 X99.155 Y101.813 E1.0425 F800
G1 X99.000 Y101.732 E1.0469 F800
G1 X98.853 Y101.638 E1.0512 F800
G1 X98.714 Y101.532 E1.0556 F800
G1 X98.586 Y101.414 E1.0600 F800
G1 X98.468 Y101.286 E1.0643 F800
G1 X98.362 Y101.147 E1.0687 F800
G1 X98.268 Y101.000 E1.0730 F800
G1 X98.187 Y100.845 E1.0774 F800
G1 X98.121 Y100.684 E1.0818 F800
G1 X98.068 Y100.518 E1.0861 F800
G1 X98.030 Y100.347 E1.0905 F800
G1 X98.008 Y100.174 E1.0948 F800
G1 X98.000 Y100.000 E1.0992 F800
G1 X98.008 Y99.826 E1.1036 F800
G1 X98.030 Y99.653 E1.1079 F800
G1 X98.068 Y99.482 E1.1123 F800
G1 X98.121 Y99.316 E1.1167 F800
G1 X98.187 Y99.155 E1.1210 F800
G1 X98.268 Y99.000 E1.1254 F800
G1 X98.362 Y98.853 E1.1297 F800
G1 X98.468 Y98.714 E1.1341 F800
G1 X98.586 Y98.586 E1.1385 F800
G1 X98.714 Y98.468 E1.1428 F800
G1 X98.853 Y98.362 E1.1472 F800
G1 X99.000 Y98.268 E1.1516 F800
G1 X99.155 Y98.187 E1.1559 F800
G1 X99.316 Y98.121 E1.1603 F800
G1 X99.482 Y98.068 E1.1646 F800
G1 X99.653 Y98.030 E1.1690 F800
G1 X99.826 Y98.008 E1.1734 F800
G1 X100.000 Y98.000 E1.1777 F800
G1 X100.174 Y98.008 E1.1821 F800
G1 X100.347 Y98.030 E1.1864 F800
G1 X100.518 Y98.068 E1.1908 F800
G1 X100.684 Y98.121 E1.1952 F800
G1 X100.845 Y98.187 E1.1995 F800
G1 X101.000 Y98.268 E1.2039 F800
G1 X101.147 Y98.362 E1.2083 F800
G1 X101.286 Y98.468 E1.2126 F800
G1 X101.414 Y98.586 E1.2170 F800
G1 X101.532 Y98.714 E1.2213 F800
G1 X101.638 Y98.853 E1.2257 F800
G1 X101.732 Y99.000 E1.2301 F800
G1 X101.813 Y99.155 E1.2344 F800
G1 X101.879 Y99.316 E1.2388 F800
G1 X101.932 Y99.482 E1.2432 F800
G1 X101.970 Y99.653 E1.2475 F800
G1 X101.992 Y99.826 E1.2519 F800
G1 X102.000 Y100.000 E1.2562 F800
G1 E-0.2438 F1200   ; Retract
G1 Z7.50 F600   ; Z-hop
G1 X102.000 Y100.000 F1200   ; Travel → fill ring 1 (r=2.0mm) rep 5/5
G1 Z6.50 F300   ; Lower to Z
G1 E1.2562 F1200   ; Prime
G1 X101.992 Y100.174 E1.2606 F800
G1 X101.970 Y100.347 E1.2650 F800
G1 X101.932 Y100.518 E1.2693 F800
G1 X101.879 Y100.684 E1.2737 F800
G1 X101.813 Y100.845 E1.2780 F800
G1 X101.732 Y101.000 E1.2824 F800
G1 X101.638 Y101.147 E1.2868 F800
G1 X101.532 Y101.286 E1.2911 F800
G1 X101.414 Y101.414 E1.2955 F800
G1 X101.286 Y101.532 E1.2999 F800
G1 X101.147 Y101.638 E1.3042 F800
G1 X101.000 Y101.732 E1.3086 F800
G1 X100.845 Y101.813 E1.3129 F800
G1 X100.684 Y101.879 E1.3173 F800
G1 X100.518 Y101.932 E1.3217 F800
G1 X100.347 Y101.970 E1.3260 F800
G1 X100.174 Y101.992 E1.3304 F800
G1 X100.000 Y102.000 E1.3348 F800
G1 X99.826 Y101.992 E1.3391 F800
G1 X99.653 Y101.970 E1.3435 F800
G1 X99.482 Y101.932 E1.3478 F800
G1 X99.316 Y101.879 E1.3522 F800
G1 X99.155 Y101.813 E1.3566 F800
G1 X99.000 Y101.732 E1.3609 F800
G1 X98.853 Y101.638 E1.3653 F800
G1 X98.714 Y101.532 E1.3696 F800
G1 X98.586 Y101.414 E1.3740 F800
G1 X98.468 Y101.286 E1.3784 F800
G1 X98.362 Y101.147 E1.3827 F800
G1 X98.268 Y101.000 E1.3871 F800
G1 X98.187 Y100.845 E1.3915 F800
G1 X98.121 Y100.684 E1.3958 F800
G1 X98.068 Y100.518 E1.4002 F800
G1 X98.030 Y100.347 E1.4045 F800
G1 X98.008 Y100.174 E1.4089 F800
G1 X98.000 Y100.000 E1.4133 F800
G1 X98.008 Y99.826 E1.4176 F800
G1 X98.030 Y99.653 E1.4220 F800
G1 X98.068 Y99.482 E1.4264 F800
G1 X98.121 Y99.316 E1.4307 F800
G1 X98.187 Y99.155 E1.4351 F800
G1 X98.268 Y99.000 E1.4394 F800
G1 X98.362 Y98.853 E1.4438 F800
G1 X98.468 Y98.714 E1.4482 F800
G1 X98.586 Y98.586 E1.4525 F800
G1 X98.714 Y98.468 E1.4569 F800
G1 X98.853 Y98.362 E1.4612 F800
G1 X99.000 Y98.268 E1.4656 F800
G1 X99.155 Y98.187 E1.4700 F800
G1 X99.316 Y98.121 E1.4743 F800
G1 X99.482 Y98.068 E1.4787 F800
G1 X99.653 Y98.030 E1.4831 F800
G1 X99.826 Y98.008 E1.4874 F800
G1 X100.000 Y98.000 E1.4918 F800
G1 X100.174 Y98.008 E1.4961 F800
G1 X100.347 Y98.030 E1.5005 F800
G1 X100.518 Y98.068 E1.5049 F800
G1 X100.684 Y98.121 E1.5092 F800
G1 X100.845 Y98.187 E1.5136 F800
G1 X101.000 Y98.268 E1.5180 F800
G1 X101.147 Y98.362 E1.5223 F800
G1 X101.286 Y98.468 E1.5267 F800
G1 X101.414 Y98.586 E1.5310 F800
G1 X101.532 Y98.714 E1.5354 F800
G1 X101.638 Y98.853 E1.5398 F800
G1 X101.732 Y99.000 E1.5441 F800
G1 X101.813 Y99.155 E1.5485 F800
G1 X101.879 Y99.316 E1.5529 F800
G1 X101.932 Y99.482 E1.5572 F800
G1 X101.970 Y99.653 E1.5616 F800
G1 X101.992 Y99.826 E1.5659 F800
G1 X102.000 Y100.000 E1.5703 F800
G1 E0.0703 F1200   ; Retract
G1 Z7.50 F600   ; Z-hop
G1 X104.000 Y100.000 F1200   ; Travel → fill ring 2 (r=4.0mm)
G1 Z6.50 F300   ; Lower to Z
G1 E1.5703 F1200   ; Prime
G1 X103.985 Y99.651 E1.5790 F800
G1 X103.939 Y99.305 E1.5877 F800
G1 X103.864 Y98.965 E1.5965 F800
G1 X103.759 Y98.632 E1.6052 F800
G1 X103.625 Y98.310 E1.6139 F800
G1 X103.464 Y98.000 E1.6226 F800
G1 X103.277 Y97.706 E1.6314 F800
G1 X103.064 Y97.429 E1.6401 F800
G1 X102.828 Y97.172 E1.6488 F800
G1 X102.571 Y96.936 E1.6575 F800
G1 X102.294 Y96.723 E1.6663 F800
G1 X102.000 Y96.536 E1.6750 F800
G1 X101.690 Y96.375 E1.6837 F800
G1 X101.368 Y96.241 E1.6924 F800
G1 X101.035 Y96.136 E1.7012 F800
G1 X100.695 Y96.061 E1.7099 F800
G1 X100.349 Y96.015 E1.7186 F800
G1 X100.000 Y96.000 E1.7273 F800
G1 X99.651 Y96.015 E1.7361 F800
G1 X99.305 Y96.061 E1.7448 F800
G1 X98.965 Y96.136 E1.7535 F800
G1 X98.632 Y96.241 E1.7622 F800
G1 X98.310 Y96.375 E1.7709 F800
G1 X98.000 Y96.536 E1.7797 F800
G1 X97.706 Y96.723 E1.7884 F800
G1 X97.429 Y96.936 E1.7971 F800
G1 X97.172 Y97.172 E1.8058 F800
G1 X96.936 Y97.429 E1.8146 F800
G1 X96.723 Y97.706 E1.8233 F800
G1 X96.536 Y98.000 E1.8320 F800
G1 X96.375 Y98.310 E1.8407 F800
G1 X96.241 Y98.632 E1.8495 F800
G1 X96.136 Y98.965 E1.8582 F800
G1 X96.061 Y99.305 E1.8669 F800
G1 X96.015 Y99.651 E1.8756 F800
G1 X96.000 Y100.000 E1.8844 F800
G1 X96.015 Y100.349 E1.8931 F800
G1 X96.061 Y100.695 E1.9018 F800
G1 X96.136 Y101.035 E1.9105 F800
G1 X96.241 Y101.368 E1.9193 F800
G1 X96.375 Y101.690 E1.9280 F800
G1 X96.536 Y102.000 E1.9367 F800
G1 X96.723 Y102.294 E1.9454 F800
G1 X96.936 Y102.571 E1.9541 F800
G1 X97.172 Y102.828 E1.9629 F800
G1 X97.429 Y103.064 E1.9716 F800
G1 X97.706 Y103.277 E1.9803 F800
G1 X98.000 Y103.464 E1.9890 F800
G1 X98.310 Y103.625 E1.9978 F800
G1 X98.632 Y103.759 E2.0065 F800
G1 X98.965 Y103.864 E2.0152 F800
G1 X99.305 Y103.939 E2.0239 F800
G1 X99.651 Y103.985 E2.0327 F800
G1 X100.000 Y104.000 E2.0414 F800
G1 X100.349 Y103.985 E2.0501 F800
G1 X100.695 Y103.939 E2.0588 F800
G1 X101.035 Y103.864 E2.0676 F800
G1 X101.368 Y103.759 E2.0763 F800
G1 X101.690 Y103.625 E2.0850 F800
G1 X102.000 Y103.464 E2.0937 F800
G1 X102.294 Y103.277 E2.1025 F800
G1 X102.571 Y103.064 E2.1112 F800
G1 X102.828 Y102.828 E2.1199 F800
G1 X103.064 Y102.571 E2.1286 F800
G1 X103.277 Y102.294 E2.1373 F800
G1 X103.464 Y102.000 E2.1461 F800
G1 X103.625 Y101.690 E2.1548 F800
G1 X103.759 Y101.368 E2.1635 F800
G1 X103.864 Y101.035 E2.1722 F800
G1 X103.939 Y100.695 E2.1810 F800
G1 X103.985 Y100.349 E2.1897 F800
G1 X104.000 Y100.000 E2.1984 F800
G1 E0.6984 F1200   ; Retract
G1 Z7.50 F600   ; Z-hop
G1 X106.000 Y100.000 F1200   ; Travel → fill ring 3 (r=6.0mm)
G1 Z6.50 F300   ; Lower to Z
G1 E2.1984 F1200   ; Prime
G1 X105.977 Y100.523 E2.2115 F800
G1 X105.909 Y101.042 E2.2246 F800
G1 X105.796 Y101.553 E2.2377 F800
G1 X105.638 Y102.052 E2.2508 F800
G1 X105.438 Y102.536 E2.2638 F800
G1 X105.196 Y103.000 E2.2769 F800
G1 X104.915 Y103.441 E2.2900 F800
G1 X104.596 Y103.857 E2.3031 F800
G1 X104.243 Y104.243 E2.3162 F800
G1 X103.857 Y104.596 E2.3293 F800
G1 X103.441 Y104.915 E2.3424 F800
G1 X103.000 Y105.196 E2.3554 F800
G1 X102.536 Y105.438 E2.3685 F800
G1 X102.052 Y105.638 E2.3816 F800
G1 X101.553 Y105.796 E2.3947 F800
G1 X101.042 Y105.909 E2.4078 F800
G1 X100.523 Y105.977 E2.4209 F800
G1 X100.000 Y106.000 E2.4340 F800
G1 X99.477 Y105.977 E2.4470 F800
G1 X98.958 Y105.909 E2.4601 F800
G1 X98.447 Y105.796 E2.4732 F800
G1 X97.948 Y105.638 E2.4863 F800
G1 X97.464 Y105.438 E2.4994 F800
G1 X97.000 Y105.196 E2.5125 F800
G1 X96.559 Y104.915 E2.5256 F800
G1 X96.143 Y104.596 E2.5386 F800
G1 X95.757 Y104.243 E2.5517 F800
G1 X95.404 Y103.857 E2.5648 F800
G1 X95.085 Y103.441 E2.5779 F800
G1 X94.804 Y103.000 E2.5910 F800
G1 X94.562 Y102.536 E2.6041 F800
G1 X94.362 Y102.052 E2.6172 F800
G1 X94.204 Y101.553 E2.6302 F800
G1 X94.091 Y101.042 E2.6433 F800
G1 X94.023 Y100.523 E2.6564 F800
G1 X94.000 Y100.000 E2.6695 F800
G1 X94.023 Y99.477 E2.6826 F800
G1 X94.091 Y98.958 E2.6957 F800
G1 X94.204 Y98.447 E2.7088 F800
G1 X94.362 Y97.948 E2.7218 F800
G1 X94.562 Y97.464 E2.7349 F800
G1 X94.804 Y97.000 E2.7480 F800
G1 X95.085 Y96.559 E2.7611 F800
G1 X95.404 Y96.143 E2.7742 F800
G1 X95.757 Y95.757 E2.7873 F800
G1 X96.143 Y95.404 E2.8004 F800
G1 X96.559 Y95.085 E2.8135 F800
G1 X97.000 Y94.804 E2.8265 F800
G1 X97.464 Y94.562 E2.8396 F800
G1 X97.948 Y94.362 E2.8527 F800
G1 X98.447 Y94.204 E2.8658 F800
G1 X98.958 Y94.091 E2.8789 F800
G1 X99.477 Y94.023 E2.8920 F800
G1 X100.000 Y94.000 E2.9051 F800
G1 X100.523 Y94.023 E2.9181 F800
G1 X101.042 Y94.091 E2.9312 F800
G1 X101.553 Y94.204 E2.9443 F800
G1 X102.052 Y94.362 E2.9574 F800
G1 X102.536 Y94.562 E2.9705 F800
G1 X103.000 Y94.804 E2.9836 F800
G1 X103.441 Y95.085 E2.9967 F800
G1 X103.857 Y95.404 E3.0097 F800
G1 X104.243 Y95.757 E3.0228 F800
G1 X104.596 Y96.143 E3.0359 F800
G1 X104.915 Y96.559 E3.0490 F800
G1 X105.196 Y97.000 E3.0621 F800
G1 X105.438 Y97.464 E3.0752 F800
G1 X105.638 Y97.948 E3.0883 F800
G1 X105.796 Y98.447 E3.1013 F800
G1 X105.909 Y98.958 E3.1144 F800
G1 X105.977 Y99.477 E3.1275 F800
G1 X106.000 Y100.000 E3.1406 F800
G1 E1.6406 F1200   ; Retract
G1 Z7.50 F600   ; Z-hop
G1 X108.000 Y100.000 F1200   ; Travel → fill ring 4 (r=8.0mm)
G1 Z6.50 F300   ; Lower to Z
G1 E3.1406 F1200   ; Prime
G1 X107.970 Y99.303 E3.1580 F800
G1 X107.878 Y98.611 E3.1755 F800
G1 X107.727 Y97.929 E3.1929 F800
G1 X107.518 Y97.264 E3.2104 F800
G1 X107.250 Y96.619 E3.2278 F800
G1 X106.928 Y96.000 E3.2453 F800
G1 X106.553 Y95.411 E3.2627 F800
G1 X106.128 Y94.858 E3.2802 F800
G1 X105.657 Y94.343 E3.2976 F800
G1 X105.142 Y93.872 E3.3151 F800
G1 X104.589 Y93.447 E3.3325 F800
G1 X104.000 Y93.072 E3.3500 F800
G1 X103.381 Y92.750 E3.3674 F800
G1 X102.736 Y92.482 E3.3849 F800
G1 X102.071 Y92.273 E3.4023 F800
G1 X101.389 Y92.122 E3.4198 F800
G1 X100.697 Y92.030 E3.4372 F800
G1 X100.000 Y92.000 E3.4547 F800
G1 X99.303 Y92.030 E3.4721 F800
G1 X98.611 Y92.122 E3.4896 F800
G1 X97.929 Y92.273 E3.5070 F800
G1 X97.264 Y92.482 E3.5244 F800
G1 X96.619 Y92.750 E3.5419 F800
G1 X96.000 Y93.072 E3.5593 F800
G1 X95.411 Y93.447 E3.5768 F800
G1 X94.858 Y93.872 E3.5942 F800
G1 X94.343 Y94.343 E3.6117 F800
G1 X93.872 Y94.858 E3.6291 F800
G1 X93.447 Y95.411 E3.6466 F800
G1 X93.072 Y96.000 E3.6640 F800
G1 X92.750 Y96.619 E3.6815 F800
G1 X92.482 Y97.264 E3.6989 F800
G1 X92.273 Y97.929 E3.7164 F800
G1 X92.122 Y98.611 E3.7338 F800
G1 X92.030 Y99.303 E3.7513 F800
G1 X92.000 Y100.000 E3.7687 F800
G1 X92.030 Y100.697 E3.7862 F800
G1 X92.122 Y101.389 E3.8036 F800
G1 X92.273 Y102.071 E3.8211 F800
G1 X92.482 Y102.736 E3.8385 F800
G1 X92.750 Y103.381 E3.8560 F800
G1 X93.072 Y104.000 E3.8734 F800
G1 X93.447 Y104.589 E3.8908 F800
G1 X93.872 Y105.142 E3.9083 F800
G1 X94.343 Y105.657 E3.9257 F800
G1 X94.858 Y106.128 E3.9432 F800
G1 X95.411 Y106.553 E3.9606 F800
G1 X96.000 Y106.928 E3.9781 F800
G1 X96.619 Y107.250 E3.9955 F800
G1 X97.264 Y107.518 E4.0130 F800
G1 X97.929 Y107.727 E4.0304 F800
G1 X98.611 Y107.878 E4.0479 F800
G1 X99.303 Y107.970 E4.0653 F800
G1 X100.000 Y108.000 E4.0828 F800
G1 X100.697 Y107.970 E4.1002 F800
G1 X101.389 Y107.878 E4.1177 F800
G1 X102.071 Y107.727 E4.1351 F800
G1 X102.736 Y107.518 E4.1526 F800
G1 X103.381 Y107.250 E4.1700 F800
G1 X104.000 Y106.928 E4.1875 F800
G1 X104.589 Y106.553 E4.2049 F800
G1 X105.142 Y106.128 E4.2224 F800
G1 X105.657 Y105.657 E4.2398 F800
G1 X106.128 Y105.142 E4.2573 F800
G1 X106.553 Y104.589 E4.2747 F800
G1 X106.928 Y104.000 E4.2921 F800
G1 X107.250 Y103.381 E4.3096 F800
G1 X107.518 Y102.736 E4.3270 F800
G1 X107.727 Y102.071 E4.3445 F800
G1 X107.878 Y101.389 E4.3619 F800
G1 X107.970 Y100.697 E4.3794 F800
G1 X108.000 Y100.000 E4.3968 F800
G1 E2.8968 F1200   ; Retract
G1 Z7.50 F600   ; Z-hop
G1 X110.000 Y100.000 F1200   ; Travel → fill ring 5 (r=10.0mm)
G1 Z6.50 F300   ; Lower to Z
G1 E4.3968 F1200   ; Prime
G1 X109.962 Y100.872 E4.4186 F800
G1 X109.848 Y101.736 E4.4405 F800
G1 X109.659 Y102.588 E4.4623 F800
G1 X109.397 Y103.420 E4.4841 F800
G1 X109.063 Y104.226 E4.5059 F800
G1 X108.660 Y105.000 E4.5277 F800
G1 X108.192 Y105.736 E4.5495 F800
G1 X107.660 Y106.428 E4.5713 F800
G1 X107.071 Y107.071 E4.5931 F800
G1 X106.428 Y107.660 E4.6149 F800
G1 X105.736 Y108.192 E4.6367 F800
G1 X105.000 Y108.660 E4.6586 F800
G1 X104.226 Y109.063 E4.6804 F800
G1 X103.420 Y109.397 E4.7022 F800
G1 X102.588 Y109.659 E4.7240 F800
G1 X101.736 Y109.848 E4.7458 F800
G1 X100.872 Y109.962 E4.7676 F800
G1 X100.000 Y110.000 E4.7894 F800
G1 X99.128 Y109.962 E4.8112 F800
G1 X98.264 Y109.848 E4.8330 F800
G1 X97.412 Y109.659 E4.8548 F800
G1 X96.580 Y109.397 E4.8766 F800
G1 X95.774 Y109.063 E4.8985 F800
G1 X95.000 Y108.660 E4.9203 F800
G1 X94.264 Y108.192 E4.9421 F800
G1 X93.572 Y107.660 E4.9639 F800
G1 X92.929 Y107.071 E4.9857 F800
G1 X92.340 Y106.428 E5.0075 F800
G1 X91.808 Y105.736 E5.0293 F800
G1 X91.340 Y105.000 E5.0511 F800
G1 X90.937 Y104.226 E5.0729 F800
G1 X90.603 Y103.420 E5.0947 F800
G1 X90.341 Y102.588 E5.1166 F800
G1 X90.152 Y101.736 E5.1384 F800
G1 X90.038 Y100.872 E5.1602 F800
G1 X90.000 Y100.000 E5.1820 F800
G1 X90.038 Y99.128 E5.2038 F800
G1 X90.152 Y98.264 E5.2256 F800
G1 X90.341 Y97.412 E5.2474 F800
G1 X90.603 Y96.580 E5.2692 F800
G1 X90.937 Y95.774 E5.2910 F800
G1 X91.340 Y95.000 E5.3128 F800
G1 X91.808 Y94.264 E5.3347 F800
G1 X92.340 Y93.572 E5.3565 F800
G1 X92.929 Y92.929 E5.3783 F800
G1 X93.572 Y92.340 E5.4001 F800
G1 X94.264 Y91.808 E5.4219 F800
G1 X95.000 Y91.340 E5.4437 F800
G1 X95.774 Y90.937 E5.4655 F800
G1 X96.580 Y90.603 E5.4873 F800
G1 X97.412 Y90.341 E5.5091 F800
G1 X98.264 Y90.152 E5.5309 F800
G1 X99.128 Y90.038 E5.5527 F800
G1 X100.000 Y90.000 E5.5746 F800
G1 X100.872 Y90.038 E5.5964 F800
G1 X101.736 Y90.152 E5.6182 F800
G1 X102.588 Y90.341 E5.6400 F800
G1 X103.420 Y90.603 E5.6618 F800
G1 X104.226 Y90.937 E5.6836 F800
G1 X105.000 Y91.340 E5.7054 F800
G1 X105.736 Y91.808 E5.7272 F800
G1 X106.428 Y92.340 E5.7490 F800
G1 X107.071 Y92.929 E5.7708 F800
G1 X107.660 Y93.572 E5.7927 F800
G1 X108.192 Y94.264 E5.8145 F800
G1 X108.660 Y95.000 E5.8363 F800
G1 X109.063 Y95.774 E5.8581 F800
G1 X109.397 Y96.580 E5.8799 F800
G1 X109.659 Y97.412 E5.9017 F800
G1 X109.848 Y98.264 E5.9235 F800
G1 X109.962 Y99.128 E5.9453 F800
G1 X110.000 Y100.000 E5.9671 F800
G1 E4.4671 F1200   ; Retract
G1 Z7.50 F600   ; Z-hop
G1 X112.000 Y100.000 F1200   ; Travel → fill ring 6 (r=12.0mm)
G1 Z6.50 F300   ; Lower to Z
G1 E5.9671 F1200   ; Prime
G1 X111.954 Y98.954 E5.9933 F800
G1 X111.818 Y97.916 E6.0195 F800
G1 X111.591 Y96.894 E6.0456 F800
G1 X111.276 Y95.896 E6.0718 F800
G1 X110.876 Y94.929 E6.0980 F800
G1 X110.392 Y94.000 E6.1242 F800
G1 X109.830 Y93.117 E6.1503 F800
G1 X109.193 Y92.287 E6.1765 F800
G1 X108.485 Y91.515 E6.2027 F800
G1 X107.713 Y90.807 E6.2288 F800
G1 X106.883 Y90.170 E6.2550 F800
G1 X106.000 Y89.608 E6.2812 F800
G1 X105.071 Y89.124 E6.3074 F800
G1 X104.104 Y88.724 E6.3335 F800
G1 X103.106 Y88.409 E6.3597 F800
G1 X102.084 Y88.182 E6.3859 F800
G1 X101.046 Y88.046 E6.4120 F800
G1 X100.000 Y88.000 E6.4382 F800
G1 X98.954 Y88.046 E6.4644 F800
G1 X97.916 Y88.182 E6.4906 F800
G1 X96.894 Y88.409 E6.5167 F800
G1 X95.896 Y88.724 E6.5429 F800
G1 X94.929 Y89.124 E6.5691 F800
G1 X94.000 Y89.608 E6.5953 F800
G1 X93.117 Y90.170 E6.6214 F800
G1 X92.287 Y90.807 E6.6476 F800
G1 X91.515 Y91.515 E6.6738 F800
G1 X90.807 Y92.287 E6.6999 F800
G1 X90.170 Y93.117 E6.7261 F800
G1 X89.608 Y94.000 E6.7523 F800
G1 X89.124 Y94.929 E6.7785 F800
G1 X88.724 Y95.896 E6.8046 F800
G1 X88.409 Y96.894 E6.8308 F800
G1 X88.182 Y97.916 E6.8570 F800
G1 X88.046 Y98.954 E6.8831 F800
G1 X88.000 Y100.000 E6.9093 F800
G1 X88.046 Y101.046 E6.9355 F800
G1 X88.182 Y102.084 E6.9617 F800
G1 X88.409 Y103.106 E6.9878 F800
G1 X88.724 Y104.104 E7.0140 F800
G1 X89.124 Y105.071 E7.0402 F800
G1 X89.608 Y106.000 E7.0663 F800
G1 X90.170 Y106.883 E7.0925 F800
G1 X90.807 Y107.713 E7.1187 F800
G1 X91.515 Y108.485 E7.1449 F800
G1 X92.287 Y109.193 E7.1710 F800
G1 X93.117 Y109.830 E7.1972 F800
G1 X94.000 Y110.392 E7.2234 F800
G1 X94.929 Y110.876 E7.2495 F800
G1 X95.896 Y111.276 E7.2757 F800
G1 X96.894 Y111.591 E7.3019 F800
G1 X97.916 Y111.818 E7.3281 F800
G1 X98.954 Y111.954 E7.3542 F800
G1 X100.000 Y112.000 E7.3804 F800
G1 X101.046 Y111.954 E7.4066 F800
G1 X102.084 Y111.818 E7.4327 F800
G1 X103.106 Y111.591 E7.4589 F800
G1 X104.104 Y111.276 E7.4851 F800
G1 X105.071 Y110.876 E7.5113 F800
G1 X106.000 Y110.392 E7.5374 F800
G1 X106.883 Y109.830 E7.5636 F800
G1 X107.713 Y109.193 E7.5898 F800
G1 X108.485 Y108.485 E7.6159 F800
G1 X109.193 Y107.713 E7.6421 F800
G1 X109.830 Y106.883 E7.6683 F800
G1 X110.392 Y106.000 E7.6945 F800
G1 X110.876 Y105.071 E7.7206 F800
G1 X111.276 Y104.104 E7.7468 F800
G1 X111.591 Y103.106 E7.7730 F800
G1 X111.818 Y102.084 E7.7991 F800
G1 X111.954 Y101.046 E7.8253 F800
G1 X112.000 Y100.000 E7.8515 F800
G1 E6.3515 F1200   ; Retract
G1 Z7.50 F600   ; Z-hop
G1 X114.000 Y100.000 F1200   ; Travel → fill ring 7 (r=14.0mm)
G1 Z6.50 F300   ; Lower to Z
G1 E7.8515 F1200   ; Prime
G1 X113.947 Y101.220 E7.8820 F800
G1 X113.787 Y102.431 E7.9126 F800
G1 X113.523 Y103.623 E7.9431 F800
G1 X113.156 Y104.788 E7.9736 F800
G1 X112.688 Y105.917 E8.0042 F800
G1 X112.124 Y107.000 E8.0347 F800
G1 X111.468 Y108.030 E8.0652 F800
G1 X110.725 Y108.999 E8.0958 F800
G1 X109.899 Y109.899 E8.1263 F800
G1 X108.999 Y110.725 E8.1568 F800
G1 X108.030 Y111.468 E8.1874 F800
G1 X107.000 Y112.124 E8.2179 F800
G1 X105.917 Y112.688 E8.2484 F800
G1 X104.788 Y113.156 E8.2790 F800
G1 X103.623 Y113.523 E8.3095 F800
G1 X102.431 Y113.787 E8.3400 F800
G1 X101.220 Y113.947 E8.3706 F800
G1 X100.000 Y114.000 E8.4011 F800
G1 X98.780 Y113.947 E8.4316 F800
G1 X97.569 Y113.787 E8.4622 F800
G1 X96.377 Y113.523 E8.4927 F800
G1 X95.212 Y113.156 E8.5232 F800
G1 X94.083 Y112.688 E8.5538 F800
G1 X93.000 Y112.124 E8.5843 F800
G1 X91.970 Y111.468 E8.6148 F800
G1 X91.001 Y110.725 E8.6454 F800
G1 X90.101 Y109.899 E8.6759 F800
G1 X89.275 Y108.999 E8.7064 F800
G1 X88.532 Y108.030 E8.7370 F800
G1 X87.876 Y107.000 E8.7675 F800
G1 X87.312 Y105.917 E8.7980 F800
G1 X86.844 Y104.788 E8.8286 F800
G1 X86.477 Y103.623 E8.8591 F800
G1 X86.213 Y102.431 E8.8896 F800
G1 X86.053 Y101.220 E8.9202 F800
G1 X86.000 Y100.000 E8.9507 F800
G1 X86.053 Y98.780 E8.9812 F800
G1 X86.213 Y97.569 E9.0118 F800
G1 X86.477 Y96.377 E9.0423 F800
G1 X86.844 Y95.212 E9.0728 F800
G1 X87.312 Y94.083 E9.1034 F800
G1 X87.876 Y93.000 E9.1339 F800
G1 X88.532 Y91.970 E9.1644 F800
G1 X89.275 Y91.001 E9.1950 F800
G1 X90.101 Y90.101 E9.2255 F800
G1 X91.001 Y89.275 E9.2560 F800
G1 X91.970 Y88.532 E9.2866 F800
G1 X93.000 Y87.876 E9.3171 F800
G1 X94.083 Y87.312 E9.3476 F800
G1 X95.212 Y86.844 E9.3782 F800
G1 X96.377 Y86.477 E9.4087 F800
G1 X97.569 Y86.213 E9.4392 F800
G1 X98.780 Y86.053 E9.4698 F800
G1 X100.000 Y86.000 E9.5003 F800
G1 X101.220 Y86.053 E9.5308 F800
G1 X102.431 Y86.213 E9.5614 F800
G1 X103.623 Y86.477 E9.5919 F800
G1 X104.788 Y86.844 E9.6224 F800
G1 X105.917 Y87.312 E9.6530 F800
G1 X107.000 Y87.876 E9.6835 F800
G1 X108.030 Y88.532 E9.7140 F800
G1 X108.999 Y89.275 E9.7446 F800
G1 X109.899 Y90.101 E9.7751 F800
G1 X110.725 Y91.001 E9.8056 F800
G1 X111.468 Y91.970 E9.8362 F800
G1 X112.124 Y93.000 E9.8667 F800
G1 X112.688 Y94.083 E9.8972 F800
G1 X113.156 Y95.212 E9.9278 F800
G1 X113.523 Y96.377 E9.9583 F800
G1 X113.787 Y97.569 E9.9888 F800
G1 X113.947 Y98.780 E10.0194 F800
G1 X114.000 Y100.000 E10.0499 F800
G1 E8.5499 F1200   ; Retract
G1 Z7.50 F600   ; Z-hop
G1 X116.000 Y100.000 F1200   ; Travel → fill ring 8 (r=16.0mm)
G1 Z6.50 F300   ; Lower to Z
G1 E10.0499 F1200   ; Prime
G1 X115.939 Y98.606 E10.0848 F800
G1 X115.757 Y97.222 E10.1197 F800
G1 X115.455 Y95.859 E10.1546 F800
G1 X115.035 Y94.528 E10.1895 F800
G1 X114.501 Y93.238 E10.2244 F800
G1 X113.856 Y92.000 E10.2593 F800
G1 X113.106 Y90.823 E10.2942 F800
G1 X112.257 Y89.715 E10.3291 F800
G1 X111.314 Y88.686 E10.3640 F800
G1 X110.285 Y87.743 E10.3989 F800
G1 X109.177 Y86.894 E10.4338 F800
G1 X108.000 Y86.144 E10.4687 F800
G1 X106.762 Y85.499 E10.5035 F800
G1 X105.472 Y84.965 E10.5384 F800
G1 X104.141 Y84.545 E10.5733 F800
G1 X102.778 Y84.243 E10.6082 F800
G1 X101.394 Y84.061 E10.6431 F800
G1 X100.000 Y84.000 E10.6780 F800
G1 X98.606 Y84.061 E10.7129 F800
G1 X97.222 Y84.243 E10.7478 F800
G1 X95.859 Y84.545 E10.7827 F800
G1 X94.528 Y84.965 E10.8176 F800
G1 X93.238 Y85.499 E10.8525 F800
G1 X92.000 Y86.144 E10.8874 F800
G1 X90.823 Y86.894 E10.9223 F800
G1 X89.715 Y87.743 E10.9572 F800
G1 X88.686 Y88.686 E10.9921 F800
G1 X87.743 Y89.715 E11.0270 F800
G1 X86.894 Y90.823 E11.0619 F800
G1 X86.144 Y92.000 E11.0968 F800
G1 X85.499 Y93.238 E11.1317 F800
G1 X84.965 Y94.528 E11.1666 F800
G1 X84.545 Y95.859 E11.2015 F800
G1 X84.243 Y97.222 E11.2364 F800
G1 X84.061 Y98.606 E11.2712 F800
G1 X84.000 Y100.000 E11.3061 F800
G1 X84.061 Y101.394 E11.3410 F800
G1 X84.243 Y102.778 E11.3759 F800
G1 X84.545 Y104.141 E11.4108 F800
G1 X84.965 Y105.472 E11.4457 F800
G1 X85.499 Y106.762 E11.4806 F800
G1 X86.144 Y108.000 E11.5155 F800
G1 X86.894 Y109.177 E11.5504 F800
G1 X87.743 Y110.285 E11.5853 F800
G1 X88.686 Y111.314 E11.6202 F800
G1 X89.715 Y112.257 E11.6551 F800
G1 X90.823 Y113.106 E11.6900 F800
G1 X92.000 Y113.856 E11.7249 F800
G1 X93.238 Y114.501 E11.7598 F800
G1 X94.528 Y115.035 E11.7947 F800
G1 X95.859 Y115.455 E11.8296 F800
G1 X97.222 Y115.757 E11.8645 F800
G1 X98.606 Y115.939 E11.8994 F800
G1 X100.000 Y116.000 E11.9343 F800
G1 X101.394 Y115.939 E11.9692 F800
G1 X102.778 Y115.757 E12.0041 F800
G1 X104.141 Y115.455 E12.0390 F800
G1 X105.472 Y115.035 E12.0738 F800
G1 X106.762 Y114.501 E12.1087 F800
G1 X108.000 Y113.856 E12.1436 F800
G1 X109.177 Y113.106 E12.1785 F800
G1 X110.285 Y112.257 E12.2134 F800
G1 X111.314 Y111.314 E12.2483 F800
G1 X112.257 Y110.285 E12.2832 F800
G1 X113.106 Y109.177 E12.3181 F800
G1 X113.856 Y108.000 E12.3530 F800
G1 X114.501 Y106.762 E12.3879 F800
G1 X115.035 Y105.472 E12.4228 F800
G1 X115.455 Y104.141 E12.4577 F800
G1 X115.757 Y102.778 E12.4926 F800
G1 X115.939 Y101.394 E12.5275 F800
G1 X116.000 Y100.000 E12.5624 F800
G1 E11.0624 F1200   ; Retract
G1 Z7.50 F600   ; Z-hop
G1 X118.000 Y100.000 F1200   ; Travel → fill ring 9 (r=18.0mm)
G1 Z6.50 F300   ; Lower to Z
G1 E12.5624 F1200   ; Prime
G1 X117.932 Y101.569 E12.6016 F800
G1 X117.727 Y103.126 E12.6409 F800
G1 X117.387 Y104.659 E12.6802 F800
G1 X116.914 Y106.156 E12.7194 F800
G1 X116.314 Y107.607 E12.7587 F800
G1 X115.588 Y109.000 E12.7979 F800
G1 X114.745 Y110.324 E12.8372 F800
G1 X113.789 Y111.570 E12.8764 F800
G1 X112.728 Y112.728 E12.9157 F800
G1 X111.570 Y113.789 E12.9550 F800
G1 X110.324 Y114.745 E12.9942 F800
G1 X109.000 Y115.588 E13.0335 F800
G1 X107.607 Y116.314 E13.0727 F800
G1 X106.156 Y116.914 E13.1120 F800
G1 X104.659 Y117.387 E13.1512 F800
G1 X103.126 Y117.727 E13.1905 F800
G1 X101.569 Y117.932 E13.2298 F800
G1 X100.000 Y118.000 E13.2690 F800
G1 X98.431 Y117.932 E13.3083 F800
G1 X96.874 Y117.727 E13.3475 F800
G1 X95.341 Y117.387 E13.3868 F800
G1 X93.844 Y116.914 E13.4260 F800
G1 X92.393 Y116.314 E13.4653 F800
G1 X91.000 Y115.588 E13.5046 F800
G1 X89.676 Y114.745 E13.5438 F800
G1 X88.430 Y113.789 E13.5831 F800
G1 X87.272 Y112.728 E13.6223 F800
G1 X86.211 Y111.570 E13.6616 F800
G1 X85.255 Y110.324 E13.7008 F800
G1 X84.412 Y109.000 E13.7401 F800
G1 X83.686 Y107.607 E13.7794 F800
G1 X83.086 Y106.156 E13.8186 F800
G1 X82.613 Y104.659 E13.8579 F800
G1 X82.273 Y103.126 E13.8971 F800
G1 X82.068 Y101.569 E13.9364 F800
G1 X82.000 Y100.000 E13.9757 F800
G1 X82.068 Y98.431 E14.0149 F800
G1 X82.273 Y96.874 E14.0542 F800
G1 X82.613 Y95.341 E14.0934 F800
G1 X83.086 Y93.844 E14.1327 F800
G1 X83.686 Y92.393 E14.1719 F800
G1 X84.412 Y91.000 E14.2112 F800
G1 X85.255 Y89.676 E14.2505 F800
G1 X86.211 Y88.430 E14.2897 F800
G1 X87.272 Y87.272 E14.3290 F800
G1 X88.430 Y86.211 E14.3682 F800
G1 X89.676 Y85.255 E14.4075 F800
G1 X91.000 Y84.412 E14.4467 F800
G1 X92.393 Y83.686 E14.4860 F800
G1 X93.844 Y83.086 E14.5253 F800
G1 X95.341 Y82.613 E14.5645 F800
G1 X96.874 Y82.273 E14.6038 F800
G1 X98.431 Y82.068 E14.6430 F800
G1 X100.000 Y82.000 E14.6823 F800
G1 X101.569 Y82.068 E14.7215 F800
G1 X103.126 Y82.273 E14.7608 F800
G1 X104.659 Y82.613 E14.8001 F800
G1 X106.156 Y83.086 E14.8393 F800
G1 X107.607 Y83.686 E14.8786 F800
G1 X109.000 Y84.412 E14.9178 F800
G1 X110.324 Y85.255 E14.9571 F800
G1 X111.570 Y86.211 E14.9963 F800
G1 X112.728 Y87.272 E15.0356 F800
G1 X113.789 Y88.430 E15.0749 F800
G1 X114.745 Y89.676 E15.1141 F800
G1 X115.588 Y91.000 E15.1534 F800
G1 X116.314 Y92.393 E15.1926 F800
G1 X116.914 Y93.844 E15.2319 F800
G1 X117.387 Y95.341 E15.2711 F800
G1 X117.727 Y96.874 E15.3104 F800
G1 X117.932 Y98.431 E15.3497 F800
G1 X118.000 Y100.000 E15.3889 F800
G1 E13.8889 F1200   ; Retract
G1 Z7.50 F600   ; Z-hop
G1 X120.000 Y100.000 F1200   ; Travel → fill ring 10 (r=20.0mm)
G1 Z6.50 F300   ; Lower to Z
G1 E15.3889 F1200   ; Prime
G1 X119.924 Y98.257 E15.4325 F800
G1 X119.696 Y96.527 E15.4762 F800
G1 X119.319 Y94.824 E15.5198 F800
G1 X118.794 Y93.160 E15.5634 F800
G1 X118.126 Y91.548 E15.6070 F800
G1 X117.321 Y90.000 E15.6506 F800
G1 X116.383 Y88.528 E15.6943 F800
G1 X115.321 Y87.144 E15.7379 F800
G1 X114.142 Y85.858 E15.7815 F800
G1 X112.856 Y84.679 E15.8251 F800
G1 X111.472 Y83.617 E15.8687 F800
G1 X110.000 Y82.679 E15.9124 F800
G1 X108.452 Y81.874 E15.9560 F800
G1 X106.840 Y81.206 E15.9996 F800
G1 X105.176 Y80.681 E16.0432 F800
G1 X103.473 Y80.304 E16.0868 F800
G1 X101.743 Y80.076 E16.1304 F800
G1 X100.000 Y80.000 E16.1741 F800
G1 X98.257 Y80.076 E16.2177 F800
G1 X96.527 Y80.304 E16.2613 F800
G1 X94.824 Y80.681 E16.3049 F800
G1 X93.160 Y81.206 E16.3485 F800
G1 X91.548 Y81.874 E16.3922 F800
G1 X90.000 Y82.679 E16.4358 F800
G1 X88.528 Y83.617 E16.4794 F800
G1 X87.144 Y84.679 E16.5230 F800
G1 X85.858 Y85.858 E16.5666 F800
G1 X84.679 Y87.144 E16.6103 F800
G1 X83.617 Y88.528 E16.6539 F800
G1 X82.679 Y90.000 E16.6975 F800
G1 X81.874 Y91.548 E16.7411 F800
G1 X81.206 Y93.160 E16.7847 F800
G1 X80.681 Y94.824 E16.8284 F800
G1 X80.304 Y96.527 E16.8720 F800
G1 X80.076 Y98.257 E16.9156 F800
G1 X80.000 Y100.000 E16.9592 F800
G1 X80.076 Y101.743 E17.0028 F800
G1 X80.304 Y103.473 E17.0465 F800
G1 X80.681 Y105.176 E17.0901 F800
G1 X81.206 Y106.840 E17.1337 F800
G1 X81.874 Y108.452 E17.1773 F800
G1 X82.679 Y110.000 E17.2209 F800
G1 X83.617 Y111.472 E17.2646 F800
G1 X84.679 Y112.856 E17.3082 F800
G1 X85.858 Y114.142 E17.3518 F800
G1 X87.144 Y115.321 E17.3954 F800
G1 X88.528 Y116.383 E17.4390 F800
G1 X90.000 Y117.321 E17.4827 F800
G1 X91.548 Y118.126 E17.5263 F800
G1 X93.160 Y118.794 E17.5699 F800
G1 X94.824 Y119.319 E17.6135 F800
G1 X96.527 Y119.696 E17.6571 F800
G1 X98.257 Y119.924 E17.7007 F800
G1 X100.000 Y120.000 E17.7444 F800
G1 X101.743 Y119.924 E17.7880 F800
G1 X103.473 Y119.696 E17.8316 F800
G1 X105.176 Y119.319 E17.8752 F800
G1 X106.840 Y118.794 E17.9188 F800
G1 X108.452 Y118.126 E17.9625 F800
G1 X110.000 Y117.321 E18.0061 F800
G1 X111.472 Y116.383 E18.0497 F800
G1 X112.856 Y115.321 E18.0933 F800
G1 X114.142 Y114.142 E18.1369 F800
G1 X115.321 Y112.856 E18.1806 F800
G1 X116.383 Y111.472 E18.2242 F800
G1 X117.321 Y110.000 E18.2678 F800
G1 X118.126 Y108.452 E18.3114 F800
G1 X118.794 Y106.840 E18.3550 F800
G1 X119.319 Y105.176 E18.3987 F800
G1 X119.696 Y103.473 E18.4423 F800
G1 X119.924 Y101.743 E18.4859 F800
G1 X120.000 Y100.000 E18.5295 F800
G1 E17.0295 F1200   ; Retract
G1 Z7.50 F600   ; Z-hop
G1 X122.000 Y100.000 F1200   ; Travel → fill ring 11 (r=22.0mm)
G1 Z6.50 F300   ; Lower to Z
G1 E18.5295 F1200   ; Prime
G1 X121.916 Y101.917 E18.5775 F800
G1 X121.666 Y103.820 E18.6255 F800
G1 X121.250 Y105.694 E18.6735 F800
G1 X120.673 Y107.524 E18.7214 F800
G1 X119.939 Y109.298 E18.7694 F800
G1 X119.053 Y111.000 E18.8174 F800
G1 X118.021 Y112.619 E18.8654 F800
G1 X116.853 Y114.141 E18.9134 F800
G1 X115.556 Y115.556 E18.9613 F800
G1 X114.141 Y116.853 E19.0093 F800
G1 X112.619 Y118.021 E19.0573 F800
G1 X111.000 Y119.053 E19.1053 F800
G1 X109.298 Y119.939 E19.1533 F800
G1 X107.524 Y120.673 E19.2013 F800
G1 X105.694 Y121.250 E19.2492 F800
G1 X103.820 Y121.666 E19.2972 F800
G1 X101.917 Y121.916 E19.3452 F800
G1 X100.000 Y122.000 E19.3932 F800
G1 X98.083 Y121.916 E19.4412 F800
G1 X96.180 Y121.666 E19.4891 F800
G1 X94.306 Y121.250 E19.5371 F800
G1 X92.476 Y120.673 E19.5851 F800
G1 X90.702 Y119.939 E19.6331 F800
G1 X89.000 Y119.053 E19.6811 F800
G1 X87.381 Y118.021 E19.7290 F800
G1 X85.859 Y116.853 E19.7770 F800
G1 X84.444 Y115.556 E19.8250 F800
G1 X83.147 Y114.141 E19.8730 F800
G1 X81.979 Y112.619 E19.9210 F800
G1 X80.947 Y111.000 E19.9690 F800
G1 X80.061 Y109.298 E20.0169 F800
G1 X79.327 Y107.524 E20.0649 F800
G1 X78.750 Y105.694 E20.1129 F800
G1 X78.334 Y103.820 E20.1609 F800
G1 X78.084 Y101.917 E20.2089 F800
G1 X78.000 Y100.000 E20.2568 F800
G1 X78.084 Y98.083 E20.3048 F800
G1 X78.334 Y96.180 E20.3528 F800
G1 X78.750 Y94.306 E20.4008 F800
G1 X79.327 Y92.476 E20.4488 F800
G1 X80.061 Y90.702 E20.4968 F800
G1 X80.947 Y89.000 E20.5447 F800
G1 X81.979 Y87.381 E20.5927 F800
G1 X83.147 Y85.859 E20.6407 F800
G1 X84.444 Y84.444 E20.6887 F800
G1 X85.859 Y83.147 E20.7367 F800
G1 X87.381 Y81.979 E20.7846 F800
G1 X89.000 Y80.947 E20.8326 F800
G1 X90.702 Y80.061 E20.8806 F800
G1 X92.476 Y79.327 E20.9286 F800
G1 X94.306 Y78.750 E20.9766 F800
G1 X96.180 Y78.334 E21.0245 F800
G1 X98.083 Y78.084 E21.0725 F800
G1 X100.000 Y78.000 E21.1205 F800
G1 X101.917 Y78.084 E21.1685 F800
G1 X103.820 Y78.334 E21.2165 F800
G1 X105.694 Y78.750 E21.2645 F800
G1 X107.524 Y79.327 E21.3124 F800
G1 X109.298 Y80.061 E21.3604 F800
G1 X111.000 Y80.947 E21.4084 F800
G1 X112.619 Y81.979 E21.4564 F800
G1 X114.141 Y83.147 E21.5044 F800
G1 X115.556 Y84.444 E21.5523 F800
G1 X116.853 Y85.859 E21.6003 F800
G1 X118.021 Y87.381 E21.6483 F800
G1 X119.053 Y89.000 E21.6963 F800
G1 X119.939 Y90.702 E21.7443 F800
G1 X120.673 Y92.476 E21.7922 F800
G1 X121.250 Y94.306 E21.8402 F800
G1 X121.666 Y96.180 E21.8882 F800
G1 X121.916 Y98.083 E21.9362 F800
G1 X122.000 Y100.000 E21.9842 F800
G1 E20.4842 F1200   ; Retract
G1 Z7.50 F600   ; Z-hop
G1 X123.000 Y100.000 F1200   ; Travel → fill ring 12 (r=23.0mm)
G1 Z6.50 F300   ; Lower to Z
G1 E21.9842 F1200   ; Prime
G1 X122.912 Y97.995 E22.0343 F800
G1 X122.651 Y96.006 E22.0845 F800
G1 X122.216 Y94.047 E22.1347 F800
G1 X121.613 Y92.134 E22.1848 F800
G1 X120.845 Y90.280 E22.2350 F800
G1 X119.919 Y88.500 E22.2851 F800
G1 X118.840 Y86.808 E22.3353 F800
G1 X117.619 Y85.216 E22.3855 F800
G1 X116.263 Y83.737 E22.4356 F800
G1 X114.784 Y82.381 E22.4858 F800
G1 X113.192 Y81.160 E22.5360 F800
G1 X111.500 Y80.081 E22.5861 F800
G1 X109.720 Y79.155 E22.6363 F800
G1 X107.866 Y78.387 E22.6864 F800
G1 X105.953 Y77.784 E22.7366 F800
G1 X103.994 Y77.349 E22.7868 F800
G1 X102.005 Y77.088 E22.8369 F800
G1 X100.000 Y77.000 E22.8871 F800
G1 X97.995 Y77.088 E22.9373 F800
G1 X96.006 Y77.349 E22.9874 F800
G1 X94.047 Y77.784 E23.0376 F800
G1 X92.134 Y78.387 E23.0877 F800
G1 X90.280 Y79.155 E23.1379 F800
G1 X88.500 Y80.081 E23.1881 F800
G1 X86.808 Y81.160 E23.2382 F800
G1 X85.216 Y82.381 E23.2884 F800
G1 X83.737 Y83.737 E23.3386 F800
G1 X82.381 Y85.216 E23.3887 F800
G1 X81.160 Y86.808 E23.4389 F800
G1 X80.081 Y88.500 E23.4890 F800
G1 X79.155 Y90.280 E23.5392 F800
G1 X78.387 Y92.134 E23.5894 F800
G1 X77.784 Y94.047 E23.6395 F800
G1 X77.349 Y96.006 E23.6897 F800
G1 X77.088 Y97.995 E23.7399 F800
G1 X77.000 Y100.000 E23.7900 F800
G1 X77.088 Y102.005 E23.8402 F800
G1 X77.349 Y103.994 E23.8903 F800
G1 X77.784 Y105.953 E23.9405 F800
G1 X78.387 Y107.866 E23.9907 F800
G1 X79.155 Y109.720 E24.0408 F800
G1 X80.081 Y111.500 E24.0910 F800
G1 X81.160 Y113.192 E24.1411 F800
G1 X82.381 Y114.784 E24.1913 F800
G1 X83.737 Y116.263 E24.2415 F800
G1 X85.216 Y117.619 E24.2916 F800
G1 X86.808 Y118.840 E24.3418 F800
G1 X88.500 Y119.919 E24.3920 F800
G1 X90.280 Y120.845 E24.4421 F800
G1 X92.134 Y121.613 E24.4923 F800
G1 X94.047 Y122.216 E24.5424 F800
G1 X96.006 Y122.651 E24.5926 F800
G1 X97.995 Y122.912 E24.6428 F800
G1 X100.000 Y123.000 E24.6929 F800
G1 X102.005 Y122.912 E24.7431 F800
G1 X103.994 Y122.651 E24.7933 F800
G1 X105.953 Y122.216 E24.8434 F800
G1 X107.866 Y121.613 E24.8936 F800
G1 X109.720 Y120.845 E24.9437 F800
G1 X111.500 Y119.919 E24.9939 F800
G1 X113.192 Y118.840 E25.0441 F800
G1 X114.784 Y117.619 E25.0942 F800
G1 X116.263 Y116.263 E25.1444 F800
G1 X117.619 Y114.784 E25.1946 F800
G1 X118.840 Y113.192 E25.2447 F800
G1 X119.919 Y111.500 E25.2949 F800
G1 X120.845 Y109.720 E25.3450 F800
G1 X121.613 Y107.866 E25.3952 F800
G1 X122.216 Y105.953 E25.4454 F800
G1 X122.651 Y103.994 E25.4955 F800
G1 X122.912 Y102.005 E25.5457 F800
G1 X123.000 Y100.000 E25.5959 F800
G1 E24.0959 F1200   ; Retract

; === FINISH ===
G1 Z26.5 F600      ; Raise nozzle clear
G1 X0 Y0 F1200   ; Move to home position
M84              ; Disable motors

; === END ===
