; Diane Fort V2 Circular Tower — Outline G-code
; Food Printing assignment
;
; Circular tower layers: 20
; Total layers: 20
; Layer height: 2.0mm
; First layer Z: 1.0mm
; Center: (100, 100)
; Tower radius: 26.0mm
; Tower diameter: 52.0mm

; === INITIALIZATION ===
G21              ; Set units to millimeters
G90              ; Absolute positioning
M82              ; Absolute extrusion mode
G28              ; Home all axes


; === TOWER LAYER 1/20 (Z=1.0mm, circular tower) ===
G1 Z2.00 F600   ; Z-hop
G1 X126.000 Y100.000 F1200   ; Travel to tower outline
G1 Z1.00 F300   ; Lower to layer height
G1 X125.901 Y102.266 E0.1474 F300
G1 X125.605 Y104.515 E0.2949 F300
G1 X125.114 Y106.729 E0.4423 F300
G1 X124.432 Y108.893 E0.5897 F300
G1 X123.564 Y110.988 E0.7372 F300
G1 X122.517 Y113.000 E0.8846 F300
G1 X121.298 Y114.913 E1.0320 F300
G1 X119.917 Y116.712 E1.1795 F300
G1 X118.385 Y118.385 E1.3269 F300
G1 X116.712 Y119.917 E1.4743 F300
G1 X114.913 Y121.298 E1.6218 F300
G1 X113.000 Y122.517 E1.7692 F300
G1 X110.988 Y123.564 E1.9166 F300
G1 X108.893 Y124.432 E2.0641 F300
G1 X106.729 Y125.114 E2.2115 F300
G1 X104.515 Y125.605 E2.3589 F300
G1 X102.266 Y125.901 E2.5064 F300
G1 X100.000 Y126.000 E2.6538 F300
G1 X97.734 Y125.901 E2.8012 F300
G1 X95.485 Y125.605 E2.9487 F300
G1 X93.271 Y125.114 E3.0961 F300
G1 X91.107 Y124.432 E3.2435 F300
G1 X89.012 Y123.564 E3.3910 F300
G1 X87.000 Y122.517 E3.5384 F300
G1 X85.087 Y121.298 E3.6858 F300
G1 X83.288 Y119.917 E3.8333 F300
G1 X81.615 Y118.385 E3.9807 F300
G1 X80.083 Y116.712 E4.1281 F300
G1 X78.702 Y114.913 E4.2756 F300
G1 X77.483 Y113.000 E4.4230 F300
G1 X76.436 Y110.988 E4.5704 F300
G1 X75.568 Y108.893 E4.7179 F300
G1 X74.886 Y106.729 E4.8653 F300
G1 X74.395 Y104.515 E5.0127 F300
G1 X74.099 Y102.266 E5.1602 F300
G1 X74.000 Y100.000 E5.3076 F300
G1 X74.099 Y97.734 E5.4550 F300
G1 X74.395 Y95.485 E5.6025 F300
G1 X74.886 Y93.271 E5.7499 F300
G1 X75.568 Y91.107 E5.8973 F300
G1 X76.436 Y89.012 E6.0448 F300
G1 X77.483 Y87.000 E6.1922 F300
G1 X78.702 Y85.087 E6.3396 F300
G1 X80.083 Y83.288 E6.4871 F300
G1 X81.615 Y81.615 E6.6345 F300
G1 X83.288 Y80.083 E6.7819 F300
G1 X85.087 Y78.702 E6.9294 F300
G1 X87.000 Y77.483 E7.0768 F300
G1 X89.012 Y76.436 E7.2242 F300
G1 X91.107 Y75.568 E7.3717 F300
G1 X93.271 Y74.886 E7.5191 F300
G1 X95.485 Y74.395 E7.6665 F300
G1 X97.734 Y74.099 E7.8140 F300
G1 X100.000 Y74.000 E7.9614 F300
G1 X102.266 Y74.099 E8.1088 F300
G1 X104.515 Y74.395 E8.2563 F300
G1 X106.729 Y74.886 E8.4037 F300
G1 X108.893 Y75.568 E8.5511 F300
G1 X110.988 Y76.436 E8.6986 F300
G1 X113.000 Y77.483 E8.8460 F300
G1 X114.913 Y78.702 E8.9934 F300
G1 X116.712 Y80.083 E9.1409 F300
G1 X118.385 Y81.615 E9.2883 F300
G1 X119.917 Y83.288 E9.4357 F300
G1 X121.298 Y85.087 E9.5832 F300
G1 X122.517 Y87.000 E9.7306 F300
G1 X123.564 Y89.012 E9.8780 F300
G1 X124.432 Y91.107 E10.0255 F300
G1 X125.114 Y93.271 E10.1729 F300
G1 X125.605 Y95.485 E10.3203 F300
G1 X125.901 Y97.734 E10.4678 F300
G1 X126.000 Y100.000 E10.6152 F300
G1 E9.1152 F1200   ; Retract

; === TOWER LAYER 2/20 (Z=3.0mm, circular tower) ===
G1 Z4.00 F600   ; Z-hop
G1 X126.000 Y100.000 F1200   ; Travel to tower outline
G1 Z3.00 F300   ; Lower to layer height
G1 E10.6152 F1200   ; Prime
G1 X125.901 Y102.266 E10.7626 F300
G1 X125.605 Y104.515 E10.9101 F300
G1 X125.114 Y106.729 E11.0575 F300
G1 X124.432 Y108.893 E11.2049 F300
G1 X123.564 Y110.988 E11.3524 F300
G1 X122.517 Y113.000 E11.4998 F300
G1 X121.298 Y114.913 E11.6472 F300
G1 X119.917 Y116.712 E11.7947 F300
G1 X118.385 Y118.385 E11.9421 F300
G1 X116.712 Y119.917 E12.0895 F300
G1 X114.913 Y121.298 E12.2370 F300
G1 X113.000 Y122.517 E12.3844 F300
G1 X110.988 Y123.564 E12.5318 F300
G1 X108.893 Y124.432 E12.6793 F300
G1 X106.729 Y125.114 E12.8267 F300
G1 X104.515 Y125.605 E12.9742 F300
G1 X102.266 Y125.901 E13.1216 F300
G1 X100.000 Y126.000 E13.2690 F300
G1 X97.734 Y125.901 E13.4165 F300
G1 X95.485 Y125.605 E13.5639 F300
G1 X93.271 Y125.114 E13.7113 F300
G1 X91.107 Y124.432 E13.8588 F300
G1 X89.012 Y123.564 E14.0062 F300
G1 X87.000 Y122.517 E14.1536 F300
G1 X85.087 Y121.298 E14.3011 F300
G1 X83.288 Y119.917 E14.4485 F300
G1 X81.615 Y118.385 E14.5959 F300
G1 X80.083 Y116.712 E14.7434 F300
G1 X78.702 Y114.913 E14.8908 F300
G1 X77.483 Y113.000 E15.0382 F300
G1 X76.436 Y110.988 E15.1857 F300
G1 X75.568 Y108.893 E15.3331 F300
G1 X74.886 Y106.729 E15.4805 F300
G1 X74.395 Y104.515 E15.6280 F300
G1 X74.099 Y102.266 E15.7754 F300
G1 X74.000 Y100.000 E15.9228 F300
G1 X74.099 Y97.734 E16.0703 F300
G1 X74.395 Y95.485 E16.2177 F300
G1 X74.886 Y93.271 E16.3651 F300
G1 X75.568 Y91.107 E16.5126 F300
G1 X76.436 Y89.012 E16.6600 F300
G1 X77.483 Y87.000 E16.8074 F300
G1 X78.702 Y85.087 E16.9549 F300
G1 X80.083 Y83.288 E17.1023 F300
G1 X81.615 Y81.615 E17.2497 F300
G1 X83.288 Y80.083 E17.3972 F300
G1 X85.087 Y78.702 E17.5446 F300
G1 X87.000 Y77.483 E17.6920 F300
G1 X89.012 Y76.436 E17.8395 F300
G1 X91.107 Y75.568 E17.9869 F300
G1 X93.271 Y74.886 E18.1343 F300
G1 X95.485 Y74.395 E18.2818 F300
G1 X97.734 Y74.099 E18.4292 F300
G1 X100.000 Y74.000 E18.5766 F300
G1 X102.266 Y74.099 E18.7241 F300
G1 X104.515 Y74.395 E18.8715 F300
G1 X106.729 Y74.886 E19.0189 F300
G1 X108.893 Y75.568 E19.1664 F300
G1 X110.988 Y76.436 E19.3138 F300
G1 X113.000 Y77.483 E19.4612 F300
G1 X114.913 Y78.702 E19.6087 F300
G1 X116.712 Y80.083 E19.7561 F300
G1 X118.385 Y81.615 E19.9035 F300
G1 X119.917 Y83.288 E20.0510 F300
G1 X121.298 Y85.087 E20.1984 F300
G1 X122.517 Y87.000 E20.3458 F300
G1 X123.564 Y89.012 E20.4933 F300
G1 X124.432 Y91.107 E20.6407 F300
G1 X125.114 Y93.271 E20.7881 F300
G1 X125.605 Y95.485 E20.9356 F300
G1 X125.901 Y97.734 E21.0830 F300
G1 X126.000 Y100.000 E21.2304 F300
G1 E19.7304 F1200   ; Retract

; === TOWER LAYER 3/20 (Z=5.0mm, circular tower) ===
G1 Z6.00 F600   ; Z-hop
G1 X126.000 Y100.000 F1200   ; Travel to tower outline
G1 Z5.00 F300   ; Lower to layer height
G1 E21.2304 F1200   ; Prime
G1 X125.901 Y102.266 E21.3779 F300
G1 X125.605 Y104.515 E21.5253 F300
G1 X125.114 Y106.729 E21.6727 F300
G1 X124.432 Y108.893 E21.8202 F300
G1 X123.564 Y110.988 E21.9676 F300
G1 X122.517 Y113.000 E22.1150 F300
G1 X121.298 Y114.913 E22.2625 F300
G1 X119.917 Y116.712 E22.4099 F300
G1 X118.385 Y118.385 E22.5573 F300
G1 X116.712 Y119.917 E22.7048 F300
G1 X114.913 Y121.298 E22.8522 F300
G1 X113.000 Y122.517 E22.9996 F300
G1 X110.988 Y123.564 E23.1471 F300
G1 X108.893 Y124.432 E23.2945 F300
G1 X106.729 Y125.114 E23.4419 F300
G1 X104.515 Y125.605 E23.5894 F300
G1 X102.266 Y125.901 E23.7368 F300
G1 X100.000 Y126.000 E23.8842 F300
G1 X97.734 Y125.901 E24.0317 F300
G1 X95.485 Y125.605 E24.1791 F300
G1 X93.271 Y125.114 E24.3265 F300
G1 X91.107 Y124.432 E24.4740 F300
G1 X89.012 Y123.564 E24.6214 F300
G1 X87.000 Y122.517 E24.7688 F300
G1 X85.087 Y121.298 E24.9163 F300
G1 X83.288 Y119.917 E25.0637 F300
G1 X81.615 Y118.385 E25.2111 F300
G1 X80.083 Y116.712 E25.3586 F300
G1 X78.702 Y114.913 E25.5060 F300
G1 X77.483 Y113.000 E25.6534 F300
G1 X76.436 Y110.988 E25.8009 F300
G1 X75.568 Y108.893 E25.9483 F300
G1 X74.886 Y106.729 E26.0957 F300
G1 X74.395 Y104.515 E26.2432 F300
G1 X74.099 Y102.266 E26.3906 F300
G1 X74.000 Y100.000 E26.5380 F300
G1 X74.099 Y97.734 E26.6855 F300
G1 X74.395 Y95.485 E26.8329 F300
G1 X74.886 Y93.271 E26.9803 F300
G1 X75.568 Y91.107 E27.1278 F300
G1 X76.436 Y89.012 E27.2752 F300
G1 X77.483 Y87.000 E27.4226 F300
G1 X78.702 Y85.087 E27.5701 F300
G1 X80.083 Y83.288 E27.7175 F300
G1 X81.615 Y81.615 E27.8649 F300
G1 X83.288 Y80.083 E28.0124 F300
G1 X85.087 Y78.702 E28.1598 F300
G1 X87.000 Y77.483 E28.3072 F300
G1 X89.012 Y76.436 E28.4547 F300
G1 X91.107 Y75.568 E28.6021 F300
G1 X93.271 Y74.886 E28.7495 F300
G1 X95.485 Y74.395 E28.8970 F300
G1 X97.734 Y74.099 E29.0444 F300
G1 X100.000 Y74.000 E29.1918 F300
G1 X102.266 Y74.099 E29.3393 F300
G1 X104.515 Y74.395 E29.4867 F300
G1 X106.729 Y74.886 E29.6341 F300
G1 X108.893 Y75.568 E29.7816 F300
G1 X110.988 Y76.436 E29.9290 F300
G1 X113.000 Y77.483 E30.0764 F300
G1 X114.913 Y78.702 E30.2239 F300
G1 X116.712 Y80.083 E30.3713 F300
G1 X118.385 Y81.615 E30.5187 F300
G1 X119.917 Y83.288 E30.6662 F300
G1 X121.298 Y85.087 E30.8136 F300
G1 X122.517 Y87.000 E30.9610 F300
G1 X123.564 Y89.012 E31.1085 F300
G1 X124.432 Y91.107 E31.2559 F300
G1 X125.114 Y93.271 E31.4033 F300
G1 X125.605 Y95.485 E31.5508 F300
G1 X125.901 Y97.734 E31.6982 F300
G1 X126.000 Y100.000 E31.8456 F300
G1 E30.3456 F1200   ; Retract

; === TOWER LAYER 4/20 (Z=7.0mm, circular tower) ===
G1 Z8.00 F600   ; Z-hop
G1 X126.000 Y100.000 F1200   ; Travel to tower outline
G1 Z7.00 F300   ; Lower to layer height
G1 E31.8456 F1200   ; Prime
G1 X125.901 Y102.266 E31.9931 F300
G1 X125.605 Y104.515 E32.1405 F300
G1 X125.114 Y106.729 E32.2879 F300
G1 X124.432 Y108.893 E32.4354 F300
G1 X123.564 Y110.988 E32.5828 F300
G1 X122.517 Y113.000 E32.7302 F300
G1 X121.298 Y114.913 E32.8777 F300
G1 X119.917 Y116.712 E33.0251 F300
G1 X118.385 Y118.385 E33.1725 F300
G1 X116.712 Y119.917 E33.3200 F300
G1 X114.913 Y121.298 E33.4674 F300
G1 X113.000 Y122.517 E33.6148 F300
G1 X110.988 Y123.564 E33.7623 F300
G1 X108.893 Y124.432 E33.9097 F300
G1 X106.729 Y125.114 E34.0571 F300
G1 X104.515 Y125.605 E34.2046 F300
G1 X102.266 Y125.901 E34.3520 F300
G1 X100.000 Y126.000 E34.4994 F300
G1 X97.734 Y125.901 E34.6469 F300
G1 X95.485 Y125.605 E34.7943 F300
G1 X93.271 Y125.114 E34.9417 F300
G1 X91.107 Y124.432 E35.0892 F300
G1 X89.012 Y123.564 E35.2366 F300
G1 X87.000 Y122.517 E35.3840 F300
G1 X85.087 Y121.298 E35.5315 F300
G1 X83.288 Y119.917 E35.6789 F300
G1 X81.615 Y118.385 E35.8263 F300
G1 X80.083 Y116.712 E35.9738 F300
G1 X78.702 Y114.913 E36.1212 F300
G1 X77.483 Y113.000 E36.2686 F300
G1 X76.436 Y110.988 E36.4161 F300
G1 X75.568 Y108.893 E36.5635 F300
G1 X74.886 Y106.729 E36.7109 F300
G1 X74.395 Y104.515 E36.8584 F300
G1 X74.099 Y102.266 E37.0058 F300
G1 X74.000 Y100.000 E37.1532 F300
G1 X74.099 Y97.734 E37.3007 F300
G1 X74.395 Y95.485 E37.4481 F300
G1 X74.886 Y93.271 E37.5955 F300
G1 X75.568 Y91.107 E37.7430 F300
G1 X76.436 Y89.012 E37.8904 F300
G1 X77.483 Y87.000 E38.0379 F300
G1 X78.702 Y85.087 E38.1853 F300
G1 X80.083 Y83.288 E38.3327 F300
G1 X81.615 Y81.615 E38.4802 F300
G1 X83.288 Y80.083 E38.6276 F300
G1 X85.087 Y78.702 E38.7750 F300
G1 X87.000 Y77.483 E38.9225 F300
G1 X89.012 Y76.436 E39.0699 F300
G1 X91.107 Y75.568 E39.2173 F300
G1 X93.271 Y74.886 E39.3648 F300
G1 X95.485 Y74.395 E39.5122 F300
G1 X97.734 Y74.099 E39.6596 F300
G1 X100.000 Y74.000 E39.8071 F300
G1 X102.266 Y74.099 E39.9545 F300
G1 X104.515 Y74.395 E40.1019 F300
G1 X106.729 Y74.886 E40.2494 F300
G1 X108.893 Y75.568 E40.3968 F300
G1 X110.988 Y76.436 E40.5442 F300
G1 X113.000 Y77.483 E40.6917 F300
G1 X114.913 Y78.702 E40.8391 F300
G1 X116.712 Y80.083 E40.9865 F300
G1 X118.385 Y81.615 E41.1340 F300
G1 X119.917 Y83.288 E41.2814 F300
G1 X121.298 Y85.087 E41.4288 F300
G1 X122.517 Y87.000 E41.5763 F300
G1 X123.564 Y89.012 E41.7237 F300
G1 X124.432 Y91.107 E41.8711 F300
G1 X125.114 Y93.271 E42.0186 F300
G1 X125.605 Y95.485 E42.1660 F300
G1 X125.901 Y97.734 E42.3134 F300
G1 X126.000 Y100.000 E42.4609 F300
G1 E40.9609 F1200   ; Retract

; === TOWER LAYER 5/20 (Z=9.0mm, circular tower) ===
G1 Z10.00 F600   ; Z-hop
G1 X126.000 Y100.000 F1200   ; Travel to tower outline
G1 Z9.00 F300   ; Lower to layer height
G1 E42.4609 F1200   ; Prime
G1 X125.901 Y102.266 E42.6083 F300
G1 X125.605 Y104.515 E42.7557 F300
G1 X125.114 Y106.729 E42.9032 F300
G1 X124.432 Y108.893 E43.0506 F300
G1 X123.564 Y110.988 E43.1980 F300
G1 X122.517 Y113.000 E43.3455 F300
G1 X121.298 Y114.913 E43.4929 F300
G1 X119.917 Y116.712 E43.6403 F300
G1 X118.385 Y118.385 E43.7878 F300
G1 X116.712 Y119.917 E43.9352 F300
G1 X114.913 Y121.298 E44.0826 F300
G1 X113.000 Y122.517 E44.2301 F300
G1 X110.988 Y123.564 E44.3775 F300
G1 X108.893 Y124.432 E44.5249 F300
G1 X106.729 Y125.114 E44.6724 F300
G1 X104.515 Y125.605 E44.8198 F300
G1 X102.266 Y125.901 E44.9672 F300
G1 X100.000 Y126.000 E45.1147 F300
G1 X97.734 Y125.901 E45.2621 F300
G1 X95.485 Y125.605 E45.4095 F300
G1 X93.271 Y125.114 E45.5570 F300
G1 X91.107 Y124.432 E45.7044 F300
G1 X89.012 Y123.564 E45.8518 F300
G1 X87.000 Y122.517 E45.9993 F300
G1 X85.087 Y121.298 E46.1467 F300
G1 X83.288 Y119.917 E46.2941 F300
G1 X81.615 Y118.385 E46.4416 F300
G1 X80.083 Y116.712 E46.5890 F300
G1 X78.702 Y114.913 E46.7364 F300
G1 X77.483 Y113.000 E46.8839 F300
G1 X76.436 Y110.988 E47.0313 F300
G1 X75.568 Y108.893 E47.1787 F300
G1 X74.886 Y106.729 E47.3262 F300
G1 X74.395 Y104.515 E47.4736 F300
G1 X74.099 Y102.266 E47.6210 F300
G1 X74.000 Y100.000 E47.7685 F300
G1 X74.099 Y97.734 E47.9159 F300
G1 X74.395 Y95.485 E48.0633 F300
G1 X74.886 Y93.271 E48.2108 F300
G1 X75.568 Y91.107 E48.3582 F300
G1 X76.436 Y89.012 E48.5056 F300
G1 X77.483 Y87.000 E48.6531 F300
G1 X78.702 Y85.087 E48.8005 F300
G1 X80.083 Y83.288 E48.9479 F300
G1 X81.615 Y81.615 E49.0954 F300
G1 X83.288 Y80.083 E49.2428 F300
G1 X85.087 Y78.702 E49.3902 F300
G1 X87.000 Y77.483 E49.5377 F300
G1 X89.012 Y76.436 E49.6851 F300
G1 X91.107 Y75.568 E49.8325 F300
G1 X93.271 Y74.886 E49.9800 F300
G1 X95.485 Y74.395 E50.1274 F300
G1 X97.734 Y74.099 E50.2748 F300
G1 X100.000 Y74.000 E50.4223 F300
G1 X102.266 Y74.099 E50.5697 F300
G1 X104.515 Y74.395 E50.7171 F300
G1 X106.729 Y74.886 E50.8646 F300
G1 X108.893 Y75.568 E51.0120 F300
G1 X110.988 Y76.436 E51.1594 F300
G1 X113.000 Y77.483 E51.3069 F300
G1 X114.913 Y78.702 E51.4543 F300
G1 X116.712 Y80.083 E51.6017 F300
G1 X118.385 Y81.615 E51.7492 F300
G1 X119.917 Y83.288 E51.8966 F300
G1 X121.298 Y85.087 E52.0440 F300
G1 X122.517 Y87.000 E52.1915 F300
G1 X123.564 Y89.012 E52.3389 F300
G1 X124.432 Y91.107 E52.4863 F300
G1 X125.114 Y93.271 E52.6338 F300
G1 X125.605 Y95.485 E52.7812 F300
G1 X125.901 Y97.734 E52.9286 F300
G1 X126.000 Y100.000 E53.0761 F300
G1 E51.5761 F1200   ; Retract

; === TOWER LAYER 6/20 (Z=11.0mm, circular tower) ===
G1 Z12.00 F600   ; Z-hop
G1 X126.000 Y100.000 F1200   ; Travel to tower outline
G1 Z11.00 F300   ; Lower to layer height
G1 E53.0761 F1200   ; Prime
G1 X125.901 Y102.266 E53.2235 F300
G1 X125.605 Y104.515 E53.3709 F300
G1 X125.114 Y106.729 E53.5184 F300
G1 X124.432 Y108.893 E53.6658 F300
G1 X123.564 Y110.988 E53.8132 F300
G1 X122.517 Y113.000 E53.9607 F300
G1 X121.298 Y114.913 E54.1081 F300
G1 X119.917 Y116.712 E54.2555 F300
G1 X118.385 Y118.385 E54.4030 F300
G1 X116.712 Y119.917 E54.5504 F300
G1 X114.913 Y121.298 E54.6978 F300
G1 X113.000 Y122.517 E54.8453 F300
G1 X110.988 Y123.564 E54.9927 F300
G1 X108.893 Y124.432 E55.1401 F300
G1 X106.729 Y125.114 E55.2876 F300
G1 X104.515 Y125.605 E55.4350 F300
G1 X102.266 Y125.901 E55.5824 F300
G1 X100.000 Y126.000 E55.7299 F300
G1 X97.734 Y125.901 E55.8773 F300
G1 X95.485 Y125.605 E56.0247 F300
G1 X93.271 Y125.114 E56.1722 F300
G1 X91.107 Y124.432 E56.3196 F300
G1 X89.012 Y123.564 E56.4670 F300
G1 X87.000 Y122.517 E56.6145 F300
G1 X85.087 Y121.298 E56.7619 F300
G1 X83.288 Y119.917 E56.9093 F300
G1 X81.615 Y118.385 E57.0568 F300
G1 X80.083 Y116.712 E57.2042 F300
G1 X78.702 Y114.913 E57.3516 F300
G1 X77.483 Y113.000 E57.4991 F300
G1 X76.436 Y110.988 E57.6465 F300
G1 X75.568 Y108.893 E57.7939 F300
G1 X74.886 Y106.729 E57.9414 F300
G1 X74.395 Y104.515 E58.0888 F300
G1 X74.099 Y102.266 E58.2362 F300
G1 X74.000 Y100.000 E58.3837 F300
G1 X74.099 Y97.734 E58.5311 F300
G1 X74.395 Y95.485 E58.6785 F300
G1 X74.886 Y93.271 E58.8260 F300
G1 X75.568 Y91.107 E58.9734 F300
G1 X76.436 Y89.012 E59.1208 F300
G1 X77.483 Y87.000 E59.2683 F300
G1 X78.702 Y85.087 E59.4157 F300
G1 X80.083 Y83.288 E59.5631 F300
G1 X81.615 Y81.615 E59.7106 F300
G1 X83.288 Y80.083 E59.8580 F300
G1 X85.087 Y78.702 E60.0054 F300
G1 X87.000 Y77.483 E60.1529 F300
G1 X89.012 Y76.436 E60.3003 F300
G1 X91.107 Y75.568 E60.4477 F300
G1 X93.271 Y74.886 E60.5952 F300
G1 X95.485 Y74.395 E60.7426 F300
G1 X97.734 Y74.099 E60.8900 F300
G1 X100.000 Y74.000 E61.0375 F300
G1 X102.266 Y74.099 E61.1849 F300
G1 X104.515 Y74.395 E61.3323 F300
G1 X106.729 Y74.886 E61.4798 F300
G1 X108.893 Y75.568 E61.6272 F300
G1 X110.988 Y76.436 E61.7746 F300
G1 X113.000 Y77.483 E61.9221 F300
G1 X114.913 Y78.702 E62.0695 F300
G1 X116.712 Y80.083 E62.2169 F300
G1 X118.385 Y81.615 E62.3644 F300
G1 X119.917 Y83.288 E62.5118 F300
G1 X121.298 Y85.087 E62.6592 F300
G1 X122.517 Y87.000 E62.8067 F300
G1 X123.564 Y89.012 E62.9541 F300
G1 X124.432 Y91.107 E63.1016 F300
G1 X125.114 Y93.271 E63.2490 F300
G1 X125.605 Y95.485 E63.3964 F300
G1 X125.901 Y97.734 E63.5439 F300
G1 X126.000 Y100.000 E63.6913 F300
G1 E62.1913 F1200   ; Retract

; === TOWER LAYER 7/20 (Z=13.0mm, circular tower) ===
G1 Z14.00 F600   ; Z-hop
G1 X126.000 Y100.000 F1200   ; Travel to tower outline
G1 Z13.00 F300   ; Lower to layer height
G1 E63.6913 F1200   ; Prime
G1 X125.901 Y102.266 E63.8387 F300
G1 X125.605 Y104.515 E63.9862 F300
G1 X125.114 Y106.729 E64.1336 F300
G1 X124.432 Y108.893 E64.2810 F300
G1 X123.564 Y110.988 E64.4285 F300
G1 X122.517 Y113.000 E64.5759 F300
G1 X121.298 Y114.913 E64.7233 F300
G1 X119.917 Y116.712 E64.8708 F300
G1 X118.385 Y118.385 E65.0182 F300
G1 X116.712 Y119.917 E65.1656 F300
G1 X114.913 Y121.298 E65.3131 F300
G1 X113.000 Y122.517 E65.4605 F300
G1 X110.988 Y123.564 E65.6079 F300
G1 X108.893 Y124.432 E65.7554 F300
G1 X106.729 Y125.114 E65.9028 F300
G1 X104.515 Y125.605 E66.0502 F300
G1 X102.266 Y125.901 E66.1977 F300
G1 X100.000 Y126.000 E66.3451 F300
G1 X97.734 Y125.901 E66.4925 F300
G1 X95.485 Y125.605 E66.6400 F300
G1 X93.271 Y125.114 E66.7874 F300
G1 X91.107 Y124.432 E66.9348 F300
G1 X89.012 Y123.564 E67.0823 F300
G1 X87.000 Y122.517 E67.2297 F300
G1 X85.087 Y121.298 E67.3771 F300
G1 X83.288 Y119.917 E67.5246 F300
G1 X81.615 Y118.385 E67.6720 F300
G1 X80.083 Y116.712 E67.8194 F300
G1 X78.702 Y114.913 E67.9669 F300
G1 X77.483 Y113.000 E68.1143 F300
G1 X76.436 Y110.988 E68.2617 F300
G1 X75.568 Y108.893 E68.4092 F300
G1 X74.886 Y106.729 E68.5566 F300
G1 X74.395 Y104.515 E68.7040 F300
G1 X74.099 Y102.266 E68.8515 F300
G1 X74.000 Y100.000 E68.9989 F300
G1 X74.099 Y97.734 E69.1463 F300
G1 X74.395 Y95.485 E69.2938 F300
G1 X74.886 Y93.271 E69.4412 F300
G1 X75.568 Y91.107 E69.5886 F300
G1 X76.436 Y89.012 E69.7361 F300
G1 X77.483 Y87.000 E69.8835 F300
G1 X78.702 Y85.087 E70.0309 F300
G1 X80.083 Y83.288 E70.1784 F300
G1 X81.615 Y81.615 E70.3258 F300
G1 X83.288 Y80.083 E70.4732 F300
G1 X85.087 Y78.702 E70.6207 F300
G1 X87.000 Y77.483 E70.7681 F300
G1 X89.012 Y76.436 E70.9155 F300
G1 X91.107 Y75.568 E71.0630 F300
G1 X93.271 Y74.886 E71.2104 F300
G1 X95.485 Y74.395 E71.3578 F300
G1 X97.734 Y74.099 E71.5053 F300
G1 X100.000 Y74.000 E71.6527 F300
G1 X102.266 Y74.099 E71.8001 F300
G1 X104.515 Y74.395 E71.9476 F300
G1 X106.729 Y74.886 E72.0950 F300
G1 X108.893 Y75.568 E72.2424 F300
G1 X110.988 Y76.436 E72.3899 F300
G1 X113.000 Y77.483 E72.5373 F300
G1 X114.913 Y78.702 E72.6847 F300
G1 X116.712 Y80.083 E72.8322 F300
G1 X118.385 Y81.615 E72.9796 F300
G1 X119.917 Y83.288 E73.1270 F300
G1 X121.298 Y85.087 E73.2745 F300
G1 X122.517 Y87.000 E73.4219 F300
G1 X123.564 Y89.012 E73.5693 F300
G1 X124.432 Y91.107 E73.7168 F300
G1 X125.114 Y93.271 E73.8642 F300
G1 X125.605 Y95.485 E74.0116 F300
G1 X125.901 Y97.734 E74.1591 F300
G1 X126.000 Y100.000 E74.3065 F300
G1 E72.8065 F1200   ; Retract

; === TOWER LAYER 8/20 (Z=15.0mm, circular tower) ===
G1 Z16.00 F600   ; Z-hop
G1 X126.000 Y100.000 F1200   ; Travel to tower outline
G1 Z15.00 F300   ; Lower to layer height
G1 E74.3065 F1200   ; Prime
G1 X125.901 Y102.266 E74.4539 F300
G1 X125.605 Y104.515 E74.6014 F300
G1 X125.114 Y106.729 E74.7488 F300
G1 X124.432 Y108.893 E74.8962 F300
G1 X123.564 Y110.988 E75.0437 F300
G1 X122.517 Y113.000 E75.1911 F300
G1 X121.298 Y114.913 E75.3385 F300
G1 X119.917 Y116.712 E75.4860 F300
G1 X118.385 Y118.385 E75.6334 F300
G1 X116.712 Y119.917 E75.7808 F300
G1 X114.913 Y121.298 E75.9283 F300
G1 X113.000 Y122.517 E76.0757 F300
G1 X110.988 Y123.564 E76.2231 F300
G1 X108.893 Y124.432 E76.3706 F300
G1 X106.729 Y125.114 E76.5180 F300
G1 X104.515 Y125.605 E76.6654 F300
G1 X102.266 Y125.901 E76.8129 F300
G1 X100.000 Y126.000 E76.9603 F300
G1 X97.734 Y125.901 E77.1077 F300
G1 X95.485 Y125.605 E77.2552 F300
G1 X93.271 Y125.114 E77.4026 F300
G1 X91.107 Y124.432 E77.5500 F300
G1 X89.012 Y123.564 E77.6975 F300
G1 X87.000 Y122.517 E77.8449 F300
G1 X85.087 Y121.298 E77.9923 F300
G1 X83.288 Y119.917 E78.1398 F300
G1 X81.615 Y118.385 E78.2872 F300
G1 X80.083 Y116.712 E78.4346 F300
G1 X78.702 Y114.913 E78.5821 F300
G1 X77.483 Y113.000 E78.7295 F300
G1 X76.436 Y110.988 E78.8769 F300
G1 X75.568 Y108.893 E79.0244 F300
G1 X74.886 Y106.729 E79.1718 F300
G1 X74.395 Y104.515 E79.3192 F300
G1 X74.099 Y102.266 E79.4667 F300
G1 X74.000 Y100.000 E79.6141 F300
G1 X74.099 Y97.734 E79.7615 F300
G1 X74.395 Y95.485 E79.9090 F300
G1 X74.886 Y93.271 E80.0564 F300
G1 X75.568 Y91.107 E80.2038 F300
G1 X76.436 Y89.012 E80.3513 F300
G1 X77.483 Y87.000 E80.4987 F300
G1 X78.702 Y85.087 E80.6461 F300
G1 X80.083 Y83.288 E80.7936 F300
G1 X81.615 Y81.615 E80.9410 F300
G1 X83.288 Y80.083 E81.0884 F300
G1 X85.087 Y78.702 E81.2359 F300
G1 X87.000 Y77.483 E81.3833 F300
G1 X89.012 Y76.436 E81.5307 F300
G1 X91.107 Y75.568 E81.6782 F300
G1 X93.271 Y74.886 E81.8256 F300
G1 X95.485 Y74.395 E81.9730 F300
G1 X97.734 Y74.099 E82.1205 F300
G1 X100.000 Y74.000 E82.2679 F300
G1 X102.266 Y74.099 E82.4153 F300
G1 X104.515 Y74.395 E82.5628 F300
G1 X106.729 Y74.886 E82.7102 F300
G1 X108.893 Y75.568 E82.8576 F300
G1 X110.988 Y76.436 E83.0051 F300
G1 X113.000 Y77.483 E83.1525 F300
G1 X114.913 Y78.702 E83.2999 F300
G1 X116.712 Y80.083 E83.4474 F300
G1 X118.385 Y81.615 E83.5948 F300
G1 X119.917 Y83.288 E83.7422 F300
G1 X121.298 Y85.087 E83.8897 F300
G1 X122.517 Y87.000 E84.0371 F300
G1 X123.564 Y89.012 E84.1845 F300
G1 X124.432 Y91.107 E84.3320 F300
G1 X125.114 Y93.271 E84.4794 F300
G1 X125.605 Y95.485 E84.6268 F300
G1 X125.901 Y97.734 E84.7743 F300
G1 X126.000 Y100.000 E84.9217 F300
G1 E83.4217 F1200   ; Retract

; === TOWER LAYER 9/20 (Z=17.0mm, circular tower) ===
G1 Z18.00 F600   ; Z-hop
G1 X126.000 Y100.000 F1200   ; Travel to tower outline
G1 Z17.00 F300   ; Lower to layer height
G1 E84.9217 F1200   ; Prime
G1 X125.901 Y102.266 E85.0691 F300
G1 X125.605 Y104.515 E85.2166 F300
G1 X125.114 Y106.729 E85.3640 F300
G1 X124.432 Y108.893 E85.5114 F300
G1 X123.564 Y110.988 E85.6589 F300
G1 X122.517 Y113.000 E85.8063 F300
G1 X121.298 Y114.913 E85.9537 F300
G1 X119.917 Y116.712 E86.1012 F300
G1 X118.385 Y118.385 E86.2486 F300
G1 X116.712 Y119.917 E86.3960 F300
G1 X114.913 Y121.298 E86.5435 F300
G1 X113.000 Y122.517 E86.6909 F300
G1 X110.988 Y123.564 E86.8383 F300
G1 X108.893 Y124.432 E86.9858 F300
G1 X106.729 Y125.114 E87.1332 F300
G1 X104.515 Y125.605 E87.2806 F300
G1 X102.266 Y125.901 E87.4281 F300
G1 X100.000 Y126.000 E87.5755 F300
G1 X97.734 Y125.901 E87.7229 F300
G1 X95.485 Y125.605 E87.8704 F300
G1 X93.271 Y125.114 E88.0178 F300
G1 X91.107 Y124.432 E88.1653 F300
G1 X89.012 Y123.564 E88.3127 F300
G1 X87.000 Y122.517 E88.4601 F300
G1 X85.087 Y121.298 E88.6076 F300
G1 X83.288 Y119.917 E88.7550 F300
G1 X81.615 Y118.385 E88.9024 F300
G1 X80.083 Y116.712 E89.0499 F300
G1 X78.702 Y114.913 E89.1973 F300
G1 X77.483 Y113.000 E89.3447 F300
G1 X76.436 Y110.988 E89.4922 F300
G1 X75.568 Y108.893 E89.6396 F300
G1 X74.886 Y106.729 E89.7870 F300
G1 X74.395 Y104.515 E89.9345 F300
G1 X74.099 Y102.266 E90.0819 F300
G1 X74.000 Y100.000 E90.2293 F300
G1 X74.099 Y97.734 E90.3768 F300
G1 X74.395 Y95.485 E90.5242 F300
G1 X74.886 Y93.271 E90.6716 F300
G1 X75.568 Y91.107 E90.8191 F300
G1 X76.436 Y89.012 E90.9665 F300
G1 X77.483 Y87.000 E91.1139 F300
G1 X78.702 Y85.087 E91.2614 F300
G1 X80.083 Y83.288 E91.4088 F300
G1 X81.615 Y81.615 E91.5562 F300
G1 X83.288 Y80.083 E91.7037 F300
G1 X85.087 Y78.702 E91.8511 F300
G1 X87.000 Y77.483 E91.9985 F300
G1 X89.012 Y76.436 E92.1460 F300
G1 X91.107 Y75.568 E92.2934 F300
G1 X93.271 Y74.886 E92.4408 F300
G1 X95.485 Y74.395 E92.5883 F300
G1 X97.734 Y74.099 E92.7357 F300
G1 X100.000 Y74.000 E92.8831 F300
G1 X102.266 Y74.099 E93.0306 F300
G1 X104.515 Y74.395 E93.1780 F300
G1 X106.729 Y74.886 E93.3254 F300
G1 X108.893 Y75.568 E93.4729 F300
G1 X110.988 Y76.436 E93.6203 F300
G1 X113.000 Y77.483 E93.7677 F300
G1 X114.913 Y78.702 E93.9152 F300
G1 X116.712 Y80.083 E94.0626 F300
G1 X118.385 Y81.615 E94.2100 F300
G1 X119.917 Y83.288 E94.3575 F300
G1 X121.298 Y85.087 E94.5049 F300
G1 X122.517 Y87.000 E94.6523 F300
G1 X123.564 Y89.012 E94.7998 F300
G1 X124.432 Y91.107 E94.9472 F300
G1 X125.114 Y93.271 E95.0946 F300
G1 X125.605 Y95.485 E95.2421 F300
G1 X125.901 Y97.734 E95.3895 F300
G1 X126.000 Y100.000 E95.5369 F300
G1 E94.0369 F1200   ; Retract

; === TOWER LAYER 10/20 (Z=19.0mm, circular tower) ===
G1 Z20.00 F600   ; Z-hop
G1 X126.000 Y100.000 F1200   ; Travel to tower outline
G1 Z19.00 F300   ; Lower to layer height
G1 E95.5369 F1200   ; Prime
G1 X125.901 Y102.266 E95.6844 F300
G1 X125.605 Y104.515 E95.8318 F300
G1 X125.114 Y106.729 E95.9792 F300
G1 X124.432 Y108.893 E96.1267 F300
G1 X123.564 Y110.988 E96.2741 F300
G1 X122.517 Y113.000 E96.4215 F300
G1 X121.298 Y114.913 E96.5690 F300
G1 X119.917 Y116.712 E96.7164 F300
G1 X118.385 Y118.385 E96.8638 F300
G1 X116.712 Y119.917 E97.0113 F300
G1 X114.913 Y121.298 E97.1587 F300
G1 X113.000 Y122.517 E97.3061 F300
G1 X110.988 Y123.564 E97.4536 F300
G1 X108.893 Y124.432 E97.6010 F300
G1 X106.729 Y125.114 E97.7484 F300
G1 X104.515 Y125.605 E97.8959 F300
G1 X102.266 Y125.901 E98.0433 F300
G1 X100.000 Y126.000 E98.1907 F300
G1 X97.734 Y125.901 E98.3382 F300
G1 X95.485 Y125.605 E98.4856 F300
G1 X93.271 Y125.114 E98.6330 F300
G1 X91.107 Y124.432 E98.7805 F300
G1 X89.012 Y123.564 E98.9279 F300
G1 X87.000 Y122.517 E99.0753 F300
G1 X85.087 Y121.298 E99.2228 F300
G1 X83.288 Y119.917 E99.3702 F300
G1 X81.615 Y118.385 E99.5176 F300
G1 X80.083 Y116.712 E99.6651 F300
G1 X78.702 Y114.913 E99.8125 F300
G1 X77.483 Y113.000 E99.9599 F300
G1 X76.436 Y110.988 E100.1074 F300
G1 X75.568 Y108.893 E100.2548 F300
G1 X74.886 Y106.729 E100.4022 F300
G1 X74.395 Y104.515 E100.5497 F300
G1 X74.099 Y102.266 E100.6971 F300
G1 X74.000 Y100.000 E100.8445 F300
G1 X74.099 Y97.734 E100.9920 F300
G1 X74.395 Y95.485 E101.1394 F300
G1 X74.886 Y93.271 E101.2868 F300
G1 X75.568 Y91.107 E101.4343 F300
G1 X76.436 Y89.012 E101.5817 F300
G1 X77.483 Y87.000 E101.7291 F300
G1 X78.702 Y85.087 E101.8766 F300
G1 X80.083 Y83.288 E102.0240 F300
G1 X81.615 Y81.615 E102.1714 F300
G1 X83.288 Y80.083 E102.3189 F300
G1 X85.087 Y78.702 E102.4663 F300
G1 X87.000 Y77.483 E102.6137 F300
G1 X89.012 Y76.436 E102.7612 F300
G1 X91.107 Y75.568 E102.9086 F300
G1 X93.271 Y74.886 E103.0560 F300
G1 X95.485 Y74.395 E103.2035 F300
G1 X97.734 Y74.099 E103.3509 F300
G1 X100.000 Y74.000 E103.4983 F300
G1 X102.266 Y74.099 E103.6458 F300
G1 X104.515 Y74.395 E103.7932 F300
G1 X106.729 Y74.886 E103.9406 F300
G1 X108.893 Y75.568 E104.0881 F300
G1 X110.988 Y76.436 E104.2355 F300
G1 X113.000 Y77.483 E104.3829 F300
G1 X114.913 Y78.702 E104.5304 F300
G1 X116.712 Y80.083 E104.6778 F300
G1 X118.385 Y81.615 E104.8252 F300
G1 X119.917 Y83.288 E104.9727 F300
G1 X121.298 Y85.087 E105.1201 F300
G1 X122.517 Y87.000 E105.2675 F300
G1 X123.564 Y89.012 E105.4150 F300
G1 X124.432 Y91.107 E105.5624 F300
G1 X125.114 Y93.271 E105.7098 F300
G1 X125.605 Y95.485 E105.8573 F300
G1 X125.901 Y97.734 E106.0047 F300
G1 X126.000 Y100.000 E106.1521 F300
G1 E104.6521 F1200   ; Retract

; === TOWER LAYER 11/20 (Z=21.0mm, circular tower) ===
G1 Z22.00 F600   ; Z-hop
G1 X126.000 Y100.000 F1200   ; Travel to tower outline
G1 Z21.00 F300   ; Lower to layer height
G1 E106.1521 F1200   ; Prime
G1 X125.901 Y102.266 E106.2996 F300
G1 X125.605 Y104.515 E106.4470 F300
G1 X125.114 Y106.729 E106.5944 F300
G1 X124.432 Y108.893 E106.7419 F300
G1 X123.564 Y110.988 E106.8893 F300
G1 X122.517 Y113.000 E107.0367 F300
G1 X121.298 Y114.913 E107.1842 F300
G1 X119.917 Y116.712 E107.3316 F300
G1 X118.385 Y118.385 E107.4790 F300
G1 X116.712 Y119.917 E107.6265 F300
G1 X114.913 Y121.298 E107.7739 F300
G1 X113.000 Y122.517 E107.9213 F300
G1 X110.988 Y123.564 E108.0688 F300
G1 X108.893 Y124.432 E108.2162 F300
G1 X106.729 Y125.114 E108.3636 F300
G1 X104.515 Y125.605 E108.5111 F300
G1 X102.266 Y125.901 E108.6585 F300
G1 X100.000 Y126.000 E108.8059 F300
G1 X97.734 Y125.901 E108.9534 F300
G1 X95.485 Y125.605 E109.1008 F300
G1 X93.271 Y125.114 E109.2482 F300
G1 X91.107 Y124.432 E109.3957 F300
G1 X89.012 Y123.564 E109.5431 F300
G1 X87.000 Y122.517 E109.6905 F300
G1 X85.087 Y121.298 E109.8380 F300
G1 X83.288 Y119.917 E109.9854 F300
G1 X81.615 Y118.385 E110.1328 F300
G1 X80.083 Y116.712 E110.2803 F300
G1 X78.702 Y114.913 E110.4277 F300
G1 X77.483 Y113.000 E110.5751 F300
G1 X76.436 Y110.988 E110.7226 F300
G1 X75.568 Y108.893 E110.8700 F300
G1 X74.886 Y106.729 E111.0174 F300
G1 X74.395 Y104.515 E111.1649 F300
G1 X74.099 Y102.266 E111.3123 F300
G1 X74.000 Y100.000 E111.4597 F300
G1 X74.099 Y97.734 E111.6072 F300
G1 X74.395 Y95.485 E111.7546 F300
G1 X74.886 Y93.271 E111.9020 F300
G1 X75.568 Y91.107 E112.0495 F300
G1 X76.436 Y89.012 E112.1969 F300
G1 X77.483 Y87.000 E112.3443 F300
G1 X78.702 Y85.087 E112.4918 F300
G1 X80.083 Y83.288 E112.6392 F300
G1 X81.615 Y81.615 E112.7866 F300
G1 X83.288 Y80.083 E112.9341 F300
G1 X85.087 Y78.702 E113.0815 F300
G1 X87.000 Y77.483 E113.2290 F300
G1 X89.012 Y76.436 E113.3764 F300
G1 X91.107 Y75.568 E113.5238 F300
G1 X93.271 Y74.886 E113.6713 F300
G1 X95.485 Y74.395 E113.8187 F300
G1 X97.734 Y74.099 E113.9661 F300
G1 X100.000 Y74.000 E114.1136 F300
G1 X102.266 Y74.099 E114.2610 F300
G1 X104.515 Y74.395 E114.4084 F300
G1 X106.729 Y74.886 E114.5559 F300
G1 X108.893 Y75.568 E114.7033 F300
G1 X110.988 Y76.436 E114.8507 F300
G1 X113.000 Y77.483 E114.9982 F300
G1 X114.913 Y78.702 E115.1456 F300
G1 X116.712 Y80.083 E115.2930 F300
G1 X118.385 Y81.615 E115.4405 F300
G1 X119.917 Y83.288 E115.5879 F300
G1 X121.298 Y85.087 E115.7353 F300
G1 X122.517 Y87.000 E115.8828 F300
G1 X123.564 Y89.012 E116.0302 F300
G1 X124.432 Y91.107 E116.1776 F300
G1 X125.114 Y93.271 E116.3251 F300
G1 X125.605 Y95.485 E116.4725 F300
G1 X125.901 Y97.734 E116.6199 F300
G1 X126.000 Y100.000 E116.7674 F300
G1 E115.2674 F1200   ; Retract

; === TOWER LAYER 12/20 (Z=23.0mm, circular tower) ===
G1 Z24.00 F600   ; Z-hop
G1 X126.000 Y100.000 F1200   ; Travel to tower outline
G1 Z23.00 F300   ; Lower to layer height
G1 E116.7674 F1200   ; Prime
G1 X125.901 Y102.266 E116.9148 F300
G1 X125.605 Y104.515 E117.0622 F300
G1 X125.114 Y106.729 E117.2097 F300
G1 X124.432 Y108.893 E117.3571 F300
G1 X123.564 Y110.988 E117.5045 F300
G1 X122.517 Y113.000 E117.6520 F300
G1 X121.298 Y114.913 E117.7994 F300
G1 X119.917 Y116.712 E117.9468 F300
G1 X118.385 Y118.385 E118.0943 F300
G1 X116.712 Y119.917 E118.2417 F300
G1 X114.913 Y121.298 E118.3891 F300
G1 X113.000 Y122.517 E118.5366 F300
G1 X110.988 Y123.564 E118.6840 F300
G1 X108.893 Y124.432 E118.8314 F300
G1 X106.729 Y125.114 E118.9789 F300
G1 X104.515 Y125.605 E119.1263 F300
G1 X102.266 Y125.901 E119.2737 F300
G1 X100.000 Y126.000 E119.4212 F300
G1 X97.734 Y125.901 E119.5686 F300
G1 X95.485 Y125.605 E119.7160 F300
G1 X93.271 Y125.114 E119.8635 F300
G1 X91.107 Y124.432 E120.0109 F300
G1 X89.012 Y123.564 E120.1583 F300
G1 X87.000 Y122.517 E120.3058 F300
G1 X85.087 Y121.298 E120.4532 F300
G1 X83.288 Y119.917 E120.6006 F300
G1 X81.615 Y118.385 E120.7481 F300
G1 X80.083 Y116.712 E120.8955 F300
G1 X78.702 Y114.913 E121.0429 F300
G1 X77.483 Y113.000 E121.1904 F300
G1 X76.436 Y110.988 E121.3378 F300
G1 X75.568 Y108.893 E121.4852 F300
G1 X74.886 Y106.729 E121.6327 F300
G1 X74.395 Y104.515 E121.7801 F300
G1 X74.099 Y102.266 E121.9275 F300
G1 X74.000 Y100.000 E122.0750 F300
G1 X74.099 Y97.734 E122.2224 F300
G1 X74.395 Y95.485 E122.3698 F300
G1 X74.886 Y93.271 E122.5173 F300
G1 X75.568 Y91.107 E122.6647 F300
G1 X76.436 Y89.012 E122.8121 F300
G1 X77.483 Y87.000 E122.9596 F300
G1 X78.702 Y85.087 E123.1070 F300
G1 X80.083 Y83.288 E123.2544 F300
G1 X81.615 Y81.615 E123.4019 F300
G1 X83.288 Y80.083 E123.5493 F300
G1 X85.087 Y78.702 E123.6967 F300
G1 X87.000 Y77.483 E123.8442 F300
G1 X89.012 Y76.436 E123.9916 F300
G1 X91.107 Y75.568 E124.1390 F300
G1 X93.271 Y74.886 E124.2865 F300
G1 X95.485 Y74.395 E124.4339 F300
G1 X97.734 Y74.099 E124.5813 F300
G1 X100.000 Y74.000 E124.7288 F300
G1 X102.266 Y74.099 E124.8762 F300
G1 X104.515 Y74.395 E125.0236 F300
G1 X106.729 Y74.886 E125.1711 F300
G1 X108.893 Y75.568 E125.3185 F300
G1 X110.988 Y76.436 E125.4659 F300
G1 X113.000 Y77.483 E125.6134 F300
G1 X114.913 Y78.702 E125.7608 F300
G1 X116.712 Y80.083 E125.9082 F300
G1 X118.385 Y81.615 E126.0557 F300
G1 X119.917 Y83.288 E126.2031 F300
G1 X121.298 Y85.087 E126.3505 F300
G1 X122.517 Y87.000 E126.4980 F300
G1 X123.564 Y89.012 E126.6454 F300
G1 X124.432 Y91.107 E126.7928 F300
G1 X125.114 Y93.271 E126.9403 F300
G1 X125.605 Y95.485 E127.0877 F300
G1 X125.901 Y97.734 E127.2351 F300
G1 X126.000 Y100.000 E127.3826 F300
G1 E125.8826 F1200   ; Retract

; === TOWER LAYER 13/20 (Z=25.0mm, circular tower) ===
G1 Z26.00 F600   ; Z-hop
G1 X126.000 Y100.000 F1200   ; Travel to tower outline
G1 Z25.00 F300   ; Lower to layer height
G1 E127.3826 F1200   ; Prime
G1 X125.901 Y102.266 E127.5300 F300
G1 X125.605 Y104.515 E127.6774 F300
G1 X125.114 Y106.729 E127.8249 F300
G1 X124.432 Y108.893 E127.9723 F300
G1 X123.564 Y110.988 E128.1197 F300
G1 X122.517 Y113.000 E128.2672 F300
G1 X121.298 Y114.913 E128.4146 F300
G1 X119.917 Y116.712 E128.5620 F300
G1 X118.385 Y118.385 E128.7095 F300
G1 X116.712 Y119.917 E128.8569 F300
G1 X114.913 Y121.298 E129.0043 F300
G1 X113.000 Y122.517 E129.1518 F300
G1 X110.988 Y123.564 E129.2992 F300
G1 X108.893 Y124.432 E129.4466 F300
G1 X106.729 Y125.114 E129.5941 F300
G1 X104.515 Y125.605 E129.7415 F300
G1 X102.266 Y125.901 E129.8889 F300
G1 X100.000 Y126.000 E130.0364 F300
G1 X97.734 Y125.901 E130.1838 F300
G1 X95.485 Y125.605 E130.3312 F300
G1 X93.271 Y125.114 E130.4787 F300
G1 X91.107 Y124.432 E130.6261 F300
G1 X89.012 Y123.564 E130.7735 F300
G1 X87.000 Y122.517 E130.9210 F300
G1 X85.087 Y121.298 E131.0684 F300
G1 X83.288 Y119.917 E131.2158 F300
G1 X81.615 Y118.385 E131.3633 F300
G1 X80.083 Y116.712 E131.5107 F300
G1 X78.702 Y114.913 E131.6581 F300
G1 X77.483 Y113.000 E131.8056 F300
G1 X76.436 Y110.988 E131.9530 F300
G1 X75.568 Y108.893 E132.1004 F300
G1 X74.886 Y106.729 E132.2479 F300
G1 X74.395 Y104.515 E132.3953 F300
G1 X74.099 Y102.266 E132.5427 F300
G1 X74.000 Y100.000 E132.6902 F300
G1 X74.099 Y97.734 E132.8376 F300
G1 X74.395 Y95.485 E132.9850 F300
G1 X74.886 Y93.271 E133.1325 F300
G1 X75.568 Y91.107 E133.2799 F300
G1 X76.436 Y89.012 E133.4273 F300
G1 X77.483 Y87.000 E133.5748 F300
G1 X78.702 Y85.087 E133.7222 F300
G1 X80.083 Y83.288 E133.8696 F300
G1 X81.615 Y81.615 E134.0171 F300
G1 X83.288 Y80.083 E134.1645 F300
G1 X85.087 Y78.702 E134.3119 F300
G1 X87.000 Y77.483 E134.4594 F300
G1 X89.012 Y76.436 E134.6068 F300
G1 X91.107 Y75.568 E134.7542 F300
G1 X93.271 Y74.886 E134.9017 F300
G1 X95.485 Y74.395 E135.0491 F300
G1 X97.734 Y74.099 E135.1965 F300
G1 X100.000 Y74.000 E135.3440 F300
G1 X102.266 Y74.099 E135.4914 F300
G1 X104.515 Y74.395 E135.6388 F300
G1 X106.729 Y74.886 E135.7863 F300
G1 X108.893 Y75.568 E135.9337 F300
G1 X110.988 Y76.436 E136.0811 F300
G1 X113.000 Y77.483 E136.2286 F300
G1 X114.913 Y78.702 E136.3760 F300
G1 X116.712 Y80.083 E136.5234 F300
G1 X118.385 Y81.615 E136.6709 F300
G1 X119.917 Y83.288 E136.8183 F300
G1 X121.298 Y85.087 E136.9657 F300
G1 X122.517 Y87.000 E137.1132 F300
G1 X123.564 Y89.012 E137.2606 F300
G1 X124.432 Y91.107 E137.4080 F300
G1 X125.114 Y93.271 E137.5555 F300
G1 X125.605 Y95.485 E137.7029 F300
G1 X125.901 Y97.734 E137.8503 F300
G1 X126.000 Y100.000 E137.9978 F300
G1 E136.4978 F1200   ; Retract

; === TOWER LAYER 14/20 (Z=27.0mm, circular tower) ===
G1 Z28.00 F600   ; Z-hop
G1 X126.000 Y100.000 F1200   ; Travel to tower outline
G1 Z27.00 F300   ; Lower to layer height
G1 E137.9978 F1200   ; Prime
G1 X125.901 Y102.266 E138.1452 F300
G1 X125.605 Y104.515 E138.2927 F300
G1 X125.114 Y106.729 E138.4401 F300
G1 X124.432 Y108.893 E138.5875 F300
G1 X123.564 Y110.988 E138.7350 F300
G1 X122.517 Y113.000 E138.8824 F300
G1 X121.298 Y114.913 E139.0298 F300
G1 X119.917 Y116.712 E139.1773 F300
G1 X118.385 Y118.385 E139.3247 F300
G1 X116.712 Y119.917 E139.4721 F300
G1 X114.913 Y121.298 E139.6196 F300
G1 X113.000 Y122.517 E139.7670 F300
G1 X110.988 Y123.564 E139.9144 F300
G1 X108.893 Y124.432 E140.0619 F300
G1 X106.729 Y125.114 E140.2093 F300
G1 X104.515 Y125.605 E140.3567 F300
G1 X102.266 Y125.901 E140.5042 F300
G1 X100.000 Y126.000 E140.6516 F300
G1 X97.734 Y125.901 E140.7990 F300
G1 X95.485 Y125.605 E140.9465 F300
G1 X93.271 Y125.114 E141.0939 F300
G1 X91.107 Y124.432 E141.2413 F300
G1 X89.012 Y123.564 E141.3888 F300
G1 X87.000 Y122.517 E141.5362 F300
G1 X85.087 Y121.298 E141.6836 F300
G1 X83.288 Y119.917 E141.8311 F300
G1 X81.615 Y118.385 E141.9785 F300
G1 X80.083 Y116.712 E142.1259 F300
G1 X78.702 Y114.913 E142.2734 F300
G1 X77.483 Y113.000 E142.4208 F300
G1 X76.436 Y110.988 E142.5682 F300
G1 X75.568 Y108.893 E142.7157 F300
G1 X74.886 Y106.729 E142.8631 F300
G1 X74.395 Y104.515 E143.0105 F300
G1 X74.099 Y102.266 E143.1580 F300
G1 X74.000 Y100.000 E143.3054 F300
G1 X74.099 Y97.734 E143.4528 F300
G1 X74.395 Y95.485 E143.6003 F300
G1 X74.886 Y93.271 E143.7477 F300
G1 X75.568 Y91.107 E143.8951 F300
G1 X76.436 Y89.012 E144.0426 F300
G1 X77.483 Y87.000 E144.1900 F300
G1 X78.702 Y85.087 E144.3374 F300
G1 X80.083 Y83.288 E144.4849 F300
G1 X81.615 Y81.615 E144.6323 F300
G1 X83.288 Y80.083 E144.7797 F300
G1 X85.087 Y78.702 E144.9272 F300
G1 X87.000 Y77.483 E145.0746 F300
G1 X89.012 Y76.436 E145.2220 F300
G1 X91.107 Y75.568 E145.3695 F300
G1 X93.271 Y74.886 E145.5169 F300
G1 X95.485 Y74.395 E145.6643 F300
G1 X97.734 Y74.099 E145.8118 F300
G1 X100.000 Y74.000 E145.9592 F300
G1 X102.266 Y74.099 E146.1066 F300
G1 X104.515 Y74.395 E146.2541 F300
G1 X106.729 Y74.886 E146.4015 F300
G1 X108.893 Y75.568 E146.5489 F300
G1 X110.988 Y76.436 E146.6964 F300
G1 X113.000 Y77.483 E146.8438 F300
G1 X114.913 Y78.702 E146.9912 F300
G1 X116.712 Y80.083 E147.1387 F300
G1 X118.385 Y81.615 E147.2861 F300
G1 X119.917 Y83.288 E147.4335 F300
G1 X121.298 Y85.087 E147.5810 F300
G1 X122.517 Y87.000 E147.7284 F300
G1 X123.564 Y89.012 E147.8758 F300
G1 X124.432 Y91.107 E148.0233 F300
G1 X125.114 Y93.271 E148.1707 F300
G1 X125.605 Y95.485 E148.3181 F300
G1 X125.901 Y97.734 E148.4656 F300
G1 X126.000 Y100.000 E148.6130 F300
G1 E147.1130 F1200   ; Retract

; === TOWER LAYER 15/20 (Z=29.0mm, circular tower) ===
G1 Z30.00 F600   ; Z-hop
G1 X126.000 Y100.000 F1200   ; Travel to tower outline
G1 Z29.00 F300   ; Lower to layer height
G1 E148.6130 F1200   ; Prime
G1 X125.901 Y102.266 E148.7604 F300
G1 X125.605 Y104.515 E148.9079 F300
G1 X125.114 Y106.729 E149.0553 F300
G1 X124.432 Y108.893 E149.2027 F300
G1 X123.564 Y110.988 E149.3502 F300
G1 X122.517 Y113.000 E149.4976 F300
G1 X121.298 Y114.913 E149.6450 F300
G1 X119.917 Y116.712 E149.7925 F300
G1 X118.385 Y118.385 E149.9399 F300
G1 X116.712 Y119.917 E150.0873 F300
G1 X114.913 Y121.298 E150.2348 F300
G1 X113.000 Y122.517 E150.3822 F300
G1 X110.988 Y123.564 E150.5296 F300
G1 X108.893 Y124.432 E150.6771 F300
G1 X106.729 Y125.114 E150.8245 F300
G1 X104.515 Y125.605 E150.9719 F300
G1 X102.266 Y125.901 E151.1194 F300
G1 X100.000 Y126.000 E151.2668 F300
G1 X97.734 Y125.901 E151.4142 F300
G1 X95.485 Y125.605 E151.5617 F300
G1 X93.271 Y125.114 E151.7091 F300
G1 X91.107 Y124.432 E151.8565 F300
G1 X89.012 Y123.564 E152.0040 F300
G1 X87.000 Y122.517 E152.1514 F300
G1 X85.087 Y121.298 E152.2988 F300
G1 X83.288 Y119.917 E152.4463 F300
G1 X81.615 Y118.385 E152.5937 F300
G1 X80.083 Y116.712 E152.7411 F300
G1 X78.702 Y114.913 E152.8886 F300
G1 X77.483 Y113.000 E153.0360 F300
G1 X76.436 Y110.988 E153.1834 F300
G1 X75.568 Y108.893 E153.3309 F300
G1 X74.886 Y106.729 E153.4783 F300
G1 X74.395 Y104.515 E153.6257 F300
G1 X74.099 Y102.266 E153.7732 F300
G1 X74.000 Y100.000 E153.9206 F300
G1 X74.099 Y97.734 E154.0680 F300
G1 X74.395 Y95.485 E154.2155 F300
G1 X74.886 Y93.271 E154.3629 F300
G1 X75.568 Y91.107 E154.5103 F300
G1 X76.436 Y89.012 E154.6578 F300
G1 X77.483 Y87.000 E154.8052 F300
G1 X78.702 Y85.087 E154.9526 F300
G1 X80.083 Y83.288 E155.1001 F300
G1 X81.615 Y81.615 E155.2475 F300
G1 X83.288 Y80.083 E155.3949 F300
G1 X85.087 Y78.702 E155.5424 F300
G1 X87.000 Y77.483 E155.6898 F300
G1 X89.012 Y76.436 E155.8372 F300
G1 X91.107 Y75.568 E155.9847 F300
G1 X93.271 Y74.886 E156.1321 F300
G1 X95.485 Y74.395 E156.2795 F300
G1 X97.734 Y74.099 E156.4270 F300
G1 X100.000 Y74.000 E156.5744 F300
G1 X102.266 Y74.099 E156.7218 F300
G1 X104.515 Y74.395 E156.8693 F300
G1 X106.729 Y74.886 E157.0167 F300
G1 X108.893 Y75.568 E157.1641 F300
G1 X110.988 Y76.436 E157.3116 F300
G1 X113.000 Y77.483 E157.4590 F300
G1 X114.913 Y78.702 E157.6064 F300
G1 X116.712 Y80.083 E157.7539 F300
G1 X118.385 Y81.615 E157.9013 F300
G1 X119.917 Y83.288 E158.0487 F300
G1 X121.298 Y85.087 E158.1962 F300
G1 X122.517 Y87.000 E158.3436 F300
G1 X123.564 Y89.012 E158.4910 F300
G1 X124.432 Y91.107 E158.6385 F300
G1 X125.114 Y93.271 E158.7859 F300
G1 X125.605 Y95.485 E158.9333 F300
G1 X125.901 Y97.734 E159.0808 F300
G1 X126.000 Y100.000 E159.2282 F300
G1 E157.7282 F1200   ; Retract

; === TOWER LAYER 16/20 (Z=31.0mm, circular tower) ===
G1 Z32.00 F600   ; Z-hop
G1 X126.000 Y100.000 F1200   ; Travel to tower outline
G1 Z31.00 F300   ; Lower to layer height
G1 E159.2282 F1200   ; Prime
G1 X125.901 Y102.266 E159.3756 F300
G1 X125.605 Y104.515 E159.5231 F300
G1 X125.114 Y106.729 E159.6705 F300
G1 X124.432 Y108.893 E159.8179 F300
G1 X123.564 Y110.988 E159.9654 F300
G1 X122.517 Y113.000 E160.1128 F300
G1 X121.298 Y114.913 E160.2602 F300
G1 X119.917 Y116.712 E160.4077 F300
G1 X118.385 Y118.385 E160.5551 F300
G1 X116.712 Y119.917 E160.7025 F300
G1 X114.913 Y121.298 E160.8500 F300
G1 X113.000 Y122.517 E160.9974 F300
G1 X110.988 Y123.564 E161.1448 F300
G1 X108.893 Y124.432 E161.2923 F300
G1 X106.729 Y125.114 E161.4397 F300
G1 X104.515 Y125.605 E161.5871 F300
G1 X102.266 Y125.901 E161.7346 F300
G1 X100.000 Y126.000 E161.8820 F300
G1 X97.734 Y125.901 E162.0294 F300
G1 X95.485 Y125.605 E162.1769 F300
G1 X93.271 Y125.114 E162.3243 F300
G1 X91.107 Y124.432 E162.4717 F300
G1 X89.012 Y123.564 E162.6192 F300
G1 X87.000 Y122.517 E162.7666 F300
G1 X85.087 Y121.298 E162.9140 F300
G1 X83.288 Y119.917 E163.0615 F300
G1 X81.615 Y118.385 E163.2089 F300
G1 X80.083 Y116.712 E163.3564 F300
G1 X78.702 Y114.913 E163.5038 F300
G1 X77.483 Y113.000 E163.6512 F300
G1 X76.436 Y110.988 E163.7987 F300
G1 X75.568 Y108.893 E163.9461 F300
G1 X74.886 Y106.729 E164.0935 F300
G1 X74.395 Y104.515 E164.2410 F300
G1 X74.099 Y102.266 E164.3884 F300
G1 X74.000 Y100.000 E164.5358 F300
G1 X74.099 Y97.734 E164.6833 F300
G1 X74.395 Y95.485 E164.8307 F300
G1 X74.886 Y93.271 E164.9781 F300
G1 X75.568 Y91.107 E165.1256 F300
G1 X76.436 Y89.012 E165.2730 F300
G1 X77.483 Y87.000 E165.4204 F300
G1 X78.702 Y85.087 E165.5679 F300
G1 X80.083 Y83.288 E165.7153 F300
G1 X81.615 Y81.615 E165.8627 F300
G1 X83.288 Y80.083 E166.0102 F300
G1 X85.087 Y78.702 E166.1576 F300
G1 X87.000 Y77.483 E166.3050 F300
G1 X89.012 Y76.436 E166.4525 F300
G1 X91.107 Y75.568 E166.5999 F300
G1 X93.271 Y74.886 E166.7473 F300
G1 X95.485 Y74.395 E166.8948 F300
G1 X97.734 Y74.099 E167.0422 F300
G1 X100.000 Y74.000 E167.1896 F300
G1 X102.266 Y74.099 E167.3371 F300
G1 X104.515 Y74.395 E167.4845 F300
G1 X106.729 Y74.886 E167.6319 F300
G1 X108.893 Y75.568 E167.7794 F300
G1 X110.988 Y76.436 E167.9268 F300
G1 X113.000 Y77.483 E168.0742 F300
G1 X114.913 Y78.702 E168.2217 F300
G1 X116.712 Y80.083 E168.3691 F300
G1 X118.385 Y81.615 E168.5165 F300
G1 X119.917 Y83.288 E168.6640 F300
G1 X121.298 Y85.087 E168.8114 F300
G1 X122.517 Y87.000 E168.9588 F300
G1 X123.564 Y89.012 E169.1063 F300
G1 X124.432 Y91.107 E169.2537 F300
G1 X125.114 Y93.271 E169.4011 F300
G1 X125.605 Y95.485 E169.5486 F300
G1 X125.901 Y97.734 E169.6960 F300
G1 X126.000 Y100.000 E169.8434 F300
G1 E168.3434 F1200   ; Retract

; === TOWER LAYER 17/20 (Z=33.0mm, circular tower) ===
G1 Z34.00 F600   ; Z-hop
G1 X126.000 Y100.000 F1200   ; Travel to tower outline
G1 Z33.00 F300   ; Lower to layer height
G1 E169.8434 F1200   ; Prime
G1 X125.901 Y102.266 E169.9909 F300
G1 X125.605 Y104.515 E170.1383 F300
G1 X125.114 Y106.729 E170.2857 F300
G1 X124.432 Y108.893 E170.4332 F300
G1 X123.564 Y110.988 E170.5806 F300
G1 X122.517 Y113.000 E170.7280 F300
G1 X121.298 Y114.913 E170.8755 F300
G1 X119.917 Y116.712 E171.0229 F300
G1 X118.385 Y118.385 E171.1703 F300
G1 X116.712 Y119.917 E171.3178 F300
G1 X114.913 Y121.298 E171.4652 F300
G1 X113.000 Y122.517 E171.6126 F300
G1 X110.988 Y123.564 E171.7601 F300
G1 X108.893 Y124.432 E171.9075 F300
G1 X106.729 Y125.114 E172.0549 F300
G1 X104.515 Y125.605 E172.2024 F300
G1 X102.266 Y125.901 E172.3498 F300
G1 X100.000 Y126.000 E172.4972 F300
G1 X97.734 Y125.901 E172.6447 F300
G1 X95.485 Y125.605 E172.7921 F300
G1 X93.271 Y125.114 E172.9395 F300
G1 X91.107 Y124.432 E173.0870 F300
G1 X89.012 Y123.564 E173.2344 F300
G1 X87.000 Y122.517 E173.3818 F300
G1 X85.087 Y121.298 E173.5293 F300
G1 X83.288 Y119.917 E173.6767 F300
G1 X81.615 Y118.385 E173.8241 F300
G1 X80.083 Y116.712 E173.9716 F300
G1 X78.702 Y114.913 E174.1190 F300
G1 X77.483 Y113.000 E174.2664 F300
G1 X76.436 Y110.988 E174.4139 F300
G1 X75.568 Y108.893 E174.5613 F300
G1 X74.886 Y106.729 E174.7087 F300
G1 X74.395 Y104.515 E174.8562 F300
G1 X74.099 Y102.266 E175.0036 F300
G1 X74.000 Y100.000 E175.1510 F300
G1 X74.099 Y97.734 E175.2985 F300
G1 X74.395 Y95.485 E175.4459 F300
G1 X74.886 Y93.271 E175.5933 F300
G1 X75.568 Y91.107 E175.7408 F300
G1 X76.436 Y89.012 E175.8882 F300
G1 X77.483 Y87.000 E176.0356 F300
G1 X78.702 Y85.087 E176.1831 F300
G1 X80.083 Y83.288 E176.3305 F300
G1 X81.615 Y81.615 E176.4779 F300
G1 X83.288 Y80.083 E176.6254 F300
G1 X85.087 Y78.702 E176.7728 F300
G1 X87.000 Y77.483 E176.9202 F300
G1 X89.012 Y76.436 E177.0677 F300
G1 X91.107 Y75.568 E177.2151 F300
G1 X93.271 Y74.886 E177.3625 F300
G1 X95.485 Y74.395 E177.5100 F300
G1 X97.734 Y74.099 E177.6574 F300
G1 X100.000 Y74.000 E177.8048 F300
G1 X102.266 Y74.099 E177.9523 F300
G1 X104.515 Y74.395 E178.0997 F300
G1 X106.729 Y74.886 E178.2471 F300
G1 X108.893 Y75.568 E178.3946 F300
G1 X110.988 Y76.436 E178.5420 F300
G1 X113.000 Y77.483 E178.6894 F300
G1 X114.913 Y78.702 E178.8369 F300
G1 X116.712 Y80.083 E178.9843 F300
G1 X118.385 Y81.615 E179.1317 F300
G1 X119.917 Y83.288 E179.2792 F300
G1 X121.298 Y85.087 E179.4266 F300
G1 X122.517 Y87.000 E179.5740 F300
G1 X123.564 Y89.012 E179.7215 F300
G1 X124.432 Y91.107 E179.8689 F300
G1 X125.114 Y93.271 E180.0163 F300
G1 X125.605 Y95.485 E180.1638 F300
G1 X125.901 Y97.734 E180.3112 F300
G1 X126.000 Y100.000 E180.4586 F300
G1 E178.9586 F1200   ; Retract

; === TOWER LAYER 18/20 (Z=35.0mm, circular tower) ===
G1 Z36.00 F600   ; Z-hop
G1 X126.000 Y100.000 F1200   ; Travel to tower outline
G1 Z35.00 F300   ; Lower to layer height
G1 E180.4586 F1200   ; Prime
G1 X125.901 Y102.266 E180.6061 F300
G1 X125.605 Y104.515 E180.7535 F300
G1 X125.114 Y106.729 E180.9009 F300
G1 X124.432 Y108.893 E181.0484 F300
G1 X123.564 Y110.988 E181.1958 F300
G1 X122.517 Y113.000 E181.3432 F300
G1 X121.298 Y114.913 E181.4907 F300
G1 X119.917 Y116.712 E181.6381 F300
G1 X118.385 Y118.385 E181.7855 F300
G1 X116.712 Y119.917 E181.9330 F300
G1 X114.913 Y121.298 E182.0804 F300
G1 X113.000 Y122.517 E182.2278 F300
G1 X110.988 Y123.564 E182.3753 F300
G1 X108.893 Y124.432 E182.5227 F300
G1 X106.729 Y125.114 E182.6701 F300
G1 X104.515 Y125.605 E182.8176 F300
G1 X102.266 Y125.901 E182.9650 F300
G1 X100.000 Y126.000 E183.1124 F300
G1 X97.734 Y125.901 E183.2599 F300
G1 X95.485 Y125.605 E183.4073 F300
G1 X93.271 Y125.114 E183.5547 F300
G1 X91.107 Y124.432 E183.7022 F300
G1 X89.012 Y123.564 E183.8496 F300
G1 X87.000 Y122.517 E183.9970 F300
G1 X85.087 Y121.298 E184.1445 F300
G1 X83.288 Y119.917 E184.2919 F300
G1 X81.615 Y118.385 E184.4393 F300
G1 X80.083 Y116.712 E184.5868 F300
G1 X78.702 Y114.913 E184.7342 F300
G1 X77.483 Y113.000 E184.8816 F300
G1 X76.436 Y110.988 E185.0291 F300
G1 X75.568 Y108.893 E185.1765 F300
G1 X74.886 Y106.729 E185.3239 F300
G1 X74.395 Y104.515 E185.4714 F300
G1 X74.099 Y102.266 E185.6188 F300
G1 X74.000 Y100.000 E185.7662 F300
G1 X74.099 Y97.734 E185.9137 F300
G1 X74.395 Y95.485 E186.0611 F300
G1 X74.886 Y93.271 E186.2085 F300
G1 X75.568 Y91.107 E186.3560 F300
G1 X76.436 Y89.012 E186.5034 F300
G1 X77.483 Y87.000 E186.6508 F300
G1 X78.702 Y85.087 E186.7983 F300
G1 X80.083 Y83.288 E186.9457 F300
G1 X81.615 Y81.615 E187.0931 F300
G1 X83.288 Y80.083 E187.2406 F300
G1 X85.087 Y78.702 E187.3880 F300
G1 X87.000 Y77.483 E187.5354 F300
G1 X89.012 Y76.436 E187.6829 F300
G1 X91.107 Y75.568 E187.8303 F300
G1 X93.271 Y74.886 E187.9777 F300
G1 X95.485 Y74.395 E188.1252 F300
G1 X97.734 Y74.099 E188.2726 F300
G1 X100.000 Y74.000 E188.4201 F300
G1 X102.266 Y74.099 E188.5675 F300
G1 X104.515 Y74.395 E188.7149 F300
G1 X106.729 Y74.886 E188.8624 F300
G1 X108.893 Y75.568 E189.0098 F300
G1 X110.988 Y76.436 E189.1572 F300
G1 X113.000 Y77.483 E189.3047 F300
G1 X114.913 Y78.702 E189.4521 F300
G1 X116.712 Y80.083 E189.5995 F300
G1 X118.385 Y81.615 E189.7470 F300
G1 X119.917 Y83.288 E189.8944 F300
G1 X121.298 Y85.087 E190.0418 F300
G1 X122.517 Y87.000 E190.1893 F300
G1 X123.564 Y89.012 E190.3367 F300
G1 X124.432 Y91.107 E190.4841 F300
G1 X125.114 Y93.271 E190.6316 F300
G1 X125.605 Y95.485 E190.7790 F300
G1 X125.901 Y97.734 E190.9264 F300
G1 X126.000 Y100.000 E191.0739 F300
G1 E189.5739 F1200   ; Retract

; === TOWER LAYER 19/20 (Z=37.0mm, circular tower) ===
G1 Z38.00 F600   ; Z-hop
G1 X126.000 Y100.000 F1200   ; Travel to tower outline
G1 Z37.00 F300   ; Lower to layer height
G1 E191.0739 F1200   ; Prime
G1 X125.901 Y102.266 E191.2213 F300
G1 X125.605 Y104.515 E191.3687 F300
G1 X125.114 Y106.729 E191.5162 F300
G1 X124.432 Y108.893 E191.6636 F300
G1 X123.564 Y110.988 E191.8110 F300
G1 X122.517 Y113.000 E191.9585 F300
G1 X121.298 Y114.913 E192.1059 F300
G1 X119.917 Y116.712 E192.2533 F300
G1 X118.385 Y118.385 E192.4008 F300
G1 X116.712 Y119.917 E192.5482 F300
G1 X114.913 Y121.298 E192.6956 F300
G1 X113.000 Y122.517 E192.8431 F300
G1 X110.988 Y123.564 E192.9905 F300
G1 X108.893 Y124.432 E193.1379 F300
G1 X106.729 Y125.114 E193.2854 F300
G1 X104.515 Y125.605 E193.4328 F300
G1 X102.266 Y125.901 E193.5802 F300
G1 X100.000 Y126.000 E193.7277 F300
G1 X97.734 Y125.901 E193.8751 F300
G1 X95.485 Y125.605 E194.0225 F300
G1 X93.271 Y125.114 E194.1700 F300
G1 X91.107 Y124.432 E194.3174 F300
G1 X89.012 Y123.564 E194.4648 F300
G1 X87.000 Y122.517 E194.6123 F300
G1 X85.087 Y121.298 E194.7597 F300
G1 X83.288 Y119.917 E194.9071 F300
G1 X81.615 Y118.385 E195.0546 F300
G1 X80.083 Y116.712 E195.2020 F300
G1 X78.702 Y114.913 E195.3494 F300
G1 X77.483 Y113.000 E195.4969 F300
G1 X76.436 Y110.988 E195.6443 F300
G1 X75.568 Y108.893 E195.7917 F300
G1 X74.886 Y106.729 E195.9392 F300
G1 X74.395 Y104.515 E196.0866 F300
G1 X74.099 Y102.266 E196.2340 F300
G1 X74.000 Y100.000 E196.3815 F300
G1 X74.099 Y97.734 E196.5289 F300
G1 X74.395 Y95.485 E196.6763 F300
G1 X74.886 Y93.271 E196.8238 F300
G1 X75.568 Y91.107 E196.9712 F300
G1 X76.436 Y89.012 E197.1186 F300
G1 X77.483 Y87.000 E197.2661 F300
G1 X78.702 Y85.087 E197.4135 F300
G1 X80.083 Y83.288 E197.5609 F300
G1 X81.615 Y81.615 E197.7084 F300
G1 X83.288 Y80.083 E197.8558 F300
G1 X85.087 Y78.702 E198.0032 F300
G1 X87.000 Y77.483 E198.1507 F300
G1 X89.012 Y76.436 E198.2981 F300
G1 X91.107 Y75.568 E198.4455 F300
G1 X93.271 Y74.886 E198.5930 F300
G1 X95.485 Y74.395 E198.7404 F300
G1 X97.734 Y74.099 E198.8878 F300
G1 X100.000 Y74.000 E199.0353 F300
G1 X102.266 Y74.099 E199.1827 F300
G1 X104.515 Y74.395 E199.3301 F300
G1 X106.729 Y74.886 E199.4776 F300
G1 X108.893 Y75.568 E199.6250 F300
G1 X110.988 Y76.436 E199.7724 F300
G1 X113.000 Y77.483 E199.9199 F300
G1 X114.913 Y78.702 E200.0673 F300
G1 X116.712 Y80.083 E200.2147 F300
G1 X118.385 Y81.615 E200.3622 F300
G1 X119.917 Y83.288 E200.5096 F300
G1 X121.298 Y85.087 E200.6570 F300
G1 X122.517 Y87.000 E200.8045 F300
G1 X123.564 Y89.012 E200.9519 F300
G1 X124.432 Y91.107 E201.0993 F300
G1 X125.114 Y93.271 E201.2468 F300
G1 X125.605 Y95.485 E201.3942 F300
G1 X125.901 Y97.734 E201.5416 F300
G1 X126.000 Y100.000 E201.6891 F300
G1 E200.1891 F1200   ; Retract

; === TOWER LAYER 20/20 (Z=39.0mm, circular tower) ===
G1 Z40.00 F600   ; Z-hop
G1 X126.000 Y100.000 F1200   ; Travel to tower outline
G1 Z39.00 F300   ; Lower to layer height
G1 E201.6891 F1200   ; Prime
G1 X125.901 Y102.266 E201.8365 F300
G1 X125.605 Y104.515 E201.9839 F300
G1 X125.114 Y106.729 E202.1314 F300
G1 X124.432 Y108.893 E202.2788 F300
G1 X123.564 Y110.988 E202.4262 F300
G1 X122.517 Y113.000 E202.5737 F300
G1 X121.298 Y114.913 E202.7211 F300
G1 X119.917 Y116.712 E202.8685 F300
G1 X118.385 Y118.385 E203.0160 F300
G1 X116.712 Y119.917 E203.1634 F300
G1 X114.913 Y121.298 E203.3108 F300
G1 X113.000 Y122.517 E203.4583 F300
G1 X110.988 Y123.564 E203.6057 F300
G1 X108.893 Y124.432 E203.7531 F300
G1 X106.729 Y125.114 E203.9006 F300
G1 X104.515 Y125.605 E204.0480 F300
G1 X102.266 Y125.901 E204.1954 F300
G1 X100.000 Y126.000 E204.3429 F300
G1 X97.734 Y125.901 E204.4903 F300
G1 X95.485 Y125.605 E204.6377 F300
G1 X93.271 Y125.114 E204.7852 F300
G1 X91.107 Y124.432 E204.9326 F300
G1 X89.012 Y123.564 E205.0800 F300
G1 X87.000 Y122.517 E205.2275 F300
G1 X85.087 Y121.298 E205.3749 F300
G1 X83.288 Y119.917 E205.5223 F300
G1 X81.615 Y118.385 E205.6698 F300
G1 X80.083 Y116.712 E205.8172 F300
G1 X78.702 Y114.913 E205.9646 F300
G1 X77.483 Y113.000 E206.1121 F300
G1 X76.436 Y110.988 E206.2595 F300
G1 X75.568 Y108.893 E206.4069 F300
G1 X74.886 Y106.729 E206.5544 F300
G1 X74.395 Y104.515 E206.7018 F300
G1 X74.099 Y102.266 E206.8492 F300
G1 X74.000 Y100.000 E206.9967 F300
G1 X74.099 Y97.734 E207.1441 F300
G1 X74.395 Y95.485 E207.2915 F300
G1 X74.886 Y93.271 E207.4390 F300
G1 X75.568 Y91.107 E207.5864 F300
G1 X76.436 Y89.012 E207.7338 F300
G1 X77.483 Y87.000 E207.8813 F300
G1 X78.702 Y85.087 E208.0287 F300
G1 X80.083 Y83.288 E208.1761 F300
G1 X81.615 Y81.615 E208.3236 F300
G1 X83.288 Y80.083 E208.4710 F300
G1 X85.087 Y78.702 E208.6184 F300
G1 X87.000 Y77.483 E208.7659 F300
G1 X89.012 Y76.436 E208.9133 F300
G1 X91.107 Y75.568 E209.0607 F300
G1 X93.271 Y74.886 E209.2082 F300
G1 X95.485 Y74.395 E209.3556 F300
G1 X97.734 Y74.099 E209.5030 F300
G1 X100.000 Y74.000 E209.6505 F300
G1 X102.266 Y74.099 E209.7979 F300
G1 X104.515 Y74.395 E209.9453 F300
G1 X106.729 Y74.886 E210.0928 F300
G1 X108.893 Y75.568 E210.2402 F300
G1 X110.988 Y76.436 E210.3876 F300
G1 X113.000 Y77.483 E210.5351 F300
G1 X114.913 Y78.702 E210.6825 F300
G1 X116.712 Y80.083 E210.8299 F300
G1 X118.385 Y81.615 E210.9774 F300
G1 X119.917 Y83.288 E211.1248 F300
G1 X121.298 Y85.087 E211.2722 F300
G1 X122.517 Y87.000 E211.4197 F300
G1 X123.564 Y89.012 E211.5671 F300
G1 X124.432 Y91.107 E211.7145 F300
G1 X125.114 Y93.271 E211.8620 F300
G1 X125.605 Y95.485 E212.0094 F300
G1 X125.901 Y97.734 E212.1568 F300
G1 X126.000 Y100.000 E212.3043 F300
G1 E210.8043 F1200   ; Retract

; === FINISH ===
G1 Z59.0 F600      ; Raise nozzle clear
G1 X0 Y0 F1200   ; Move to home
M84              ; Disable motors

; === END ===
