; 6-Loop Star Epitrochoid — Food Printing G-code (V4)
; Single material per layer, stacked with twist
;
; Epitrochoid: R=18, r=3, d=5
; Formula: x = (R+r)cos(t) - d·cos((R+r)/r · t)
; Loops: 6  |  Revolutions: 1
; Pattern diameter: 52mm (outer)
; Points per layer: 360
;
; Layers: 3
; Layer height: 2.0mm
; Total height: 10.0mm
; Twist per layer: 10.0° (total: 20.0°)
; Print speed: 300 mm/min
; Center: (100, 100)

; === INITIALIZATION ===
G21              ; Set units to millimeters
G90              ; Absolute positioning
M82              ; Absolute extrusion mode
G28              ; Home all axes


; === LAYER 1/3 (Z=6.0mm, θ=0.0°) ===
G1 Z7.00 F600   ; Z-hop
G1 X116.000 Y100.000 F1200   ; Travel to start
G1 Z6.00 F300   ; Lower to layer height
G1 X116.034 Y99.757 E0.0245 F300
G1 X116.136 Y99.523 E0.0500 F300
G1 X116.303 Y99.307 E0.0774 F300
G1 X116.534 Y99.118 E0.1072 F300
G1 X116.824 Y98.962 E0.1402 F300
G1 X117.169 Y98.849 E0.1764 F300
G1 X117.563 Y98.786 E0.2163 F300
G1 X118.000 Y98.777 E0.2600 F300
G1 X118.472 Y98.830 E0.3075 F300
G1 X118.971 Y98.948 E0.3588 F300
G1 X119.489 Y99.135 E0.4139 F300
G1 X120.018 Y99.394 E0.4728 F300
G1 X120.549 Y99.725 E0.5353 F300
G1 X121.072 Y100.129 E0.6014 F300
G1 X121.579 Y100.606 E0.6710 F300
G1 X122.060 Y101.152 E0.7438 F300
G1 X122.506 Y101.767 E0.8198 F300
G1 X122.911 Y102.444 E0.8987 F300
G1 X123.266 Y103.180 E0.9804 F300
G1 X123.564 Y103.968 E1.0647 F300
G1 X123.799 Y104.803 E1.1513 F300
G1 X123.965 Y105.675 E1.2401 F300
G1 X124.058 Y106.578 E1.3309 F300
G1 X124.075 Y107.502 E1.4233 F300
G1 X124.013 Y108.439 E1.5173 F300
G1 X123.872 Y109.380 E1.6124 F300
G1 X123.650 Y110.316 E1.7086 F300
G1 X123.348 Y111.237 E1.8055 F300
G1 X122.970 Y112.135 E1.9029 F300
G1 X122.517 Y113.000 E2.0006 F300
G1 X121.994 Y113.825 E2.0983 F300
G1 X121.406 Y114.602 E2.1957 F300
G1 X120.759 Y115.323 E2.2926 F300
G1 X120.059 Y115.983 E2.3888 F300
G1 X119.315 Y116.577 E2.4839 F300
G1 X118.534 Y117.099 E2.5779 F300
G1 X117.725 Y117.546 E2.6703 F300
G1 X116.897 Y117.917 E2.7611 F300
G1 X116.058 Y118.209 E2.8499 F300
G1 X115.219 Y118.423 E2.9365 F300
G1 X114.387 Y118.559 E3.0208 F300
G1 X113.572 Y118.619 E3.1025 F300
G1 X112.783 Y118.608 E3.1814 F300
G1 X112.028 Y118.528 E3.2574 F300
G1 X111.314 Y118.385 E3.3302 F300
G1 X110.648 Y118.184 E3.3997 F300
G1 X110.036 Y117.934 E3.4659 F300
G1 X109.484 Y117.640 E3.5284 F300
G1 X108.996 Y117.311 E3.5873 F300
G1 X108.575 Y116.955 E3.6424 F300
G1 X108.223 Y116.582 E3.6937 F300
G1 X107.941 Y116.199 E3.7412 F300
G1 X107.730 Y115.817 E3.7848 F300
G1 X107.588 Y115.444 E3.8248 F300
G1 X107.514 Y115.089 E3.8610 F300
G1 X107.503 Y114.760 E3.8940 F300
G1 X107.552 Y114.465 E3.9238 F300
G1 X107.655 Y114.212 E3.9512 F300
G1 X107.807 Y114.007 E3.9767 F300
G1 X108.000 Y113.856 E4.0012 F300
G1 X108.227 Y113.764 E4.0257 F300
G1 X108.481 Y113.736 E4.0512 F300
G1 X108.752 Y113.773 E4.0786 F300
G1 X109.031 Y113.878 E4.1084 F300
G1 X109.311 Y114.051 E4.1413 F300
G1 X109.581 Y114.294 E4.1776 F300
G1 X109.833 Y114.603 E4.2175 F300
G1 X110.059 Y114.977 E4.2612 F300
G1 X110.249 Y115.412 E4.3087 F300
G1 X110.396 Y115.903 E4.3600 F300
G1 X110.494 Y116.446 E4.4151 F300
G1 X110.534 Y117.033 E4.4740 F300
G1 X110.513 Y117.658 E4.5365 F300
G1 X110.424 Y118.313 E4.6026 F300
G1 X110.265 Y118.990 E4.6722 F300
G1 X110.032 Y119.680 E4.7450 F300
G1 X109.723 Y120.375 E4.8210 F300
G1 X109.339 Y121.064 E4.8999 F300
G1 X108.879 Y121.739 E4.9816 F300
G1 X108.345 Y122.391 E5.0659 F300
G1 X107.740 Y123.011 E5.1525 F300
G1 X107.068 Y123.592 E5.2413 F300
G1 X106.333 Y124.124 E5.3321 F300
G1 X105.541 Y124.601 E5.4245 F300
G1 X104.698 Y125.016 E5.5185 F300
G1 X103.812 Y125.364 E5.6136 F300
G1 X102.891 Y125.639 E5.7098 F300
G1 X101.942 Y125.839 E5.8067 F300
G1 X100.976 Y125.960 E5.9041 F300
G1 X100.000 Y126.000 E6.0018 F300
G1 X99.024 Y125.960 E6.0995 F300
G1 X98.058 Y125.839 E6.1969 F300
G1 X97.109 Y125.639 E6.2938 F300
G1 X96.188 Y125.364 E6.3900 F300
G1 X95.302 Y125.016 E6.4851 F300
G1 X94.459 Y124.601 E6.5791 F300
G1 X93.667 Y124.124 E6.6715 F300
G1 X92.932 Y123.592 E6.7623 F300
G1 X92.260 Y123.011 E6.8511 F300
G1 X91.655 Y122.391 E6.9377 F300
G1 X91.121 Y121.739 E7.0220 F300
G1 X90.661 Y121.064 E7.1037 F300
G1 X90.277 Y120.375 E7.1826 F300
G1 X89.968 Y119.680 E7.2586 F300
G1 X89.735 Y118.990 E7.3314 F300
G1 X89.576 Y118.313 E7.4009 F300
G1 X89.487 Y117.658 E7.4671 F300
G1 X89.466 Y117.033 E7.5296 F300
G1 X89.506 Y116.446 E7.5885 F300
G1 X89.604 Y115.903 E7.6436 F300
G1 X89.751 Y115.412 E7.6949 F300
G1 X89.941 Y114.977 E7.7424 F300
G1 X90.167 Y114.603 E7.7860 F300
G1 X90.419 Y114.294 E7.8260 F300
G1 X90.689 Y114.051 E7.8622 F300
G1 X90.969 Y113.878 E7.8952 F300
G1 X91.248 Y113.773 E7.9250 F300
G1 X91.519 Y113.736 E7.9524 F300
G1 X91.773 Y113.764 E7.9779 F300
G1 X92.000 Y113.856 E8.0024 F300
G1 X92.193 Y114.007 E8.0269 F300
G1 X92.345 Y114.212 E8.0524 F300
G1 X92.448 Y114.465 E8.0798 F300
G1 X92.497 Y114.760 E8.1096 F300
G1 X92.486 Y115.089 E8.1425 F300
G1 X92.412 Y115.444 E8.1788 F300
G1 X92.270 Y115.817 E8.2187 F300
G1 X92.059 Y116.199 E8.2624 F300
G1 X91.777 Y116.582 E8.3099 F300
G1 X91.425 Y116.955 E8.3612 F300
G1 X91.004 Y117.311 E8.4163 F300
G1 X90.516 Y117.640 E8.4752 F300
G1 X89.964 Y117.934 E8.5377 F300
G1 X89.352 Y118.184 E8.6038 F300
G1 X88.686 Y118.385 E8.6734 F300
G1 X87.972 Y118.528 E8.7462 F300
G1 X87.217 Y118.608 E8.8222 F300
G1 X86.428 Y118.619 E8.9011 F300
G1 X85.613 Y118.559 E8.9828 F300
G1 X84.781 Y118.423 E9.0671 F300
G1 X83.942 Y118.209 E9.1537 F300
G1 X83.103 Y117.917 E9.2425 F300
G1 X82.275 Y117.546 E9.3333 F300
G1 X81.466 Y117.099 E9.4257 F300
G1 X80.685 Y116.577 E9.5197 F300
G1 X79.941 Y115.983 E9.6148 F300
G1 X79.241 Y115.323 E9.7110 F300
G1 X78.594 Y114.602 E9.8079 F300
G1 X78.006 Y113.825 E9.9053 F300
G1 X77.483 Y113.000 E10.0030 F300
G1 X77.030 Y112.135 E10.1007 F300
G1 X76.652 Y111.237 E10.1981 F300
G1 X76.350 Y110.316 E10.2950 F300
G1 X76.128 Y109.380 E10.3912 F300
G1 X75.987 Y108.439 E10.4863 F300
G1 X75.925 Y107.502 E10.5803 F300
G1 X75.942 Y106.578 E10.6727 F300
G1 X76.035 Y105.675 E10.7635 F300
G1 X76.201 Y104.803 E10.8523 F300
G1 X76.436 Y103.968 E10.9389 F300
G1 X76.734 Y103.180 E11.0232 F300
G1 X77.089 Y102.444 E11.1049 F300
G1 X77.494 Y101.767 E11.1838 F300
G1 X77.940 Y101.152 E11.2598 F300
G1 X78.421 Y100.606 E11.3326 F300
G1 X78.928 Y100.129 E11.4021 F300
G1 X79.451 Y99.725 E11.4682 F300
G1 X79.982 Y99.394 E11.5308 F300
G1 X80.511 Y99.135 E11.5897 F300
G1 X81.029 Y98.948 E11.6448 F300
G1 X81.528 Y98.830 E11.6961 F300
G1 X82.000 Y98.777 E11.7436 F300
G1 X82.437 Y98.786 E11.7872 F300
G1 X82.831 Y98.849 E11.8271 F300
G1 X83.176 Y98.962 E11.8634 F300
G1 X83.466 Y99.118 E11.8964 F300
G1 X83.697 Y99.307 E11.9262 F300
G1 X83.864 Y99.523 E11.9536 F300
G1 X83.966 Y99.757 E11.9791 F300
G1 X84.000 Y100.000 E12.0036 F300
G1 X83.966 Y100.243 E12.0281 F300
G1 X83.864 Y100.477 E12.0536 F300
G1 X83.697 Y100.693 E12.0810 F300
G1 X83.466 Y100.882 E12.1108 F300
G1 X83.176 Y101.038 E12.1437 F300
G1 X82.831 Y101.151 E12.1800 F300
G1 X82.437 Y101.214 E12.2199 F300
G1 X82.000 Y101.223 E12.2636 F300
G1 X81.528 Y101.170 E12.3111 F300
G1 X81.029 Y101.052 E12.3624 F300
G1 X80.511 Y100.865 E12.4175 F300
G1 X79.982 Y100.606 E12.4764 F300
G1 X79.451 Y100.275 E12.5389 F300
G1 X78.928 Y99.871 E12.6050 F300
G1 X78.421 Y99.394 E12.6746 F300
G1 X77.940 Y98.848 E12.7474 F300
G1 X77.494 Y98.233 E12.8234 F300
G1 X77.089 Y97.556 E12.9023 F300
G1 X76.734 Y96.820 E12.9840 F300
G1 X76.436 Y96.032 E13.0683 F300
G1 X76.201 Y95.197 E13.1549 F300
G1 X76.035 Y94.325 E13.2437 F300
G1 X75.942 Y93.422 E13.3345 F300
G1 X75.925 Y92.498 E13.4269 F300
G1 X75.987 Y91.561 E13.5209 F300
G1 X76.128 Y90.620 E13.6160 F300
G1 X76.350 Y89.684 E13.7122 F300
G1 X76.652 Y88.763 E13.8091 F300
G1 X77.030 Y87.865 E13.9065 F300
G1 X77.483 Y87.000 E14.0042 F300
G1 X78.006 Y86.175 E14.1019 F300
G1 X78.594 Y85.398 E14.1993 F300
G1 X79.241 Y84.677 E14.2962 F300
G1 X79.941 Y84.017 E14.3924 F300
G1 X80.685 Y83.423 E14.4875 F300
G1 X81.466 Y82.901 E14.5815 F300
G1 X82.275 Y82.454 E14.6739 F300
G1 X83.103 Y82.083 E14.7647 F300
G1 X83.942 Y81.791 E14.8535 F300
G1 X84.781 Y81.577 E14.9401 F300
G1 X85.613 Y81.441 E15.0244 F300
G1 X86.428 Y81.381 E15.1061 F300
G1 X87.217 Y81.392 E15.1850 F300
G1 X87.972 Y81.472 E15.2610 F300
G1 X88.686 Y81.615 E15.3338 F300
G1 X89.352 Y81.816 E15.4033 F300
G1 X89.964 Y82.066 E15.4694 F300
G1 X90.516 Y82.360 E15.5320 F300
G1 X91.004 Y82.689 E15.5909 F300
G1 X91.425 Y83.045 E15.6460 F300
G1 X91.777 Y83.418 E15.6973 F300
G1 X92.059 Y83.801 E15.7448 F300
G1 X92.270 Y84.183 E15.7884 F300
G1 X92.412 Y84.556 E15.8283 F300
G1 X92.486 Y84.911 E15.8646 F300
G1 X92.497 Y85.240 E15.8975 F300
G1 X92.448 Y85.535 E15.9274 F300
G1 X92.345 Y85.788 E15.9548 F300
G1 X92.193 Y85.993 E15.9803 F300
G1 X92.000 Y86.144 E16.0048 F300
G1 X91.773 Y86.236 E16.0293 F300
G1 X91.519 Y86.264 E16.0548 F300
G1 X91.248 Y86.227 E16.0822 F300
G1 X90.969 Y86.122 E16.1120 F300
G1 X90.689 Y85.949 E16.1449 F300
G1 X90.419 Y85.706 E16.1812 F300
G1 X90.167 Y85.397 E16.2211 F300
G1 X89.941 Y85.023 E16.2648 F300
G1 X89.751 Y84.588 E16.3123 F300
G1 X89.604 Y84.097 E16.3636 F300
G1 X89.506 Y83.554 E16.4187 F300
G1 X89.466 Y82.967 E16.4776 F300
G1 X89.487 Y82.342 E16.5401 F300
G1 X89.576 Y81.687 E16.6062 F300
G1 X89.735 Y81.010 E16.6758 F300
G1 X89.968 Y80.320 E16.7486 F300
G1 X90.277 Y79.625 E16.8246 F300
G1 X90.661 Y78.936 E16.9035 F300
G1 X91.121 Y78.261 E16.9852 F300
G1 X91.655 Y77.609 E17.0695 F300
G1 X92.260 Y76.989 E17.1561 F300
G1 X92.932 Y76.408 E17.2449 F300
G1 X93.667 Y75.876 E17.3357 F300
G1 X94.459 Y75.399 E17.4281 F300
G1 X95.302 Y74.984 E17.5220 F300
G1 X96.188 Y74.636 E17.6172 F300
G1 X97.109 Y74.361 E17.7134 F300
G1 X98.058 Y74.161 E17.8103 F300
G1 X99.024 Y74.040 E17.9077 F300
G1 X100.000 Y74.000 E18.0054 F300
G1 X100.976 Y74.040 E18.1031 F300
G1 X101.942 Y74.161 E18.2005 F300
G1 X102.891 Y74.361 E18.2974 F300
G1 X103.812 Y74.636 E18.3936 F300
G1 X104.698 Y74.984 E18.4887 F300
G1 X105.541 Y75.399 E18.5827 F300
G1 X106.333 Y75.876 E18.6751 F300
G1 X107.068 Y76.408 E18.7659 F300
G1 X107.740 Y76.989 E18.8547 F300
G1 X108.345 Y77.609 E18.9413 F300
G1 X108.879 Y78.261 E19.0256 F300
G1 X109.339 Y78.936 E19.1073 F300
G1 X109.723 Y79.625 E19.1862 F300
G1 X110.032 Y80.320 E19.2622 F300
G1 X110.265 Y81.010 E19.3350 F300
G1 X110.424 Y81.687 E19.4045 F300
G1 X110.513 Y82.342 E19.4706 F300
G1 X110.534 Y82.967 E19.5332 F300
G1 X110.494 Y83.554 E19.5921 F300
G1 X110.396 Y84.097 E19.6472 F300
G1 X110.249 Y84.588 E19.6985 F300
G1 X110.059 Y85.023 E19.7460 F300
G1 X109.833 Y85.397 E19.7896 F300
G1 X109.581 Y85.706 E19.8295 F300
G1 X109.311 Y85.949 E19.8658 F300
G1 X109.031 Y86.122 E19.8987 F300
G1 X108.752 Y86.227 E19.9286 F300
G1 X108.481 Y86.264 E19.9560 F300
G1 X108.227 Y86.236 E19.9815 F300
G1 X108.000 Y86.144 E20.0060 F300
G1 X107.807 Y85.993 E20.0305 F300
G1 X107.655 Y85.788 E20.0560 F300
G1 X107.552 Y85.535 E20.0834 F300
G1 X107.503 Y85.240 E20.1132 F300
G1 X107.514 Y84.911 E20.1461 F300
G1 X107.588 Y84.556 E20.1824 F300
G1 X107.730 Y84.183 E20.2223 F300
G1 X107.941 Y83.801 E20.2660 F300
G1 X108.223 Y83.418 E20.3135 F300
G1 X108.575 Y83.045 E20.3648 F300
G1 X108.996 Y82.689 E20.4199 F300
G1 X109.484 Y82.360 E20.4788 F300
G1 X110.036 Y82.066 E20.5413 F300
G1 X110.648 Y81.816 E20.6074 F300
G1 X111.314 Y81.615 E20.6770 F300
G1 X112.028 Y81.472 E20.7498 F300
G1 X112.783 Y81.392 E20.8258 F300
G1 X113.572 Y81.381 E20.9047 F300
G1 X114.387 Y81.441 E20.9864 F300
G1 X115.219 Y81.577 E21.0707 F300
G1 X116.058 Y81.791 E21.1573 F300
G1 X116.897 Y82.083 E21.2461 F300
G1 X117.725 Y82.454 E21.3369 F300
G1 X118.534 Y82.901 E21.4293 F300
G1 X119.315 Y83.423 E21.5232 F300
G1 X120.059 Y84.017 E21.6184 F300
G1 X120.759 Y84.677 E21.7146 F300
G1 X121.406 Y85.398 E21.8115 F300
G1 X121.994 Y86.175 E21.9089 F300
G1 X122.517 Y87.000 E22.0066 F300
G1 X122.970 Y87.865 E22.1043 F300
G1 X123.348 Y88.763 E22.2017 F300
G1 X123.650 Y89.684 E22.2986 F300
G1 X123.872 Y90.620 E22.3948 F300
G1 X124.013 Y91.561 E22.4899 F300
G1 X124.075 Y92.498 E22.5839 F300
G1 X124.058 Y93.422 E22.6763 F300
G1 X123.965 Y94.325 E22.7671 F300
G1 X123.799 Y95.197 E22.8559 F300
G1 X123.564 Y96.032 E22.9425 F300
G1 X123.266 Y96.820 E23.0268 F300
G1 X122.911 Y97.556 E23.1085 F300
G1 X122.506 Y98.233 E23.1874 F300
G1 X122.060 Y98.848 E23.2634 F300
G1 X121.579 Y99.394 E23.3362 F300
G1 X121.072 Y99.871 E23.4057 F300
G1 X120.549 Y100.275 E23.4718 F300
G1 X120.018 Y100.606 E23.5344 F300
G1 X119.489 Y100.865 E23.5933 F300
G1 X118.971 Y101.052 E23.6484 F300
G1 X118.472 Y101.170 E23.6997 F300
G1 X118.000 Y101.223 E23.7472 F300
G1 X117.563 Y101.214 E23.7908 F300
G1 X117.169 Y101.151 E23.8307 F300
G1 X116.824 Y101.038 E23.8670 F300
G1 X116.534 Y100.882 E23.8999 F300
G1 X116.303 Y100.693 E23.9298 F300
G1 X116.136 Y100.477 E23.9572 F300
G1 X116.034 Y100.243 E23.9827 F300
G1 X116.000 Y100.000 E24.0072 F300
G1 E22.5072 F1200   ; Retract

; === LAYER 2/3 (Z=8.0mm, θ=10.0°) ===
G1 Z9.00 F600   ; Z-hop
G1 X115.757 Y102.778 F1200   ; Travel to start
G1 Z8.00 F300   ; Lower to layer height
G1 E24.0072 F1200   ; Prime
G1 X115.833 Y102.545 E24.0317 F300
G1 X115.973 Y102.332 E24.0572 F300
G1 X116.176 Y102.149 E24.0846 F300
G1 X116.436 Y102.002 E24.1144 F300
G1 X116.749 Y101.900 E24.1473 F300
G1 X117.108 Y101.848 E24.1836 F300
G1 X117.507 Y101.854 E24.2235 F300
G1 X117.939 Y101.922 E24.2672 F300
G1 X118.394 Y102.055 E24.3147 F300
G1 X118.865 Y102.258 E24.3660 F300
G1 X119.344 Y102.533 E24.4211 F300
G1 X119.820 Y102.879 E24.4800 F300
G1 X120.285 Y103.297 E24.5425 F300
G1 X120.730 Y103.786 E24.6086 F300
G1 X121.146 Y104.343 E24.6782 F300
G1 X121.524 Y104.966 E24.7510 F300
G1 X121.858 Y105.648 E24.8270 F300
G1 X122.139 Y106.386 E24.9059 F300
G1 X122.360 Y107.172 E24.9876 F300
G1 X122.517 Y108.000 E25.0719 F300
G1 X122.603 Y108.862 E25.1585 F300
G1 X122.615 Y109.750 E25.2473 F300
G1 X122.551 Y110.655 E25.3381 F300
G1 X122.407 Y111.569 E25.4305 F300
G1 X122.183 Y112.481 E25.5244 F300
G1 X121.880 Y113.383 E25.6196 F300
G1 X121.499 Y114.266 E25.7158 F300
G1 X121.042 Y115.121 E25.8127 F300
G1 X120.513 Y115.939 E25.9101 F300
G1 X119.917 Y116.712 E26.0078 F300
G1 X119.259 Y117.434 E26.1055 F300
G1 X118.545 Y118.097 E26.2029 F300
G1 X117.782 Y118.695 E26.2998 F300
G1 X116.979 Y119.224 E26.3960 F300
G1 X116.143 Y119.679 E26.4911 F300
G1 X115.284 Y120.057 E26.5851 F300
G1 X114.409 Y120.358 E26.6775 F300
G1 X113.529 Y120.579 E26.7683 F300
G1 X112.652 Y120.721 E26.8571 F300
G1 X111.788 Y120.785 E26.9437 F300
G1 X110.946 Y120.775 E27.0280 F300
G1 X110.133 Y120.693 E27.1097 F300
G1 X109.358 Y120.545 E27.1886 F300
G1 X108.628 Y120.335 E27.2646 F300
G1 X107.949 Y120.070 E27.3374 F300
G1 X107.328 Y119.757 E27.4069 F300
G1 X106.770 Y119.404 E27.4730 F300
G1 X106.277 Y119.019 E27.5356 F300
G1 X105.853 Y118.610 E27.5945 F300
G1 X105.500 Y118.187 E27.6496 F300
G1 X105.218 Y117.758 E27.7009 F300
G1 X105.007 Y117.332 E27.7484 F300
G1 X104.866 Y116.919 E27.7920 F300
G1 X104.791 Y116.527 E27.8319 F300
G1 X104.779 Y116.165 E27.8682 F300
G1 X104.826 Y115.839 E27.9011 F300
G1 X104.925 Y115.557 E27.9310 F300
G1 X105.071 Y115.326 E27.9584 F300
G1 X105.256 Y115.150 E27.9839 F300
G1 X105.472 Y115.035 E28.0084 F300
G1 X105.712 Y114.984 E28.0329 F300
G1 X105.967 Y115.000 E28.0584 F300
G1 X106.227 Y115.083 E28.0857 F300
G1 X106.484 Y115.235 E28.1156 F300
G1 X106.729 Y115.455 E28.1485 F300
G1 X106.953 Y115.740 E28.1848 F300
G1 X107.148 Y116.089 E28.2247 F300
G1 X107.305 Y116.496 E28.2684 F300
G1 X107.417 Y116.957 E28.3159 F300
G1 X107.477 Y117.467 E28.3672 F300
G1 X107.478 Y118.018 E28.4223 F300
G1 X107.417 Y118.604 E28.4812 F300
G1 X107.287 Y119.216 E28.5437 F300
G1 X107.086 Y119.845 E28.6098 F300
G1 X106.811 Y120.484 E28.6794 F300
G1 X106.462 Y121.123 E28.7522 F300
G1 X106.037 Y121.753 E28.8282 F300
G1 X105.539 Y122.365 E28.9071 F300
G1 X104.969 Y122.950 E28.9888 F300
G1 X104.330 Y123.500 E29.0731 F300
G1 X103.627 Y124.006 E29.1597 F300
G1 X102.864 Y124.460 E29.2485 F300
G1 X102.048 Y124.857 E29.3393 F300
G1 X101.185 Y125.189 E29.4317 F300
G1 X100.283 Y125.452 E29.5256 F300
G1 X99.350 Y125.640 E29.6208 F300
G1 X98.395 Y125.752 E29.7170 F300
G1 X97.426 Y125.783 E29.8139 F300
G1 X96.453 Y125.735 E29.9113 F300
G1 X95.485 Y125.605 E30.0090 F300
G1 X94.531 Y125.396 E30.1066 F300
G1 X93.600 Y125.109 E30.2041 F300
G1 X92.701 Y124.748 E30.3010 F300
G1 X91.841 Y124.316 E30.3971 F300
G1 X91.029 Y123.820 E30.4923 F300
G1 X90.272 Y123.265 E30.5863 F300
G1 X89.574 Y122.658 E30.6787 F300
G1 X88.943 Y122.006 E30.7695 F300
G1 X88.382 Y121.318 E30.8583 F300
G1 X87.894 Y120.602 E30.9449 F300
G1 X87.481 Y119.867 E31.0292 F300
G1 X87.145 Y119.122 E31.1109 F300
G1 X86.887 Y118.377 E31.1898 F300
G1 X86.703 Y117.639 E31.2658 F300
G1 X86.593 Y116.919 E31.3386 F300
G1 X86.554 Y116.225 E31.4081 F300
G1 X86.580 Y115.565 E31.4742 F300
G1 X86.668 Y114.945 E31.5368 F300
G1 X86.810 Y114.374 E31.5957 F300
G1 X87.000 Y113.856 E31.6508 F300
G1 X87.231 Y113.398 E31.7021 F300
G1 X87.494 Y113.003 E31.7496 F300
G1 X87.780 Y112.674 E31.7932 F300
G1 X88.082 Y112.413 E31.8331 F300
G1 X88.391 Y112.221 E31.8694 F300
G1 X88.696 Y112.099 E31.9023 F300
G1 X88.990 Y112.044 E31.9322 F300
G1 X89.263 Y112.054 E31.9596 F300
G1 X89.507 Y112.127 E31.9851 F300
G1 X89.715 Y112.257 E32.0096 F300
G1 X89.880 Y112.439 E32.0341 F300
G1 X89.993 Y112.667 E32.0596 F300
G1 X90.051 Y112.934 E32.0869 F300
G1 X90.048 Y113.233 E32.1168 F300
G1 X89.980 Y113.555 E32.1497 F300
G1 X89.845 Y113.892 E32.1860 F300
G1 X89.641 Y114.235 E32.2259 F300
G1 X89.367 Y114.574 E32.2696 F300
G1 X89.023 Y114.902 E32.3171 F300
G1 X88.612 Y115.209 E32.3684 F300
G1 X88.135 Y115.486 E32.4235 F300
G1 X87.597 Y115.725 E32.4824 F300
G1 X87.002 Y115.918 E32.5449 F300
G1 X86.356 Y116.059 E32.6110 F300
G1 X85.666 Y116.141 E32.6806 F300
G1 X84.938 Y116.158 E32.7534 F300
G1 X84.180 Y116.105 E32.8294 F300
G1 X83.401 Y115.980 E32.9083 F300
G1 X82.609 Y115.779 E32.9900 F300
G1 X81.813 Y115.500 E33.0743 F300
G1 X81.024 Y115.144 E33.1609 F300
G1 X80.248 Y114.710 E33.2497 F300
G1 X79.497 Y114.202 E33.3404 F300
G1 X78.778 Y113.621 E33.4329 F300
G1 X78.100 Y112.971 E33.5268 F300
G1 X77.470 Y112.257 E33.6220 F300
G1 X76.896 Y111.486 E33.7182 F300
G1 X76.384 Y110.663 E33.8151 F300
G1 X75.940 Y109.796 E33.9125 F300
G1 X75.568 Y108.893 E34.0102 F300
G1 X75.272 Y107.962 E34.1078 F300
G1 X75.055 Y107.012 E34.2053 F300
G1 X74.918 Y106.053 E34.3022 F300
G1 X74.862 Y105.093 E34.3983 F300
G1 X74.886 Y104.141 E34.4935 F300
G1 X74.988 Y103.207 E34.5875 F300
G1 X75.165 Y102.300 E34.6799 F300
G1 X75.414 Y101.427 E34.7707 F300
G1 X75.729 Y100.597 E34.8595 F300
G1 X76.105 Y99.816 E34.9461 F300
G1 X76.535 Y99.092 E35.0304 F300
G1 X77.013 Y98.429 E35.1121 F300
G1 X77.529 Y97.832 E35.1910 F300
G1 X78.075 Y97.304 E35.2670 F300
G1 X78.644 Y96.849 E35.3398 F300
G1 X79.226 Y96.468 E35.4093 F300
G1 X79.811 Y96.161 E35.4754 F300
G1 X80.391 Y95.927 E35.5380 F300
G1 X80.957 Y95.764 E35.5969 F300
G1 X81.500 Y95.670 E35.6520 F300
G1 X82.012 Y95.640 E35.7033 F300
G1 X82.486 Y95.670 E35.7508 F300
G1 X82.915 Y95.754 E35.7944 F300
G1 X83.291 Y95.886 E35.8343 F300
G1 X83.611 Y96.057 E35.8706 F300
G1 X83.870 Y96.260 E35.9035 F300
G1 X84.065 Y96.487 E35.9334 F300
G1 X84.192 Y96.729 E35.9608 F300
G1 X84.252 Y96.977 E35.9863 F300
G1 X84.243 Y97.222 E36.0108 F300
G1 X84.167 Y97.455 E36.0353 F300
G1 X84.027 Y97.668 E36.0608 F300
G1 X83.824 Y97.851 E36.0881 F300
G1 X83.564 Y97.998 E36.1180 F300
G1 X83.251 Y98.100 E36.1509 F300
G1 X82.892 Y98.152 E36.1872 F300
G1 X82.493 Y98.146 E36.2271 F300
G1 X82.061 Y98.078 E36.2708 F300
G1 X81.606 Y97.945 E36.3183 F300
G1 X81.135 Y97.742 E36.3696 F300
G1 X80.656 Y97.467 E36.4247 F300
G1 X80.180 Y97.121 E36.4836 F300
G1 X79.715 Y96.703 E36.5461 F300
G1 X79.270 Y96.214 E36.6122 F300
G1 X78.854 Y95.657 E36.6818 F300
G1 X78.476 Y95.034 E36.7546 F300
G1 X78.142 Y94.352 E36.8306 F300
G1 X77.861 Y93.614 E36.9095 F300
G1 X77.640 Y92.828 E36.9912 F300
G1 X77.483 Y92.000 E37.0754 F300
G1 X77.397 Y91.138 E37.1621 F300
G1 X77.385 Y90.250 E37.2509 F300
G1 X77.449 Y89.345 E37.3416 F300
G1 X77.593 Y88.431 E37.4341 F300
G1 X77.817 Y87.519 E37.5280 F300
G1 X78.120 Y86.617 E37.6232 F300
G1 X78.501 Y85.734 E37.7194 F300
G1 X78.958 Y84.879 E37.8163 F300
G1 X79.487 Y84.061 E37.9137 F300
G1 X80.083 Y83.288 E38.0114 F300
G1 X80.741 Y82.566 E38.1090 F300
G1 X81.455 Y81.903 E38.2065 F300
G1 X82.218 Y81.305 E38.3034 F300
G1 X83.021 Y80.776 E38.3995 F300
G1 X83.857 Y80.321 E38.4947 F300
G1 X84.716 Y79.943 E38.5886 F300
G1 X85.591 Y79.642 E38.6811 F300
G1 X86.471 Y79.421 E38.7718 F300
G1 X87.348 Y79.279 E38.8607 F300
G1 X88.212 Y79.215 E38.9473 F300
G1 X89.054 Y79.225 E39.0316 F300
G1 X89.867 Y79.307 E39.1133 F300
G1 X90.642 Y79.455 E39.1922 F300
G1 X91.372 Y79.665 E39.2682 F300
G1 X92.051 Y79.930 E39.3410 F300
G1 X92.672 Y80.243 E39.4105 F300
G1 X93.230 Y80.596 E39.4766 F300
G1 X93.723 Y80.981 E39.5392 F300
G1 X94.147 Y81.390 E39.5981 F300
G1 X94.500 Y81.813 E39.6532 F300
G1 X94.782 Y82.242 E39.7045 F300
G1 X94.993 Y82.668 E39.7520 F300
G1 X95.134 Y83.081 E39.7956 F300
G1 X95.209 Y83.473 E39.8355 F300
G1 X95.221 Y83.835 E39.8718 F300
G1 X95.174 Y84.161 E39.9047 F300
G1 X95.075 Y84.443 E39.9346 F300
G1 X94.929 Y84.674 E39.9619 F300
G1 X94.744 Y84.850 E39.9875 F300
G1 X94.528 Y84.965 E40.0120 F300
G1 X94.288 Y85.016 E40.0365 F300
G1 X94.033 Y85.000 E40.0620 F300
G1 X93.773 Y84.917 E40.0893 F300
G1 X93.516 Y84.765 E40.1192 F300
G1 X93.271 Y84.545 E40.1521 F300
G1 X93.047 Y84.260 E40.1884 F300
G1 X92.852 Y83.911 E40.2283 F300
G1 X92.695 Y83.504 E40.2720 F300
G1 X92.583 Y83.043 E40.3195 F300
G1 X92.523 Y82.533 E40.3708 F300
G1 X92.522 Y81.982 E40.4259 F300
G1 X92.583 Y81.396 E40.4848 F300
G1 X92.713 Y80.784 E40.5473 F300
G1 X92.914 Y80.155 E40.6134 F300
G1 X93.189 Y79.516 E40.6830 F300
G1 X93.538 Y78.877 E40.7558 F300
G1 X93.963 Y78.247 E40.8318 F300
G1 X94.461 Y77.635 E40.9107 F300
G1 X95.031 Y77.050 E40.9924 F300
G1 X95.670 Y76.500 E41.0766 F300
G1 X96.373 Y75.994 E41.1633 F300
G1 X97.136 Y75.540 E41.2521 F300
G1 X97.952 Y75.143 E41.3428 F300
G1 X98.815 Y74.811 E41.4353 F300
G1 X99.717 Y74.548 E41.5292 F300
G1 X100.650 Y74.360 E41.6244 F300
G1 X101.605 Y74.248 E41.7206 F300
G1 X102.574 Y74.217 E41.8175 F300
G1 X103.547 Y74.265 E41.9149 F300
G1 X104.515 Y74.395 E42.0126 F300
G1 X105.469 Y74.604 E42.1102 F300
G1 X106.400 Y74.891 E42.2077 F300
G1 X107.299 Y75.252 E42.3046 F300
G1 X108.159 Y75.684 E42.4007 F300
G1 X108.971 Y76.180 E42.4959 F300
G1 X109.728 Y76.735 E42.5898 F300
G1 X110.426 Y77.342 E42.6823 F300
G1 X111.057 Y77.994 E42.7730 F300
G1 X111.618 Y78.682 E42.8619 F300
G1 X112.106 Y79.398 E42.9485 F300
G1 X112.519 Y80.133 E43.0328 F300
G1 X112.855 Y80.878 E43.1145 F300
G1 X113.113 Y81.623 E43.1934 F300
G1 X113.297 Y82.361 E43.2693 F300
G1 X113.407 Y83.081 E43.3422 F300
G1 X113.446 Y83.775 E43.4117 F300
G1 X113.420 Y84.435 E43.4778 F300
G1 X113.332 Y85.055 E43.5404 F300
G1 X113.190 Y85.626 E43.5993 F300
G1 X113.000 Y86.144 E43.6544 F300
G1 X112.769 Y86.602 E43.7057 F300
G1 X112.506 Y86.997 E43.7532 F300
G1 X112.220 Y87.326 E43.7968 F300
G1 X111.918 Y87.587 E43.8367 F300
G1 X111.609 Y87.779 E43.8730 F300
G1 X111.304 Y87.901 E43.9059 F300
G1 X111.010 Y87.956 E43.9358 F300
G1 X110.737 Y87.946 E43.9631 F300
G1 X110.493 Y87.873 E43.9886 F300
G1 X110.285 Y87.743 E44.0132 F300
G1 X110.120 Y87.561 E44.0377 F300
G1 X110.007 Y87.333 E44.0632 F300
G1 X109.949 Y87.066 E44.0905 F300
G1 X109.952 Y86.767 E44.1204 F300
G1 X110.020 Y86.445 E44.1533 F300
G1 X110.155 Y86.108 E44.1896 F300
G1 X110.359 Y85.765 E44.2295 F300
G1 X110.633 Y85.426 E44.2732 F300
G1 X110.977 Y85.098 E44.3207 F300
G1 X111.388 Y84.791 E44.3720 F300
G1 X111.865 Y84.514 E44.4271 F300
G1 X112.403 Y84.275 E44.4860 F300
G1 X112.998 Y84.082 E44.5485 F300
G1 X113.644 Y83.941 E44.6146 F300
G1 X114.334 Y83.859 E44.6842 F300
G1 X115.062 Y83.842 E44.7570 F300
G1 X115.820 Y83.895 E44.8330 F300
G1 X116.599 Y84.020 E44.9119 F300
G1 X117.391 Y84.221 E44.9936 F300
G1 X118.187 Y84.500 E45.0778 F300
G1 X118.976 Y84.856 E45.1645 F300
G1 X119.752 Y85.290 E45.2533 F300
G1 X120.503 Y85.798 E45.3440 F300
G1 X121.222 Y86.379 E45.4365 F300
G1 X121.900 Y87.029 E45.5304 F300
G1 X122.530 Y87.743 E45.6256 F300
G1 X123.104 Y88.514 E45.7218 F300
G1 X123.616 Y89.337 E45.8187 F300
G1 X124.060 Y90.204 E45.9161 F300
G1 X124.432 Y91.107 E46.0138 F300
G1 X124.728 Y92.038 E46.1114 F300
G1 X124.945 Y92.988 E46.2089 F300
G1 X125.082 Y93.947 E46.3058 F300
G1 X125.138 Y94.907 E46.4019 F300
G1 X125.114 Y95.859 E46.4971 F300
G1 X125.012 Y96.793 E46.5910 F300
G1 X124.835 Y97.700 E46.6835 F300
G1 X124.586 Y98.573 E46.7742 F300
G1 X124.271 Y99.403 E46.8630 F300
G1 X123.895 Y100.184 E46.9497 F300
G1 X123.465 Y100.908 E47.0340 F300
G1 X122.987 Y101.571 E47.1157 F300
G1 X122.471 Y102.168 E47.1946 F300
G1 X121.925 Y102.696 E47.2705 F300
G1 X121.356 Y103.151 E47.3434 F300
G1 X120.774 Y103.532 E47.4129 F300
G1 X120.189 Y103.839 E47.4790 F300
G1 X119.609 Y104.073 E47.5416 F300
G1 X119.043 Y104.236 E47.6004 F300
G1 X118.500 Y104.330 E47.6556 F300
G1 X117.988 Y104.360 E47.7069 F300
G1 X117.514 Y104.330 E47.7544 F300
G1 X117.085 Y104.246 E47.7980 F300
G1 X116.709 Y104.114 E47.8379 F300
G1 X116.389 Y103.943 E47.8742 F300
G1 X116.130 Y103.740 E47.9071 F300
G1 X115.935 Y103.513 E47.9370 F300
G1 X115.808 Y103.271 E47.9643 F300
G1 X115.748 Y103.023 E47.9898 F300
G1 X115.757 Y102.778 E48.0144 F300
G1 E46.5144 F1200   ; Retract

; === LAYER 3/3 (Z=10.0mm, θ=20.0°) ===
G1 Z11.00 F600   ; Z-hop
G1 X115.035 Y105.472 F1200   ; Travel to start
G1 Z10.00 F300   ; Lower to layer height
G1 E48.0144 F1200   ; Prime
G1 X115.150 Y105.256 E48.0389 F300
G1 X115.326 Y105.071 E48.0644 F300
G1 X115.557 Y104.925 E48.0917 F300
G1 X115.839 Y104.826 E48.1216 F300
G1 X116.165 Y104.779 E48.1545 F300
G1 X116.527 Y104.791 E48.1908 F300
G1 X116.919 Y104.866 E48.2307 F300
G1 X117.332 Y105.007 E48.2744 F300
G1 X117.758 Y105.218 E48.3219 F300
G1 X118.187 Y105.500 E48.3732 F300
G1 X118.610 Y105.853 E48.4283 F300
G1 X119.019 Y106.277 E48.4872 F300
G1 X119.404 Y106.770 E48.5497 F300
G1 X119.757 Y107.328 E48.6158 F300
G1 X120.070 Y107.949 E48.6854 F300
G1 X120.335 Y108.628 E48.7582 F300
G1 X120.545 Y109.358 E48.8342 F300
G1 X120.693 Y110.133 E48.9131 F300
G1 X120.775 Y110.946 E48.9948 F300
G1 X120.785 Y111.788 E49.0790 F300
G1 X120.721 Y112.652 E49.1657 F300
G1 X120.579 Y113.529 E49.2545 F300
G1 X120.358 Y114.409 E49.3452 F300
G1 X120.057 Y115.284 E49.4377 F300
G1 X119.679 Y116.143 E49.5316 F300
G1 X119.224 Y116.979 E49.6268 F300
G1 X118.695 Y117.782 E49.7230 F300
G1 X118.097 Y118.545 E49.8199 F300
G1 X117.434 Y119.259 E49.9173 F300
G1 X116.712 Y119.917 E50.0150 F300
G1 X115.939 Y120.513 E50.1126 F300
G1 X115.121 Y121.042 E50.2101 F300
G1 X114.266 Y121.499 E50.3070 F300
G1 X113.383 Y121.880 E50.4031 F300
G1 X112.481 Y122.183 E50.4983 F300
G1 X111.569 Y122.407 E50.5922 F300
G1 X110.655 Y122.551 E50.6847 F300
G1 X109.750 Y122.615 E50.7754 F300
G1 X108.862 Y122.603 E50.8642 F300
G1 X108.000 Y122.517 E50.9509 F300
G1 X107.172 Y122.360 E51.0352 F300
G1 X106.386 Y122.139 E51.1169 F300
G1 X105.648 Y121.858 E51.1958 F300
G1 X104.966 Y121.524 E51.2717 F300
G1 X104.343 Y121.146 E51.3446 F300
G1 X103.786 Y120.730 E51.4141 F300
G1 X103.297 Y120.285 E51.4802 F300
G1 X102.879 Y119.820 E51.5428 F300
G1 X102.533 Y119.344 E51.6016 F300
G1 X102.258 Y118.865 E51.6568 F300
G1 X102.055 Y118.394 E51.7081 F300
G1 X101.922 Y117.939 E51.7556 F300
G1 X101.854 Y117.507 E51.7992 F300
G1 X101.848 Y117.108 E51.8391 F300
G1 X101.900 Y116.749 E51.8754 F300
G1 X102.002 Y116.436 E51.9083 F300
G1 X102.149 Y116.176 E51.9382 F300
G1 X102.332 Y115.973 E51.9655 F300
G1 X102.545 Y115.833 E51.9910 F300
G1 X102.778 Y115.757 E52.0156 F300
G1 X103.023 Y115.748 E52.0401 F300
G1 X103.271 Y115.808 E52.0656 F300
G1 X103.513 Y115.935 E52.0929 F300
G1 X103.740 Y116.130 E52.1228 F300
G1 X103.943 Y116.389 E52.1557 F300
G1 X104.114 Y116.709 E52.1920 F300
G1 X104.246 Y117.085 E52.2319 F300
G1 X104.330 Y117.514 E52.2756 F300
G1 X104.360 Y117.988 E52.3230 F300
G1 X104.330 Y118.500 E52.3744 F300
G1 X104.236 Y119.043 E52.4295 F300
G1 X104.073 Y119.609 E52.4884 F300
G1 X103.839 Y120.189 E52.5509 F300
G1 X103.532 Y120.774 E52.6170 F300
G1 X103.151 Y121.356 E52.6866 F300
G1 X102.696 Y121.925 E52.7594 F300
G1 X102.168 Y122.471 E52.8354 F300
G1 X101.571 Y122.987 E52.9143 F300
G1 X100.908 Y123.465 E52.9960 F300
G1 X100.184 Y123.895 E53.0802 F300
G1 X99.403 Y124.271 E53.1669 F300
G1 X98.573 Y124.586 E53.2557 F300
G1 X97.700 Y124.835 E53.3464 F300
G1 X96.793 Y125.012 E53.4389 F300
G1 X95.859 Y125.114 E53.5328 F300
G1 X94.907 Y125.138 E53.6280 F300
G1 X93.947 Y125.082 E53.7242 F300
G1 X92.988 Y124.945 E53.8211 F300
G1 X92.038 Y124.728 E53.9185 F300
G1 X91.107 Y124.432 E54.0162 F300
G1 X90.204 Y124.060 E54.1138 F300
G1 X89.337 Y123.616 E54.2113 F300
G1 X88.514 Y123.104 E54.3082 F300
G1 X87.743 Y122.530 E54.4043 F300
G1 X87.029 Y121.900 E54.4995 F300
G1 X86.379 Y121.222 E54.5934 F300
G1 X85.798 Y120.503 E54.6859 F300
G1 X85.290 Y119.752 E54.7766 F300
G1 X84.856 Y118.976 E54.8654 F300
G1 X84.500 Y118.187 E54.9521 F300
G1 X84.221 Y117.391 E55.0364 F300
G1 X84.020 Y116.599 E55.1181 F300
G1 X83.895 Y115.820 E55.1970 F300
G1 X83.842 Y115.062 E55.2729 F300
G1 X83.859 Y114.334 E55.3458 F300
G1 X83.941 Y113.644 E55.4153 F300
G1 X84.082 Y112.998 E55.4814 F300
G1 X84.275 Y112.403 E55.5440 F300
G1 X84.514 Y111.865 E55.6028 F300
G1 X84.791 Y111.388 E55.6580 F300
G1 X85.098 Y110.977 E55.7093 F300
G1 X85.426 Y110.633 E55.7568 F300
G1 X85.765 Y110.359 E55.8004 F300
G1 X86.108 Y110.155 E55.8403 F300
G1 X86.445 Y110.020 E55.8766 F300
G1 X86.767 Y109.952 E55.9095 F300
G1 X87.066 Y109.949 E55.9394 F300
G1 X87.333 Y110.007 E55.9667 F300
G1 X87.561 Y110.120 E55.9922 F300
G1 X87.743 Y110.285 E56.0168 F300
G1 X87.873 Y110.493 E56.0413 F300
G1 X87.946 Y110.737 E56.0668 F300
G1 X87.956 Y111.010 E56.0941 F300
G1 X87.901 Y111.304 E56.1240 F300
G1 X87.779 Y111.609 E56.1569 F300
G1 X87.587 Y111.918 E56.1932 F300
G1 X87.326 Y112.220 E56.2331 F300
G1 X86.997 Y112.506 E56.2768 F300
G1 X86.602 Y112.769 E56.3242 F300
G1 X86.144 Y113.000 E56.3756 F300
G1 X85.626 Y113.190 E56.4307 F300
G1 X85.055 Y113.332 E56.4896 F300
G1 X84.435 Y113.420 E56.5521 F300
G1 X83.775 Y113.446 E56.6182 F300
G1 X83.081 Y113.407 E56.6878 F300
G1 X82.361 Y113.297 E56.7606 F300
G1 X81.623 Y113.113 E56.8365 F300
G1 X80.878 Y112.855 E56.9155 F300
G1 X80.133 Y112.519 E56.9972 F300
G1 X79.398 Y112.106 E57.0814 F300
G1 X78.682 Y111.618 E57.1681 F300
G1 X77.994 Y111.057 E57.2569 F300
G1 X77.342 Y110.426 E57.3476 F300
G1 X76.735 Y109.728 E57.4401 F300
G1 X76.180 Y108.971 E57.5340 F300
G1 X75.684 Y108.159 E57.6292 F300
G1 X75.252 Y107.299 E57.7254 F300
G1 X74.891 Y106.400 E57.8223 F300
G1 X74.604 Y105.469 E57.9197 F300
G1 X74.395 Y104.515 E58.0174 F300
G1 X74.265 Y103.547 E58.1150 F300
G1 X74.217 Y102.574 E58.2124 F300
G1 X74.248 Y101.605 E58.3094 F300
G1 X74.360 Y100.650 E58.4055 F300
G1 X74.548 Y99.717 E58.5007 F300
G1 X74.811 Y98.815 E58.5946 F300
G1 X75.143 Y97.952 E58.6871 F300
G1 X75.540 Y97.136 E58.7778 F300
G1 X75.994 Y96.373 E58.8666 F300
G1 X76.500 Y95.670 E58.9533 F300
G1 X77.050 Y95.031 E59.0376 F300
G1 X77.635 Y94.461 E59.1193 F300
G1 X78.247 Y93.963 E59.1982 F300
G1 X78.877 Y93.538 E59.2741 F300
G1 X79.516 Y93.189 E59.3470 F300
G1 X80.155 Y92.914 E59.4165 F300
G1 X80.784 Y92.713 E59.4826 F300
G1 X81.396 Y92.583 E59.5452 F300
G1 X81.982 Y92.522 E59.6040 F300
G1 X82.533 Y92.523 E59.6592 F300
G1 X83.043 Y92.583 E59.7105 F300
G1 X83.504 Y92.695 E59.7580 F300
G1 X83.911 Y92.852 E59.8016 F300
G1 X84.260 Y93.047 E59.8415 F300
G1 X84.545 Y93.271 E59.8778 F300
G1 X84.765 Y93.516 E59.9107 F300
G1 X84.917 Y93.773 E59.9406 F300
G1 X85.000 Y94.033 E59.9679 F300
G1 X85.016 Y94.288 E59.9934 F300
G1 X84.965 Y94.528 E60.0180 F300
G1 X84.850 Y94.744 E60.0425 F300
G1 X84.674 Y94.929 E60.0680 F300
G1 X84.443 Y95.075 E60.0953 F300
G1 X84.161 Y95.174 E60.1252 F300
G1 X83.835 Y95.221 E60.1581 F300
G1 X83.473 Y95.209 E60.1944 F300
G1 X83.081 Y95.134 E60.2343 F300
G1 X82.668 Y94.993 E60.2780 F300
G1 X82.242 Y94.782 E60.3254 F300
G1 X81.813 Y94.500 E60.3768 F300
G1 X81.390 Y94.147 E60.4319 F300
G1 X80.981 Y93.723 E60.4908 F300
G1 X80.596 Y93.230 E60.5533 F300
G1 X80.243 Y92.672 E60.6194 F300
G1 X79.930 Y92.051 E60.6890 F300
G1 X79.665 Y91.372 E60.7618 F300
G1 X79.455 Y90.642 E60.8377 F300
G1 X79.307 Y89.867 E60.9167 F300
G1 X79.225 Y89.054 E60.9984 F300
G1 X79.215 Y88.212 E61.0826 F300
G1 X79.279 Y87.348 E61.1693 F300
G1 X79.421 Y86.471 E61.2581 F300
G1 X79.642 Y85.591 E61.3488 F300
G1 X79.943 Y84.716 E61.4413 F300
G1 X80.321 Y83.857 E61.5352 F300
G1 X80.776 Y83.021 E61.6304 F300
G1 X81.305 Y82.218 E61.7266 F300
G1 X81.903 Y81.455 E61.8235 F300
G1 X82.566 Y80.741 E61.9209 F300
G1 X83.288 Y80.083 E62.0186 F300
G1 X84.061 Y79.487 E62.1162 F300
G1 X84.879 Y78.958 E62.2136 F300
G1 X85.734 Y78.501 E62.3106 F300
G1 X86.617 Y78.120 E62.4067 F300
G1 X87.519 Y77.817 E62.5019 F300
G1 X88.431 Y77.593 E62.5958 F300
G1 X89.345 Y77.449 E62.6883 F300
G1 X90.250 Y77.385 E62.7790 F300
G1 X91.138 Y77.397 E62.8678 F300
G1 X92.000 Y77.483 E62.9545 F300
G1 X92.828 Y77.640 E63.0388 F300
G1 X93.614 Y77.861 E63.1205 F300
G1 X94.352 Y78.142 E63.1994 F300
G1 X95.034 Y78.476 E63.2753 F300
G1 X95.657 Y78.854 E63.3482 F300
G1 X96.214 Y79.270 E63.4177 F300
G1 X96.703 Y79.715 E63.4838 F300
G1 X97.121 Y80.180 E63.5464 F300
G1 X97.467 Y80.656 E63.6052 F300
G1 X97.742 Y81.135 E63.6604 F300
G1 X97.945 Y81.606 E63.7117 F300
G1 X98.078 Y82.061 E63.7592 F300
G1 X98.146 Y82.493 E63.8028 F300
G1 X98.152 Y82.892 E63.8427 F300
G1 X98.100 Y83.251 E63.8790 F300
G1 X97.998 Y83.564 E63.9119 F300
G1 X97.851 Y83.824 E63.9418 F300
G1 X97.668 Y84.027 E63.9691 F300
G1 X97.455 Y84.167 E63.9946 F300
G1 X97.222 Y84.243 E64.0192 F300
G1 X96.977 Y84.252 E64.0437 F300
G1 X96.729 Y84.192 E64.0692 F300
G1 X96.487 Y84.065 E64.0965 F300
G1 X96.260 Y83.870 E64.1264 F300
G1 X96.057 Y83.611 E64.1593 F300
G1 X95.886 Y83.291 E64.1956 F300
G1 X95.754 Y82.915 E64.2355 F300
G1 X95.670 Y82.486 E64.2792 F300
G1 X95.640 Y82.012 E64.3266 F300
G1 X95.670 Y81.500 E64.3780 F300
G1 X95.764 Y80.957 E64.4331 F300
G1 X95.927 Y80.391 E64.4920 F300
G1 X96.161 Y79.811 E64.5545 F300
G1 X96.468 Y79.226 E64.6206 F300
G1 X96.849 Y78.644 E64.6901 F300
G1 X97.304 Y78.075 E64.7630 F300
G1 X97.832 Y77.529 E64.8389 F300
G1 X98.429 Y77.013 E64.9179 F300
G1 X99.092 Y76.535 E64.9996 F300
G1 X99.816 Y76.105 E65.0838 F300
G1 X100.597 Y75.729 E65.1705 F300
G1 X101.427 Y75.414 E65.2593 F300
G1 X102.300 Y75.165 E65.3500 F300
G1 X103.207 Y74.988 E65.4425 F300
G1 X104.141 Y74.886 E65.5364 F300
G1 X105.093 Y74.862 E65.6316 F300
G1 X106.053 Y74.918 E65.7278 F300
G1 X107.012 Y75.055 E65.8247 F300
G1 X107.962 Y75.272 E65.9221 F300
G1 X108.893 Y75.568 E66.0198 F300
G1 X109.796 Y75.940 E66.1174 F300
G1 X110.663 Y76.384 E66.2148 F300
G1 X111.486 Y76.896 E66.3118 F300
G1 X112.257 Y77.470 E66.4079 F300
G1 X112.971 Y78.100 E66.5031 F300
G1 X113.621 Y78.778 E66.5970 F300
G1 X114.202 Y79.497 E66.6895 F300
G1 X114.710 Y80.248 E66.7802 F300
G1 X115.144 Y81.024 E66.8690 F300
G1 X115.500 Y81.813 E66.9557 F300
G1 X115.779 Y82.609 E67.0400 F300
G1 X115.980 Y83.401 E67.1216 F300
G1 X116.105 Y84.180 E67.2006 F300
G1 X116.158 Y84.938 E67.2765 F300
G1 X116.141 Y85.666 E67.3494 F300
G1 X116.059 Y86.356 E67.4189 F300
G1 X115.918 Y87.002 E67.4850 F300
G1 X115.725 Y87.597 E67.5476 F300
G1 X115.486 Y88.135 E67.6064 F300
G1 X115.209 Y88.612 E67.6616 F300
G1 X114.902 Y89.023 E67.7129 F300
G1 X114.574 Y89.367 E67.7603 F300
G1 X114.235 Y89.641 E67.8040 F300
G1 X113.892 Y89.845 E67.8439 F300
G1 X113.555 Y89.980 E67.8802 F300
G1 X113.233 Y90.048 E67.9131 F300
G1 X112.934 Y90.051 E67.9430 F300
G1 X112.667 Y89.993 E67.9703 F300
G1 X112.439 Y89.880 E67.9958 F300
G1 X112.257 Y89.715 E68.0204 F300
G1 X112.127 Y89.507 E68.0449 F300
G1 X112.054 Y89.263 E68.0704 F300
G1 X112.044 Y88.990 E68.0977 F300
G1 X112.099 Y88.696 E68.1276 F300
G1 X112.221 Y88.391 E68.1605 F300
G1 X112.413 Y88.082 E68.1968 F300
G1 X112.674 Y87.780 E68.2367 F300
G1 X113.003 Y87.494 E68.2804 F300
G1 X113.398 Y87.231 E68.3278 F300
G1 X113.856 Y87.000 E68.3791 F300
G1 X114.374 Y86.810 E68.4343 F300
G1 X114.945 Y86.668 E68.4932 F300
G1 X115.565 Y86.580 E68.5557 F300
G1 X116.225 Y86.554 E68.6218 F300
G1 X116.919 Y86.593 E68.6913 F300
G1 X117.639 Y86.703 E68.7642 F300
G1 X118.377 Y86.887 E68.8401 F300
G1 X119.122 Y87.145 E68.9191 F300
G1 X119.867 Y87.481 E69.0008 F300
G1 X120.602 Y87.894 E69.0850 F300
G1 X121.318 Y88.382 E69.1717 F300
G1 X122.006 Y88.943 E69.2605 F300
G1 X122.658 Y89.574 E69.3512 F300
G1 X123.265 Y90.272 E69.4437 F300
G1 X123.820 Y91.029 E69.5376 F300
G1 X124.316 Y91.841 E69.6328 F300
G1 X124.748 Y92.701 E69.7290 F300
G1 X125.109 Y93.600 E69.8259 F300
G1 X125.396 Y94.531 E69.9233 F300
G1 X125.605 Y95.485 E70.0210 F300
G1 X125.735 Y96.453 E70.1186 F300
G1 X125.783 Y97.426 E70.2160 F300
G1 X125.752 Y98.395 E70.3130 F300
G1 X125.640 Y99.350 E70.4091 F300
G1 X125.452 Y100.283 E70.5043 F300
G1 X125.189 Y101.185 E70.5982 F300
G1 X124.857 Y102.048 E70.6907 F300
G1 X124.460 Y102.864 E70.7814 F300
G1 X124.006 Y103.627 E70.8702 F300
G1 X123.500 Y104.330 E70.9569 F300
G1 X122.950 Y104.969 E71.0412 F300
G1 X122.365 Y105.539 E71.1228 F300
G1 X121.753 Y106.037 E71.2018 F300
G1 X121.123 Y106.462 E71.2777 F300
G1 X120.484 Y106.811 E71.3506 F300
G1 X119.845 Y107.086 E71.4201 F300
G1 X119.216 Y107.287 E71.4862 F300
G1 X118.604 Y107.417 E71.5488 F300
G1 X118.018 Y107.478 E71.6076 F300
G1 X117.467 Y107.477 E71.6628 F300
G1 X116.957 Y107.417 E71.7141 F300
G1 X116.496 Y107.305 E71.7615 F300
G1 X116.089 Y107.148 E71.8052 F300
G1 X115.740 Y106.953 E71.8451 F300
G1 X115.455 Y106.729 E71.8814 F300
G1 X115.235 Y106.484 E71.9143 F300
G1 X115.083 Y106.227 E71.9442 F300
G1 X115.000 Y105.967 E71.9715 F300
G1 X114.984 Y105.712 E71.9970 F300
G1 X115.035 Y105.472 E72.0216 F300
G1 E70.5216 F1200   ; Retract

; === FINISH ===
G1 Z30.0 F600      ; Raise nozzle clear
G1 X0 Y0 F1200   ; Move to home
M84              ; Disable motors

; === END ===
